{
"type": "FeatureCollection",
"name": "Kec_Karangpenang",
"crs": { "type": "name", "properties": { "name": "urn:ogc:def:crs:OGC:1.3:CRS84" } },
"features": [
{ "type": "Feature", "properties": { "OBJECTID": 9835.0, "NAMOBJ": "Blu uran", "FCODE": "BA03070040", "METADATA": "TASWIL1000020221227_DATA_BATAS_DESAKELURAHAN", "SRS_ID": "SRGI 2013", "KDCPUM": "35.27.14", "KDEPUM": "35.27.14.2001", "KDPKAB": "35.27", "KDPPUM": "35", "LUASWH": 0.0, "TIPADM": 1.0, "WADMKC": "Karangpenang", "WADMKD": "Blu uran", "WADMKK": "Sampang", "WADMPR": "Jawa Timur", "UUPP": "Hasil Delineasi Batas Desa 2019", "LUAS": 10.97258354 }, "geometry": { "type": "MultiPolygon", "coordinates": [ [ [ [ 113.392670526000074, -7.057557802999952, 0.0 ], [ 113.392800905000058, -7.058349282999927, 0.0 ], [ 113.392831262000072, -7.058709716999942, 0.0 ], [ 113.392858500000102, -7.059033107999937, 0.0 ], [ 113.393818617000079, -7.05982722899995, 0.0 ], [ 113.393913448000035, -7.059905663999928, 0.0 ], [ 113.393747038000015, -7.060129255999925, 0.0 ], [ 113.393695158000014, -7.060198963999937, 0.0 ], [ 113.39383212700011, -7.060570374999941, 0.0 ], [ 113.394077158000073, -7.06094117899994, 0.0 ], [ 113.394283523000013, -7.061145031999956, 0.0 ], [ 113.394473432000041, -7.061294798999938, 0.0 ], [ 113.394703415000095, -7.06144607899995, 0.0 ], [ 113.394904541000074, -7.06156416999994, 0.0 ], [ 113.394987251000089, -7.061863976999973, 0.0 ], [ 113.395088748000035, -7.061966497999947, 0.0 ], [ 113.395372381000016, -7.062252988999944, 0.0 ], [ 113.395550531000026, -7.062432935999936, 0.0 ], [ 113.39563200900011, -7.062820066999961, 0.0 ], [ 113.39572355700011, -7.063265152999975, 0.0 ], [ 113.39536205200011, -7.063563649999935, 0.0 ], [ 113.395210266000049, -7.064260372999968, 0.0 ], [ 113.395735973000114, -7.064982051999948, 0.0 ], [ 113.395752598000058, -7.065744424999934, 0.0 ], [ 113.395632624000086, -7.066956650999941, 0.0 ], [ 113.395563096000046, -7.068065587999968, 0.0 ], [ 113.395510148000085, -7.068887750999977, 0.0 ], [ 113.395365396000102, -7.069653296999945, 0.0 ], [ 113.395279214000084, -7.070669708999958, 0.0 ], [ 113.394640261000063, -7.071069732999945, 0.0 ], [ 113.394020420000061, -7.07118673399998, 0.0 ], [ 113.393799697000077, -7.07122839799996, 0.0 ], [ 113.393809282, -7.071479937999925, 0.0 ], [ 113.393747012000063, -7.071661158999973, 0.0 ], [ 113.393662207000034, -7.072014279999962, 0.0 ], [ 113.393651843000043, -7.072302950999926, 0.0 ], [ 113.393782190000024, -7.072898320999968, 0.0 ], [ 113.393785512000022, -7.072959794999974, 0.0 ], [ 113.393795826000087, -7.073150618999932, 0.0 ], [ 113.393641577000039, -7.073320697999975, 0.0 ], [ 113.393605961000048, -7.073359968999966, 0.0 ], [ 113.393489041000066, -7.073201968999967, 0.0 ], [ 113.392131120000045, -7.071366958999931, 0.0 ], [ 113.391992161000076, -7.070994990999964, 0.0 ], [ 113.391970919000073, -7.070745959999954, 0.0 ], [ 113.392006920000085, -7.070325029999935, 0.0 ], [ 113.392038959000047, -7.070056018999935, 0.0 ], [ 113.391766080000025, -7.069331971999929, 0.0 ], [ 113.391398160000108, -7.068942, 0.0 ], [ 113.391225, -7.06879196999995, 0.0 ], [ 113.390908920000015, -7.068671009999946, 0.0 ], [ 113.390651880000064, -7.068665971999962, 0.0 ], [ 113.390353080000068, -7.068708, 0.0 ], [ 113.390142841000056, -7.068522959999939, 0.0 ], [ 113.389988040000048, -7.068270960999939, 0.0 ], [ 113.389755119000029, -7.067671019999977, 0.0 ], [ 113.389702920000104, -7.067242980999936, 0.0 ], [ 113.389589159000025, -7.066665001999979, 0.0 ], [ 113.389489080000089, -7.065935009999976, 0.0 ], [ 113.38944084100001, -7.065596968999955, 0.0 ], [ 113.38934112000004, -7.065428041999951, 0.0 ], [ 113.389318079000077, -7.065403021999941, 0.0 ], [ 113.389239961000044, -7.065056971999979, 0.0 ], [ 113.389157881000074, -7.064828009999928, 0.0 ], [ 113.389008839000098, -7.064650981999932, 0.0 ], [ 113.388777001000108, -7.064541989999952, 0.0 ], [ 113.388397920000102, -7.064445959999944, 0.0 ], [ 113.388247080000042, -7.064431019999972, 0.0 ], [ 113.388158879000116, -7.06436901099994, 0.0 ], [ 113.385751920000075, -7.064379, 0.0 ], [ 113.384414879000019, -7.06416399099993, 0.0 ], [ 113.382402841000044, -7.063440029999981, 0.0 ], [ 113.378529961000027, -7.061939008999957, 0.0 ], [ 113.377362121000033, -7.060579019999977, 0.0 ], [ 113.377264918000037, -7.060338989999934, 0.0 ], [ 113.377177081000013, -7.060148009999978, 0.0 ], [ 113.377146840000023, -7.059959011999979, 0.0 ], [ 113.376929041000039, -7.059652020999977, 0.0 ], [ 113.37639984100008, -7.059288959999947, 0.0 ], [ 113.376189961000023, -7.059117958999934, 0.0 ], [ 113.375810880000017, -7.058702971999935, 0.0 ], [ 113.375607840000043, -7.058525041999928, 0.0 ], [ 113.374999080000066, -7.058194019999974, 0.0 ], [ 113.37499872, -7.05819374899994, 0.0 ], [ 113.374707121000029, -7.058034988999964, 0.0 ], [ 113.374522081, -7.057914031999928, 0.0 ], [ 113.374427038000022, -7.057752028999971, 0.0 ], [ 113.37430896, -7.057494991999931, 0.0 ], [ 113.374215, -7.057295009999962, 0.0 ], [ 113.374190161000115, -7.057217971999933, 0.0 ], [ 113.373489960000029, -7.057483021999928, 0.0 ], [ 113.373393841000052, -7.057564021999951, 0.0 ], [ 113.373321840000017, -7.057625041999927, 0.0 ], [ 113.372588161000067, -7.058064958999978, 0.0 ], [ 113.372202960000095, -7.058330008999974, 0.0 ], [ 113.371923960000117, -7.058646991999979, 0.0 ], [ 113.371629121000069, -7.059349980999968, 0.0 ], [ 113.371439040000041, -7.059912029999964, 0.0 ], [ 113.370915960000048, -7.060944959999972, 0.0 ], [ 113.370521040000085, -7.061401979999971, 0.0 ], [ 113.369886, -7.061884018999933, 0.0 ], [ 113.369218921000083, -7.062551011999972, 0.0 ], [ 113.368831921000037, -7.062794998999948, 0.0 ], [ 113.368542840000032, -7.063009019999981, 0.0 ], [ 113.368376880000028, -7.063576019999971, 0.0 ], [ 113.368380841000089, -7.063586011999973, 0.0 ], [ 113.368379040000036, -7.06389497999993, 0.0 ], [ 113.368329, -7.064019988999974, 0.0 ], [ 113.368163040000013, -7.06427604199996, 0.0 ], [ 113.368163040000013, -7.064512019999938, 0.0 ], [ 113.368357081000113, -7.065304021999964, 0.0 ], [ 113.368439161000083, -7.065480959999945, 0.0 ], [ 113.368397040000104, -7.065839971999935, 0.0 ], [ 113.368338000000108, -7.066172971999947, 0.0 ], [ 113.368523041000117, -7.066306980999968, 0.0 ], [ 113.369036041000072, -7.066653031999977, 0.0 ], [ 113.369113079000044, -7.066856969999947, 0.0 ], [ 113.36913, -7.067079, 0.0 ], [ 113.369078880000075, -7.067258009999932, 0.0 ], [ 113.369046119000018, -7.067496960999961, 0.0 ], [ 113.369109840000078, -7.067856958999926, 0.0 ], [ 113.369212079000022, -7.068024, 0.0 ], [ 113.369457960000091, -7.068293998999934, 0.0 ], [ 113.369563079000045, -7.06833900099997, 0.0 ], [ 113.369834159000106, -7.068312, 0.0 ], [ 113.370165, -7.068382020999934, 0.0 ], [ 113.370438961000104, -7.068546988999969, 0.0 ], [ 113.370611041000075, -7.068722041999933, 0.0 ], [ 113.370800038000084, -7.069049011999937, 0.0 ], [ 113.370848998000042, -7.069133971999975, 0.0 ], [ 113.370851880000032, -7.069570019999958, 0.0 ], [ 113.370712918000095, -7.069987978999961, 0.0 ], [ 113.370643081000026, -7.070175001999928, 0.0 ], [ 113.370554158, -7.070416021999961, 0.0 ], [ 113.370442920000073, -7.070724989999974, 0.0 ], [ 113.370338881000066, -7.070992018999959, 0.0 ], [ 113.370265079000092, -7.071080041999949, 0.0 ], [ 113.370116040000084, -7.071168959999966, 0.0 ], [ 113.36989716100004, -7.071230968999942, 0.0 ], [ 113.36958612, -7.071251039999936, 0.0 ], [ 113.369226121000111, -7.071273989999952, 0.0 ], [ 113.368958999000029, -7.07135003999997, 0.0 ], [ 113.368718160000071, -7.071438959999966, 0.0 ], [ 113.368494960000021, -7.071524011999941, 0.0 ], [ 113.36828112, -7.071725970999978, 0.0 ], [ 113.368101839000019, -7.071906959999978, 0.0 ], [ 113.36772815900008, -7.072244011999942, 0.0 ], [ 113.36750784000003, -7.072390980999955, 0.0 ], [ 113.367471121000108, -7.072400968999943, 0.0 ], [ 113.366384999000047, -7.072934041999929, 0.0 ], [ 113.366238119000059, -7.07300000999993, 0.0 ], [ 113.366040118000114, -7.072998029999951, 0.0 ], [ 113.365842840000028, -7.072937008999929, 0.0 ], [ 113.365764001000116, -7.07285195999998, 0.0 ], [ 113.365734840000073, -7.072707959999946, 0.0 ], [ 113.365622159000054, -7.072531018999939, 0.0 ], [ 113.365308961000096, -7.072337969999978, 0.0 ], [ 113.365176839000014, -7.072254989999976, 0.0 ], [ 113.365045081000062, -7.072084980999932, 0.0 ], [ 113.364888120000046, -7.071873029999949, 0.0 ], [ 113.364659160000087, -7.071735958999966, 0.0 ], [ 113.364617038, -7.07171102999996, 0.0 ], [ 113.364128880000067, -7.071471988999974, 0.0 ], [ 113.364006120000113, -7.071383969999943, 0.0 ], [ 113.363764920000108, -7.071009029999971, 0.0 ], [ 113.363619840000069, -7.070688, 0.0 ], [ 113.363508959000114, -7.070002020999937, 0.0 ], [ 113.363492041000086, -7.069901039999934, 0.0 ], [ 113.363108999000019, -7.069737961999977, 0.0 ], [ 113.362751880000019, -7.069637970999963, 0.0 ], [ 113.362418160000061, -7.069590990999927, 0.0 ], [ 113.362185961000023, -7.069501979999927, 0.0 ], [ 113.361908039000014, -7.069338989999949, 0.0 ], [ 113.361756840000112, -7.06919696999995, 0.0 ], [ 113.361719041000015, -7.069133971999975, 0.0 ], [ 113.361665041000037, -7.068967020999935, 0.0 ], [ 113.361599160000083, -7.068843, 0.0 ], [ 113.36134896100009, -7.068652018999956, 0.0 ], [ 113.360990038000068, -7.068626009999946, 0.0 ], [ 113.360726881, -7.068583978999925, 0.0 ], [ 113.360447160000035, -7.068540958999961, 0.0 ], [ 113.359188961000086, -7.069272029999979, 0.0 ], [ 113.358971158000031, -7.069393979999973, 0.0 ], [ 113.358805921000112, -7.069421969999951, 0.0 ], [ 113.358623040000111, -7.069348980999962, 0.0 ], [ 113.358412081000097, -7.069221001999949, 0.0 ], [ 113.358228840000038, -7.069164029999968, 0.0 ], [ 113.357973961000084, -7.069346009999947, 0.0 ], [ 113.35776804000011, -7.069502970999963, 0.0 ], [ 113.357482921000042, -7.06962797999995, 0.0 ], [ 113.357248921000064, -7.069955039999968, 0.0 ], [ 113.357129038000039, -7.070112991999963, 0.0 ], [ 113.357117881000022, -7.07012703099997, 0.0 ], [ 113.356977840000013, -7.070207040999946, 0.0 ], [ 113.356834921000086, -7.070238, 0.0 ], [ 113.356737001000056, -7.070112, 0.0 ], [ 113.356595881000089, -7.07006096899994, 0.0 ], [ 113.356383120000032, -7.06999202999998, 0.0 ], [ 113.356280159000107, -7.069863958999974, 0.0 ], [ 113.356083961000081, -7.069592968999928, 0.0 ], [ 113.355960119000088, -7.069626000999961, 0.0 ], [ 113.355880921000107, -7.069733009999936, 0.0 ], [ 113.355861118, -7.069871970999941, 0.0 ], [ 113.355790920000118, -7.070033971999976, 0.0 ], [ 113.355678960000091, -7.070114969999963, 0.0 ], [ 113.355482041000073, -7.070147009999971, 0.0 ], [ 113.355037080000102, -7.070171039999934, 0.0 ], [ 113.354988121000019, -7.070113981999953, 0.0 ], [ 113.354916121000088, -7.069724009999959, 0.0 ], [ 113.354767081000091, -7.069599988999926, 0.0 ], [ 113.35435416100006, -7.069546981999963, 0.0 ], [ 113.354344080000033, -7.06953896999994, 0.0 ], [ 113.354223119000039, -7.069497030999969, 0.0 ], [ 113.354129879000084, -7.069385970999974, 0.0 ], [ 113.354020079000065, -7.069253039999978, 0.0 ], [ 113.35395384100002, -7.06917096199993, 0.0 ], [ 113.353873921000059, -7.069210019999957, 0.0 ], [ 113.353729920000092, -7.06942404199998, 0.0 ], [ 113.353464959, -7.069260958999962, 0.0 ], [ 113.353288921000058, -7.069075019999957, 0.0 ], [ 113.353193160000046, -7.068664980999927, 0.0 ], [ 113.352959879000082, -7.068554009999957, 0.0 ], [ 113.352792839000017, -7.068464011999936, 0.0 ], [ 113.352509879000081, -7.068093030999933, 0.0 ], [ 113.352324839000062, -7.067973958999971, 0.0 ], [ 113.352082920000043, -7.067856958999926, 0.0 ], [ 113.351922001000048, -7.067718001999935, 0.0 ], [ 113.351950080000051, -7.067307959999937, 0.0 ], [ 113.351978880000047, -7.067130028999941, 0.0 ], [ 113.351918040000101, -7.067010959999948, 0.0 ], [ 113.351762161000011, -7.066924021999966, 0.0 ], [ 113.35157784, -7.066905031999966, 0.0 ], [ 113.35147487800009, -7.066942021999978, 0.0 ], [ 113.351405041000021, -7.067123998999932, 0.0 ], [ 113.351357878000044, -7.067451960999961, 0.0 ], [ 113.351308918000086, -7.067565989999935, 0.0 ], [ 113.351159161000055, -7.067554019999932, 0.0 ], [ 113.350970880000091, -7.067441969999948, 0.0 ], [ 113.350880159000099, -7.067325959999948, 0.0 ], [ 113.350816080000072, -7.067138039999975, 0.0 ], [ 113.350619880000067, -7.066902959999936, 0.0 ], [ 113.350501080000072, -7.066843020999954, 0.0 ], [ 113.350434839000059, -7.066889009999954, 0.0 ], [ 113.350386960000037, -7.067006009999943, 0.0 ], [ 113.350268880000044, -7.067086019999977, 0.0 ], [ 113.350123081000106, -7.067080978999968, 0.0 ], [ 113.349971161000099, -7.066998001999934, 0.0 ], [ 113.349909960000105, -7.066918979999969, 0.0 ], [ 113.349917880000021, -7.066646011999978, 0.0 ], [ 113.349962159000029, -7.06636899199998, 0.0 ], [ 113.349948120000022, -7.066163968999945, 0.0 ], [ 113.349870001000113, -7.066099979999933, 0.0 ], [ 113.349949921000075, -7.066001969999945, 0.0 ], [ 113.350151880000112, -7.065767969999968, 0.0 ], [ 113.350476960000037, -7.065331019999974, 0.0 ], [ 113.350968001000069, -7.064622989999975, 0.0 ], [ 113.350376880000113, -7.063448038999979, 0.0 ], [ 113.349853081000106, -7.062783028999945, 0.0 ], [ 113.3496540000001, -7.062278038999978, 0.0 ], [ 113.349584160000063, -7.062092009999958, 0.0 ], [ 113.349441960000036, -7.061671979999971, 0.0 ], [ 113.349353041000086, -7.06144797099995, 0.0 ], [ 113.349165120000066, -7.061029019999978, 0.0 ], [ 113.348976841000081, -7.060746961999939, 0.0 ], [ 113.348692080000092, -7.060397041999977, 0.0 ], [ 113.348475, -7.060133969999981, 0.0 ], [ 113.348180879000097, -7.059881968999946, 0.0 ], [ 113.347716840000089, -7.059473011999955, 0.0 ], [ 113.347293839000031, -7.059518009999977, 0.0 ], [ 113.34665700100004, -7.059528989999933, 0.0 ], [ 113.346515880000084, -7.059556979999968, 0.0 ], [ 113.346412920000034, -7.059607020999977, 0.0 ], [ 113.34607596, -7.059909961999949, 0.0 ], [ 113.345908919000067, -7.060080960999926, 0.0 ], [ 113.345724960000098, -7.059881968999946, 0.0 ], [ 113.345647920000033, -7.059708989999933, 0.0 ], [ 113.34548304000009, -7.059403981999935, 0.0 ], [ 113.345282159000021, -7.059333958999957, 0.0 ], [ 113.344553879000046, -7.059167009999953, 0.0 ], [ 113.344057080000084, -7.059032998999953, 0.0 ], [ 113.34381192100011, -7.058878019999952, 0.0 ], [ 113.343597001000035, -7.058671020999952, 0.0 ], [ 113.343536161000088, -7.058534038999937, 0.0 ], [ 113.343365160000076, -7.058204011999976, 0.0 ], [ 113.343143040000086, -7.057990979999943, 0.0 ], [ 113.342937840000104, -7.057887028999971, 0.0 ], [ 113.342419080000013, -7.057623960999933, 0.0 ], [ 113.341704119000042, -7.057234979999976, 0.0 ], [ 113.341231081000046, -7.057086029999937, 0.0 ], [ 113.340980880000075, -7.056969029999948, 0.0 ], [ 113.34085812, -7.056806041999948, 0.0 ], [ 113.340687120000098, -7.056644038999934, 0.0 ], [ 113.34045492100006, -7.056606959999954, 0.0 ], [ 113.3401478400001, -7.056630988999927, 0.0 ], [ 113.339900881000062, -7.056594989999951, 0.0 ], [ 113.33990808100009, -7.056329038999934, 0.0 ], [ 113.339923920000047, -7.055811988999949, 0.0 ], [ 113.339869921000059, -7.055469000999949, 0.0 ], [ 113.339739961000078, -7.055179019999969, 0.0 ], [ 113.339430000000107, -7.054698960999929, 0.0 ], [ 113.339225880000072, -7.054544970999928, 0.0 ], [ 113.338513080000098, -7.054156980999949, 0.0 ], [ 113.338225080000029, -7.053982019999978, 0.0 ], [ 113.33763612100006, -7.053587009999944, 0.0 ], [ 113.337411841000062, -7.053426001999981, 0.0 ], [ 113.337387, -7.053379018999976, 0.0 ], [ 113.337381961, -7.053164008999943, 0.0 ], [ 113.337468001000047, -7.052685029999964, 0.0 ], [ 113.337496080000051, -7.052313958999946, 0.0 ], [ 113.3375119210001, -7.051757041999963, 0.0 ], [ 113.337510841000039, -7.051562009999941, 0.0 ], [ 113.337407880000114, -7.051239001999932, 0.0 ], [ 113.337510118000068, -7.05107196199998, 0.0 ], [ 113.337612, -7.050758040999938, 0.0 ], [ 113.337685081000018, -7.050303990999964, 0.0 ], [ 113.337636840000073, -7.049988000999974, 0.0 ], [ 113.337632880000115, -7.049661029999982, 0.0 ], [ 113.337726841000062, -7.04923496899994, 0.0 ], [ 113.337783001000048, -7.04909700099995, 0.0 ], [ 113.337897120000093, -7.048817008999947, 0.0 ], [ 113.338047961000029, -7.048637998999936, 0.0 ], [ 113.33812660000001, -7.048555250999925, 0.0 ], [ 113.338240920000089, -7.048434959999952, 0.0 ], [ 113.338491840000074, -7.048187998999936, 0.0 ], [ 113.338614960000086, -7.048076039999955, 0.0 ], [ 113.338833120000118, -7.047756988999936, 0.0 ], [ 113.33905596000011, -7.047365040999978, 0.0 ], [ 113.339142, -7.047042029999943, 0.0 ], [ 113.33928312, -7.046589961999928, 0.0 ], [ 113.339464920000069, -7.04597400199998, 0.0 ], [ 113.339589839000041, -7.045552978999979, 0.0 ], [ 113.339754001000074, -7.045054018999963, 0.0 ], [ 113.339988001000052, -7.044695009999941, 0.0 ], [ 113.340147120000097, -7.044290008999951, 0.0 ], [ 113.34027383900002, -7.043994988999941, 0.0 ], [ 113.340309840000032, -7.043640031999928, 0.0 ], [ 113.340443041000071, -7.043144039999959, 0.0 ], [ 113.340475081000022, -7.042559039999958, 0.0 ], [ 113.340448080000101, -7.042347001999929, 0.0 ], [ 113.340337921000014, -7.042173029999958, 0.0 ], [ 113.33997288, -7.042093019999925, 0.0 ], [ 113.339696039000046, -7.042044961999977, 0.0 ], [ 113.339635921000081, -7.041988981999964, 0.0 ], [ 113.339661840000076, -7.041653009999948, 0.0 ], [ 113.339711880000095, -7.041117958999962, 0.0 ], [ 113.339089081000111, -7.040598031999934, 0.0 ], [ 113.338882080000076, -7.040478959999973, 0.0 ], [ 113.338843920000045, -7.040071978999947, 0.0 ], [ 113.338738081000088, -7.039407960999938, 0.0 ], [ 113.338500840000052, -7.039169011999945, 0.0 ], [ 113.338082881000105, -7.038963988999967, 0.0 ], [ 113.337709920000066, -7.038569969999969, 0.0 ], [ 113.33724084000005, -7.038312029999929, 0.0 ], [ 113.337122039000064, -7.038428038999939, 0.0 ], [ 113.336983080000095, -7.038755009999932, 0.0 ], [ 113.336897040000053, -7.038914038999962, 0.0 ], [ 113.336615879000078, -7.039423979999981, 0.0 ], [ 113.336517959000048, -7.039578958999925, 0.0 ], [ 113.336382960000037, -7.039656, 0.0 ], [ 113.33614104000003, -7.03967400199997, 0.0 ], [ 113.335390080000025, -7.039397969999925, 0.0 ], [ 113.335251840000069, -7.039360979999969, 0.0 ], [ 113.335139158000061, -7.03945097999997, 0.0 ], [ 113.335000920000084, -7.039612979999958, 0.0 ], [ 113.334867, -7.039694969999971, 0.0 ], [ 113.334562081000058, -7.039690018999977, 0.0 ], [ 113.334221881000076, -7.039646009999956, 0.0 ], [ 113.333816880000086, -7.039657979999959, 0.0 ], [ 113.333545080000022, -7.039736011999935, 0.0 ], [ 113.333313960000055, -7.039951021999968, 0.0 ], [ 113.333101921000093, -7.040139029999978, 0.0 ], [ 113.333042161000094, -7.040170979999971, 0.0 ], [ 113.332961880000084, -7.040010959999961, 0.0 ], [ 113.332717080000066, -7.039807018999966, 0.0 ], [ 113.332389121, -7.039567979999958, 0.0 ], [ 113.332194, -7.039397969999925, 0.0 ], [ 113.331980158000079, -7.039276019999932, 0.0 ], [ 113.33175588000006, -7.038809998999966, 0.0 ], [ 113.331603959000063, -7.038650970999981, 0.0 ], [ 113.331499920000056, -7.038587968999934, 0.0 ], [ 113.331220920000078, -7.038675, 0.0 ], [ 113.331049920000055, -7.038728009999943, 0.0 ], [ 113.330747160000101, -7.03863395999997, 0.0 ], [ 113.33052396000005, -7.038512009999977, 0.0 ], [ 113.330404079, -7.038392039999962, 0.0 ], [ 113.330361961000108, -7.038294030999964, 0.0 ], [ 113.330422079000073, -7.037766, 0.0 ], [ 113.330481120000059, -7.037767979999956, 0.0 ], [ 113.330642040000043, -7.037708038999938, 0.0 ], [ 113.330877120000082, -7.03753901999994, 0.0 ], [ 113.33135196, -7.037090009999929, 0.0 ], [ 113.332011841000053, -7.036449029999972, 0.0 ], [ 113.332325039000011, -7.036149959999932, 0.0 ], [ 113.332601880000084, -7.035854038999958, 0.0 ], [ 113.332817160000104, -7.035478018999981, 0.0 ], [ 113.333137920000013, -7.034974019999936, 0.0 ], [ 113.333920921000072, -7.034063039999978, 0.0 ], [ 113.334033960000056, -7.033807979999949, 0.0 ], [ 113.334138, -7.033524029999967, 0.0 ], [ 113.334402960000034, -7.033139009999957, 0.0 ], [ 113.334634078000022, -7.032938039999976, 0.0 ], [ 113.335295041000109, -7.032372029999976, 0.0 ], [ 113.335495920000085, -7.032094019999931, 0.0 ], [ 113.335580878000087, -7.031813039999975, 0.0 ], [ 113.33559708100006, -7.031565, 0.0 ], [ 113.335605000000101, -7.031441969999946, 0.0 ], [ 113.335576921000097, -7.031139031999942, 0.0 ], [ 113.335571159000096, -7.030985041999941, 0.0 ], [ 113.33555388000002, -7.030838969999934, 0.0 ], [ 113.335545960000104, -7.030632960999981, 0.0 ], [ 113.335634880000043, -7.030503, 0.0 ], [ 113.335763041000064, -7.030411019999974, 0.0 ], [ 113.335481880000088, -7.029738, 0.0 ], [ 113.335318079000103, -7.029345960999933, 0.0 ], [ 113.335243920000039, -7.029084959999977, 0.0 ], [ 113.335188841000104, -7.028892, 0.0 ], [ 113.335124040000096, -7.028790028999936, 0.0 ], [ 113.335040160000062, -7.02865701199994, 0.0 ], [ 113.334887159, -7.028426968999952, 0.0 ], [ 113.334989040000096, -7.02793602099996, 0.0 ], [ 113.335080840000046, -7.027720019999947, 0.0 ], [ 113.335220880000065, -7.027611029999946, 0.0 ], [ 113.335464959000092, -7.027355969999974, 0.0 ], [ 113.335606080000048, -7.027309979999927, 0.0 ], [ 113.335731, -7.027208008999935, 0.0 ], [ 113.335823159000029, -7.026519961999952, 0.0 ], [ 113.335909921000052, -7.026408990999926, 0.0 ], [ 113.336076961000117, -7.02639800999998, 0.0 ], [ 113.336102161000099, -7.026144030999944, 0.0 ], [ 113.336117999000066, -7.02598500199997, 0.0 ], [ 113.335993080000094, -7.025472990999958, 0.0 ], [ 113.335772040000052, -7.024833989999934, 0.0 ], [ 113.335720920000085, -7.024717979999934, 0.0 ], [ 113.335711920000108, -7.02471302999993, 0.0 ], [ 113.335482958000057, -7.024586040999964, 0.0 ], [ 113.33509416000004, -7.024553998999977, 0.0 ], [ 113.335068960000058, -7.024552019999931, 0.0 ], [ 113.334977160000108, -7.024383989999933, 0.0 ], [ 113.334770881000054, -7.024014001999944, 0.0 ], [ 113.334643080000092, -7.02349002099993, 0.0 ], [ 113.334633, -7.023321988999953, 0.0 ], [ 113.33493288000011, -7.022790989999976, 0.0 ], [ 113.335255080000024, -7.022435038999959, 0.0 ], [ 113.335422841000081, -7.022259001999942, 0.0 ], [ 113.335526880000089, -7.021756979999964, 0.0 ], [ 113.335635960000104, -7.021370969999964, 0.0 ], [ 113.335777080000071, -7.020872009999948, 0.0 ], [ 113.335876080000048, -7.020473040999946, 0.0 ], [ 113.336031960000014, -7.020201961999931, 0.0 ], [ 113.336309881000034, -7.019726038999977, 0.0 ], [ 113.336358841000106, -7.019463959999939, 0.0 ], [ 113.336359921000053, -7.01946, 0.0 ], [ 113.336353080000094, -7.019404019999968, 0.0 ], [ 113.336413920000041, -7.019201968999937, 0.0 ], [ 113.336637840000094, -7.018966979999959, 0.0 ], [ 113.336736840000071, -7.018863029999977, 0.0 ], [ 113.33676816000002, -7.018754039999976, 0.0 ], [ 113.336701918000017, -7.018608959999938, 0.0 ], [ 113.336633160000019, -7.018521031999967, 0.0 ], [ 113.336580961000095, -7.018093978999957, 0.0 ], [ 113.336831879000101, -7.017138, 0.0 ], [ 113.336874, -7.017012001999944, 0.0 ], [ 113.336718121000104, -7.016941978999967, 0.0 ], [ 113.336676, -7.016910029999963, 0.0 ], [ 113.336273880000022, -7.016885009999953, 0.0 ], [ 113.336273159000029, -7.016886988999943, 0.0 ], [ 113.336254079000014, -7.016940989999966, 0.0 ], [ 113.33628504, -7.01721, 0.0 ], [ 113.336290080000026, -7.017242039999928, 0.0 ], [ 113.336181001000114, -7.017351031999965, 0.0 ], [ 113.336003880000021, -7.01739999199998, 0.0 ], [ 113.335680960000104, -7.017460018999941, 0.0 ], [ 113.33550708000007, -7.017505021999966, 0.0 ], [ 113.335418161, -7.017489988999955, 0.0 ], [ 113.335371, -7.017307020999965, 0.0 ], [ 113.335453078000114, -7.016842978999932, 0.0 ], [ 113.335459921000052, -7.016723011999943, 0.0 ], [ 113.335337159, -7.016571, 0.0 ], [ 113.335203960000058, -7.01649, 0.0 ], [ 113.335035119000054, -7.016473978999954, 0.0 ], [ 113.33475504, -7.016529958999968, 0.0 ], [ 113.33451204000005, -7.016681969999979, 0.0 ], [ 113.334382079000079, -7.016831998999976, 0.0 ], [ 113.334355080000023, -7.017294960999948, 0.0 ], [ 113.334347161000096, -7.017433019999942, 0.0 ], [ 113.334248880000018, -7.017540028999974, 0.0 ], [ 113.334081840000067, -7.017597989999956, 0.0 ], [ 113.333909041000084, -7.017560010999944, 0.0 ], [ 113.333529960000078, -7.017351031999965, 0.0 ], [ 113.333298119, -7.01726499199998, 0.0 ], [ 113.333168160000014, -7.017293969999969, 0.0 ], [ 113.3329838410001, -7.017384958999969, 0.0 ], [ 113.332870080000021, -7.017398008999976, 0.0 ], [ 113.332800961000089, -7.017282991999934, 0.0 ], [ 113.332794120000017, -7.017126029999929, 0.0 ], [ 113.332912920000012, -7.016805989999966, 0.0 ], [ 113.332952880000107, -7.016697, 0.0 ], [ 113.332870080000021, -7.016551021999931, 0.0 ], [ 113.33210796000003, -7.016429969999933, 0.0 ], [ 113.331850920000079, -7.016363008999974, 0.0 ], [ 113.331682080000064, -7.016246998999975, 0.0 ], [ 113.331566160000079, -7.016109029999939, 0.0 ], [ 113.33153196100011, -7.015854959999956, 0.0 ], [ 113.33152584000004, -7.015705018999938, 0.0 ], [ 113.331429, -7.01558198999993, 0.0 ], [ 113.331425040000113, -7.015080959999977, 0.0 ], [ 113.331476880000082, -7.014616020999938, 0.0 ], [ 113.331593159000022, -7.014222000999951, 0.0 ], [ 113.331768120000106, -7.013828969999963, 0.0 ], [ 113.332019041000081, -7.013268001999961, 0.0 ], [ 113.332268160000012, -7.012205009999946, 0.0 ], [ 113.332494960000076, -7.011595979999981, 0.0 ], [ 113.332808161000116, -7.010672039999974, 0.0 ], [ 113.332903920000035, -7.009624979999955, 0.0 ], [ 113.332982040000047, -7.008759, 0.0 ], [ 113.333014078000019, -7.007762971999966, 0.0 ], [ 113.33274804000007, -7.006555981999952, 0.0 ], [ 113.332676039000035, -7.006363018999934, 0.0 ], [ 113.332674958000098, -7.006242959999952, 0.0 ], [ 113.332674958000098, -7.006239988999937, 0.0 ], [ 113.332676039000035, -7.006194, 0.0 ], [ 113.33268, -7.006128029999957, 0.0 ], [ 113.332692960000031, -7.005879989999926, 0.0 ], [ 113.332705919000091, -7.005639959999939, 0.0 ], [ 113.332681080000043, -7.005176010999946, 0.0 ], [ 113.332651921000092, -7.004649958999948, 0.0 ], [ 113.332618080000088, -7.004430990999936, 0.0 ], [ 113.332498921000024, -7.004228040999976, 0.0 ], [ 113.332482, -7.004198969999948, 0.0 ], [ 113.332253041000058, -7.003971989999968, 0.0 ], [ 113.332061880000083, -7.003765981999948, 0.0 ], [ 113.332044960000076, -7.003576979999934, 0.0 ], [ 113.331987, -7.003568971999925, 0.0 ], [ 113.331762, -7.003490039999974, 0.0 ], [ 113.331103920000032, -7.00327700899993, 0.0 ], [ 113.330635920000077, -7.003163969999946, 0.0 ], [ 113.330486161000067, -7.003243979999979, 0.0 ], [ 113.330328120000104, -7.003376008999965, 0.0 ], [ 113.330329920000054, -7.003191959999981, 0.0 ], [ 113.330261160000077, -7.003098988999966, 0.0 ], [ 113.330152080000062, -7.003049039999951, 0.0 ], [ 113.329928880000011, -7.003032029999929, 0.0 ], [ 113.329339920000052, -7.002964980999934, 0.0 ], [ 113.329013041000053, -7.002834028999928, 0.0 ], [ 113.328596880000077, -7.00257401999994, 0.0 ], [ 113.328084960000069, -7.00226099899993, 0.0 ], [ 113.327526959000011, -7.002369989999977, 0.0 ], [ 113.327313120000099, -7.00230302999995, 0.0 ], [ 113.327228161000107, -7.002198989999954, 0.0 ], [ 113.32722491800007, -7.002035010999975, 0.0 ], [ 113.327310960000091, -7.001865, 0.0 ], [ 113.327413920000026, -7.001595988999952, 0.0 ], [ 113.327459999000098, -7.001271, 0.0 ], [ 113.32753488100002, -7.001031961999956, 0.0 ], [ 113.327538120000099, -7.001021969999954, 0.0 ], [ 113.32748016000005, -7.000975980999954, 0.0 ], [ 113.327391959000011, -7.000801019999926, 0.0 ], [ 113.327272080000057, -7.000444978999951, 0.0 ], [ 113.327118, -7.000048979999974, 0.0 ], [ 113.327031600000055, -7.000003889999959, 0.0 ], [ 113.327021879000085, -6.999999029999969, 0.0 ], [ 113.326971838000077, -6.999973021999949, 0.0 ], [ 113.326664040000082, -6.999795, 0.0 ], [ 113.326439041000071, -6.999553981999952, 0.0 ], [ 113.326239959000077, -6.999569998999959, 0.0 ], [ 113.326022161000083, -6.999659011999938, 0.0 ], [ 113.325788161000105, -6.999759, 0.0 ], [ 113.325788161000105, -6.999705, 0.0 ], [ 113.325768001000029, -6.99935697199993, 0.0 ], [ 113.325656039000023, -6.999165991999973, 0.0 ], [ 113.325494040000081, -6.999030991999973, 0.0 ], [ 113.325428158000022, -6.998922989999926, 0.0 ], [ 113.325478920000023, -6.99873101999998, 0.0 ], [ 113.325437880000095, -6.99857297899996, 0.0 ], [ 113.32532412, -6.998463991999927, 0.0 ], [ 113.325107038000056, -6.998360041999945, 0.0 ], [ 113.324878080000076, -6.998167980999938, 0.0 ], [ 113.324946840000052, -6.998055028999943, 0.0 ], [ 113.325001919000101, -6.997878, 0.0 ], [ 113.324943960000041, -6.997735979999959, 0.0 ], [ 113.324707078000074, -6.997435020999944, 0.0 ], [ 113.324565960000086, -6.997203989999946, 0.0 ], [ 113.324448960000041, -6.996947038999963, 0.0 ], [ 113.324283, -6.996807000999979, 0.0 ], [ 113.32417716000009, -6.996591991999935, 0.0 ], [ 113.324073118000115, -6.996266011999978, 0.0 ], [ 113.323866840000051, -6.995860019999952, 0.0 ], [ 113.323660921000055, -6.995412, 0.0 ], [ 113.32345392000002, -6.994964969999955, 0.0 ], [ 113.323268880000114, -6.994599029999961, 0.0 ], [ 113.323101120000047, -6.994310039999959, 0.0 ], [ 113.322296880000067, -6.99412302199994, 0.0 ], [ 113.322039839000013, -6.994032029999971, 0.0 ], [ 113.321634841000105, -6.993704969999953, 0.0 ], [ 113.321346120000044, -6.993510029999925, 0.0 ], [ 113.321298960000036, -6.993512009999961, 0.0 ], [ 113.320743840000091, -6.993451979999975, 0.0 ], [ 113.320398960000034, -6.99337898999994, 0.0 ], [ 113.320415880000041, -6.993261000999951, 0.0 ], [ 113.320361160000061, -6.993084959999976, 0.0 ], [ 113.320203838000111, -6.992855009999971, 0.0 ], [ 113.319992160000083, -6.992577989999972, 0.0 ], [ 113.319974160000015, -6.992297009999959, 0.0 ], [ 113.320067040000026, -6.992034029999957, 0.0 ], [ 113.320176840000045, -6.991772039999944, 0.0 ], [ 113.320361160000061, -6.991334009999946, 0.0 ], [ 113.320460160000039, -6.991098029999932, 0.0 ], [ 113.320518839000101, -6.990999028999966, 0.0 ], [ 113.320844604000058, -6.990828005999958, 0.0 ], [ 113.321169, -6.990370018999954, 0.0 ], [ 113.321270880000043, -6.990279029999954, 0.0 ], [ 113.321345039000107, -6.990104968999958, 0.0 ], [ 113.321378880000111, -6.989849010999933, 0.0 ], [ 113.321489040000074, -6.989202989999967, 0.0 ], [ 113.32177992000004, -6.988281029999939, 0.0 ], [ 113.321996998000031, -6.987767040999927, 0.0 ], [ 113.322013920000018, -6.987725010999952, 0.0 ], [ 113.322095999000112, -6.987381029999938, 0.0 ], [ 113.32215, -6.98687603999997, 0.0 ], [ 113.322132, -6.98644404099997, 0.0 ], [ 113.322125160000041, -6.986261968999941, 0.0 ], [ 113.32205604, -6.985697038999945, 0.0 ], [ 113.322022920000109, -6.985007008999958, 0.0 ], [ 113.322030120000022, -6.984928980999939, 0.0 ], [ 113.322034080000094, -6.984881009999981, 0.0 ], [ 113.322196080000026, -6.984434969999938, 0.0 ], [ 113.322218040000052, -6.984347039999932, 0.0 ], [ 113.322349079000105, -6.98379597099995, 0.0 ], [ 113.322349079000105, -6.983791019999956, 0.0 ], [ 113.323026960000107, -6.984064979999971, 0.0 ], [ 113.32331892000002, -6.984203039999954, 0.0 ], [ 113.323560839000038, -6.984277019999979, 0.0 ], [ 113.323965840000028, -6.984288000999925, 0.0 ], [ 113.324397120000071, -6.984335969999961, 0.0 ], [ 113.324903999000071, -6.984359009999935, 0.0 ], [ 113.325323039000068, -6.984420029999967, 0.0 ], [ 113.32563984, -6.984532979999926, 0.0 ], [ 113.326185960000089, -6.98472, 0.0 ], [ 113.326693920000025, -6.984869039999978, 0.0 ], [ 113.327251920000094, -6.98501798999996, 0.0 ], [ 113.327886960000114, -6.985205010999948, 0.0 ], [ 113.328647999000054, -6.985391040999957, 0.0 ], [ 113.329257120000079, -6.985565009999959, 0.0 ], [ 113.329789920000053, -6.985713958999952, 0.0 ], [ 113.330284920000054, -6.985851029999935, 0.0 ], [ 113.330995920000078, -6.986050020999926, 0.0 ], [ 113.331566880000082, -6.986186009999926, 0.0 ], [ 113.332061880000083, -6.98631002999997, 0.0 ], [ 113.332493160000013, -6.98642198999994, 0.0 ], [ 113.332988160000014, -6.986534038999935, 0.0 ], [ 113.333672879, -6.986656978999974, 0.0 ], [ 113.334422040000049, -6.986829959999966, 0.0 ], [ 113.335031160000085, -6.986979000999952, 0.0 ], [ 113.335652880000112, -6.987140010999951, 0.0 ], [ 113.336389078000025, -6.987326039999971, 0.0 ], [ 113.337048960000061, -6.987512968999965, 0.0 ], [ 113.337645120000047, -6.987699990999943, 0.0 ], [ 113.338127880000116, -6.987836969999933, 0.0 ], [ 113.338875958000017, -6.988023, 0.0 ], [ 113.33958696000002, -6.988221989999943, 0.0 ], [ 113.340061080000055, -6.988329989999954, 0.0 ], [ 113.340453841000112, -6.98848100999993, 0.0 ], [ 113.340831121000065, -6.988544011999977, 0.0 ], [ 113.341363919000059, -6.988643009999976, 0.0 ], [ 113.341781880000099, -6.988691969999934, 0.0 ], [ 113.342047919000038, -6.988741021999942, 0.0 ], [ 113.342302080000081, -6.988827959999981, 0.0 ], [ 113.342758920000051, -6.988951979999968, 0.0 ], [ 113.343279120000034, -6.989076, 0.0 ], [ 113.34402792000003, -6.989312971999937, 0.0 ], [ 113.3446759200001, -6.989473979999957, 0.0 ], [ 113.345246880000104, -6.989623019999954, 0.0 ], [ 113.34580488000006, -6.989771969999936, 0.0 ], [ 113.346426960000031, -6.98995899099998, 0.0 ], [ 113.346973080000112, -6.990158969999925, 0.0 ], [ 113.347773, -6.990445980999937, 0.0 ], [ 113.348640960000012, -6.990824969999949, 0.0 ], [ 113.34879396000008, -6.990969961999951, 0.0 ], [ 113.348855161000074, -6.990984, 0.0 ], [ 113.348945881000077, -6.991004969999949, 0.0 ], [ 113.349216960000035, -6.991059958999926, 0.0 ], [ 113.349229921000074, -6.991063019999956, 0.0 ], [ 113.349668041000086, -6.99122897999996, 0.0 ], [ 113.350937040000076, -6.991711019999968, 0.0 ], [ 113.351292, -6.991829009999947, 0.0 ], [ 113.3516001590001, -6.991848989999937, 0.0 ], [ 113.352153841000018, -6.992132038999955, 0.0 ], [ 113.352699960000109, -6.992318969999928, 0.0 ], [ 113.353170119000083, -6.992595000999927, 0.0 ], [ 113.353652880000027, -6.992934030999947, 0.0 ], [ 113.354034840000054, -6.993198, 0.0 ], [ 113.3544668400001, -6.993486989999951, 0.0 ], [ 113.354899919000104, -6.993838980999953, 0.0 ], [ 113.35506174000011, -6.993982408999955, 0.0 ], [ 113.355268919000082, -6.994166041999961, 0.0 ], [ 113.355423191000114, -6.993853729999955, 0.0 ], [ 113.355513955000106, -6.993833559999928, 0.0 ], [ 113.355549001000099, -6.993597959999931, 0.0 ], [ 113.355687959000079, -6.993360989999928, 0.0 ], [ 113.355869041, -6.993253980999953, 0.0 ], [ 113.355931305000013, -6.993213091999962, 0.0 ], [ 113.35615640900005, -6.993089978999933, 0.0 ], [ 113.3562184540001, -6.992956953999965, 0.0 ], [ 113.356409227000086, -6.992825263999976, 0.0 ], [ 113.356477637000012, -6.992739007999944, 0.0 ], [ 113.356527012000015, -6.992422301999966, 0.0 ], [ 113.356603154000027, -6.992284292999955, 0.0 ], [ 113.356727362000015, -6.99216389299994, 0.0 ], [ 113.357122352000033, -6.992044919999955, 0.0 ], [ 113.357536378000077, -6.992063954999935, 0.0 ], [ 113.357749764, -6.992020800999967, 0.0 ], [ 113.35789692000003, -6.992029979999927, 0.0 ], [ 113.358235999000044, -6.992045573999974, 0.0 ], [ 113.35852623400001, -6.992116302999932, 0.0 ], [ 113.358994450000068, -6.99199961599993, 0.0 ], [ 113.359107961000063, -6.991972018999945, 0.0 ], [ 113.35956418, -6.991800294999962, 0.0 ], [ 113.359948813000074, -6.991605333999928, 0.0 ], [ 113.360146920000034, -6.991458029999933, 0.0 ], [ 113.360395261, -6.991278171999966, 0.0 ], [ 113.360662990000037, -6.991331082999977, 0.0 ], [ 113.360853347000102, -6.991297768999971, 0.0 ], [ 113.361224542000059, -6.991340598999955, 0.0 ], [ 113.36172423000005, -6.99152143799995, 0.0 ], [ 113.361952657000074, -6.991564269999969, 0.0 ], [ 113.362285783000061, -6.991602340999975, 0.0 ], [ 113.36270361600009, -6.99165944799995, 0.0 ], [ 113.366796764000014, -6.99030077499998, 0.0 ], [ 113.367088249000062, -6.990205595999953, 0.0 ], [ 113.367308348000051, -6.990220467999961, 0.0 ], [ 113.367501680000032, -6.990175852999926, 0.0 ], [ 113.367573063, -6.990065802999936, 0.0 ], [ 113.367870496000023, -6.990131238999936, 0.0 ], [ 113.368242287000044, -6.990140162999978, 0.0 ], [ 113.368512950000081, -6.990143136999961, 0.0 ], [ 113.368866894, -6.990083648999928, 0.0 ], [ 113.369161354000084, -6.990098519999947, 0.0 ], [ 113.369310071000086, -6.989937908999934, 0.0 ], [ 113.369628323000029, -6.989988469999957, 0.0 ], [ 113.370146108000085, -6.989999182999952, 0.0 ], [ 113.370125017000078, -6.989941729999941, 0.0 ], [ 113.369910866000055, -6.989156507999951, 0.0 ], [ 113.369806170000061, -6.988834091999934, 0.0 ], [ 113.36979189300007, -6.988755568999977, 0.0 ], [ 113.369816877000062, -6.988694893999934, 0.0 ], [ 113.370045306000065, -6.988370095999926, 0.0 ], [ 113.370123827000043, -6.98830228099996, 0.0 ], [ 113.370412933000011, -6.988102407999975, 0.0 ], [ 113.370630653000035, -6.987738348999926, 0.0 ], [ 113.370702038000104, -6.987549181999952, 0.0 ], [ 113.370780559000082, -6.98736715299998, 0.0 ], [ 113.370848373000058, -6.987288630999956, 0.0 ], [ 113.37106252500007, -6.987070909999943, 0.0 ], [ 113.371240985000099, -6.986838912999929, 0.0 ], [ 113.371376615000031, -6.986471286999972, 0.0 ], [ 113.371440859000018, -6.986000152999964, 0.0 ], [ 113.371447998, -6.98582169499997, 0.0 ], [ 113.371440859000018, -6.985668217999944, 0.0 ], [ 113.371480120000115, -6.985539726999946, 0.0 ], [ 113.371626457000048, -6.985379112999965, 0.0 ], [ 113.371812055000078, -6.985189945999934, 0.0 ], [ 113.371894146000045, -6.985043608999945, 0.0 ], [ 113.3719090190001, -6.984860390999927, 0.0 ], [ 113.371916157000101, -6.98459627099993, 0.0 ], [ 113.371966126000075, -6.984253628999966, 0.0 ], [ 113.371955418000084, -6.983882431999973, 0.0 ], [ 113.371951849000084, -6.983561204999944, 0.0 ], [ 113.372035327000049, -6.983237498999927, 0.0 ], [ 113.372084108000081, -6.983192132999932, 0.0 ], [ 113.372305397000105, -6.982995824999932, 0.0 ], [ 113.372690870000042, -6.982503276999978, 0.0 ], [ 113.372769392, -6.98234266399993, 0.0 ], [ 113.372859812000115, -6.982228450999969, 0.0 ], [ 113.373052548000032, -6.982064265999952, 0.0 ], [ 113.373172710000063, -6.981872719999956, 0.0 ], [ 113.373333323000111, -6.981486057999973, 0.0 ], [ 113.373416605000102, -6.981355186999963, 0.0 ], [ 113.373642654000037, -6.981218367999929, 0.0 ], [ 113.374017419000097, -6.981022062999955, 0.0 ], [ 113.374314853000101, -6.980807910999943, 0.0 ], [ 113.374421928000061, -6.980617553999934, 0.0 ], [ 113.374517106000098, -6.980201147999935, 0.0 ], [ 113.374552798000082, -6.979766896999934, 0.0 ], [ 113.374534953000079, -6.979404028999966, 0.0 ], [ 113.374475465000046, -6.979160135999962, 0.0 ], [ 113.374570644000073, -6.978940034999937, 0.0 ], [ 113.374676480000062, -6.978659703999938, 0.0 ], [ 113.374857914000017, -6.978270067999972, 0.0 ], [ 113.375000682000064, -6.97808863299997, 0.0 ], [ 113.375188065000088, -6.977690073999952, 0.0 ], [ 113.375330832000031, -6.977484844999935, 0.0 ], [ 113.375500369000065, -6.977368845999933, 0.0 ], [ 113.375830520000022, -6.977211207999972, 0.0 ], [ 113.376062516000047, -6.97701787799997, 0.0 ], [ 113.37627369300003, -6.976782904999936, 0.0 ], [ 113.376443229000074, -6.976604443999975, 0.0 ], [ 113.376502717000108, -6.976387318999969, 0.0 ], [ 113.376541383000017, -6.976057169999933, 0.0 ], [ 113.376532460000021, -6.975902502999929, 0.0 ], [ 113.376425384000072, -6.975709171999938, 0.0 ], [ 113.376255848000028, -6.975515841999936, 0.0 ], [ 113.376071439000043, -6.975289791999955, 0.0 ], [ 113.375970312000049, -6.975144049999926, 0.0 ], [ 113.375931647000016, -6.97500723099995, 0.0 ], [ 113.375955442000077, -6.974873386999946, 0.0 ], [ 113.376029799000094, -6.974796053999967, 0.0 ], [ 113.376139849000083, -6.974665184999935, 0.0 ], [ 113.376226103000022, -6.974403442999972, 0.0 ], [ 113.376054960000033, -6.974109000999931, 0.0 ], [ 113.37610896000001, -6.974110979999978, 0.0 ], [ 113.376306960000079, -6.974079029999928, 0.0 ], [ 113.376534119000098, -6.973956, 0.0 ], [ 113.377016880000042, -6.973703010999941, 0.0 ], [ 113.37759, -6.973757009999929, 0.0 ], [ 113.378376960000082, -6.973952039999972, 0.0 ], [ 113.378650919000052, -6.973962029999939, 0.0 ], [ 113.379026040000099, -6.97397904099995, 0.0 ], [ 113.379460920000042, -6.974063998999952, 0.0 ], [ 113.379536880000046, -6.974063009999952, 0.0 ], [ 113.379753959000027, -6.974057968999944, 0.0 ], [ 113.37981084, -6.974056978999954, 0.0 ], [ 113.380058880000092, -6.973936020999929, 0.0 ], [ 113.38019316000009, -6.973815959999968, 0.0 ], [ 113.380392960000108, -6.973489979999954, 0.0 ], [ 113.380404120000094, -6.973291979999942, 0.0 ], [ 113.380423920000112, -6.973070039999925, 0.0 ], [ 113.380507080000029, -6.972935039999925, 0.0 ], [ 113.38051788000007, -6.972929998999973, 0.0 ], [ 113.380648920000112, -6.972870960999956, 0.0 ], [ 113.380950960000064, -6.972761969999965, 0.0 ], [ 113.3811, -6.972707969999931, 0.0 ], [ 113.381515078, -6.972517978999974, 0.0 ], [ 113.381988120000074, -6.972344009999972, 0.0 ], [ 113.382514080000078, -6.972487018999971, 0.0 ], [ 113.383028878, -6.97273703999997, 0.0 ], [ 113.383212840000056, -6.97282703999997, 0.0 ], [ 113.383535039000094, -6.972885, 0.0 ], [ 113.38396200000011, -6.972874019999949, 0.0 ], [ 113.38409916, -6.972795989999952, 0.0 ], [ 113.384243880000099, -6.972696988999928, 0.0 ], [ 113.38476012000001, -6.972344009999972, 0.0 ], [ 113.384968918000027, -6.972222959999954, 0.0 ], [ 113.3850538800001, -6.972182010999973, 0.0 ], [ 113.3850931180001, -6.972156990999963, 0.0 ], [ 113.385188160000098, -6.972084, 0.0 ], [ 113.385372120000056, -6.972038008999959, 0.0 ], [ 113.385601080000015, -6.972044038999968, 0.0 ], [ 113.38586892, -6.972135029999947, 0.0 ], [ 113.385952080000038, -6.972219989999928, 0.0 ], [ 113.386200120000012, -6.972541019999937, 0.0 ], [ 113.386299840000106, -6.972824969999976, 0.0 ], [ 113.386388040000043, -6.972920010999928, 0.0 ], [ 113.386609080000085, -6.972965009999939, 0.0 ], [ 113.386921920000077, -6.972900028999959, 0.0 ], [ 113.387181119000047, -6.97284603099996, 0.0 ], [ 113.387289838000015, -6.972797969999931, 0.0 ], [ 113.388548039000057, -6.972239969999976, 0.0 ], [ 113.388883920000012, -6.971976989999973, 0.0 ], [ 113.389274880000016, -6.971658030999947, 0.0 ], [ 113.389315920000058, -6.971622029999935, 0.0 ], [ 113.389377839000076, -6.971567039999968, 0.0 ], [ 113.389611839000054, -6.971361028999979, 0.0 ], [ 113.389983, -6.97096997999995, 0.0 ], [ 113.390385120000019, -6.970545989999948, 0.0 ], [ 113.390696880000064, -6.970219019999945, 0.0 ], [ 113.390872920000106, -6.97015700999998, 0.0 ], [ 113.391081, -6.970123980999972, 0.0 ], [ 113.391375119000031, -6.970163039999932, 0.0 ], [ 113.391776160000063, -6.970203990999948, 0.0 ], [ 113.39197992000004, -6.970150979999971, 0.0 ], [ 113.392826998000032, -6.969921030999956, 0.0 ], [ 113.393261880000068, -6.969834990999971, 0.0 ], [ 113.393387160000088, -6.969810960999951, 0.0 ], [ 113.394097080000051, -6.969572009999979, 0.0 ], [ 113.394143160000112, -6.969545009999933, 0.0 ], [ 113.394584160000022, -6.969284009999967, 0.0 ], [ 113.394760919000078, -6.969123, 0.0 ], [ 113.394992040000034, -6.968997000999934, 0.0 ], [ 113.395030918000089, -6.968970988999956, 0.0 ], [ 113.395219920000045, -6.968843009999944, 0.0 ], [ 113.395457160000092, -6.96856202999993, 0.0 ], [ 113.395505040000103, -6.968573010999933, 0.0 ], [ 113.395806000000107, -6.968570039999975, 0.0 ], [ 113.396042160000093, -6.968611979999935, 0.0 ], [ 113.396364, -6.968732039999963, 0.0 ], [ 113.396452920000115, -6.968874960999926, 0.0 ], [ 113.396547960000021, -6.969158010999934, 0.0 ], [ 113.396623920000025, -6.96925097999997, 0.0 ], [ 113.396751000000108, -6.969283019999978, 0.0 ], [ 113.397371999000029, -6.969305970999926, 0.0 ], [ 113.398580159000062, -6.969215969999937, 0.0 ], [ 113.398626960000115, -6.969212009999978, 0.0 ], [ 113.399552160000098, -6.969133979999981, 0.0 ], [ 113.399607960000026, -6.969169980999936, 0.0 ], [ 113.399775, -6.969227039999964, 0.0 ], [ 113.400236158000098, -6.969375, 0.0 ], [ 113.400380880000057, -6.969483990999947, 0.0 ], [ 113.400792, -6.96979197099995, 0.0 ], [ 113.400911878000102, -6.969916979999937, 0.0 ], [ 113.401023120000104, -6.969934979999948, 0.0 ], [ 113.401082160000101, -6.97015898899997, 0.0 ], [ 113.401352880000104, -6.970552019999957, 0.0 ], [ 113.401512, -6.970913010999936, 0.0 ], [ 113.401625040000113, -6.971070958999974, 0.0 ], [ 113.401744920000056, -6.97123899099995, 0.0 ], [ 113.402154960000075, -6.971398019999981, 0.0 ], [ 113.402291040000023, -6.97189697999994, 0.0 ], [ 113.403251160000082, -6.972706979999941, 0.0 ], [ 113.403282839000099, -6.972717959999954, 0.0 ], [ 113.403593880000017, -6.972909029999926, 0.0 ], [ 113.403818160000014, -6.973046998999962, 0.0 ], [ 113.404488840000113, -6.973296030999961, 0.0 ], [ 113.40511704000005, -6.973513019999928, 0.0 ], [ 113.405222160000108, -6.97355000999994, 0.0 ], [ 113.405361840000069, -6.973758989999965, 0.0 ], [ 113.405411880000088, -6.973830990999943, 0.0 ], [ 113.405927040000051, -6.973840979999977, 0.0 ], [ 113.406033960000059, -6.973876979999943, 0.0 ], [ 113.406912760000068, -6.973919254999942, 0.0 ], [ 113.407468920000042, -6.973946009999963, 0.0 ], [ 113.408331838000095, -6.973982998999929, 0.0 ], [ 113.409217080000076, -6.974232030999929, 0.0 ], [ 113.409455784000102, -6.974350908999952, 0.0 ], [ 113.410443960000066, -6.974843039999939, 0.0 ], [ 113.410667160000116, -6.975045989999956, 0.0 ], [ 113.411189160000049, -6.975708028999975, 0.0 ], [ 113.411271960000022, -6.976209959999949, 0.0 ], [ 113.411294998000017, -6.976346039999953, 0.0 ], [ 113.41132812, -6.976541969999971, 0.0 ], [ 113.41133496000009, -6.976582018999977, 0.0 ], [ 113.411485080000034, -6.976904039999965, 0.0 ], [ 113.411629080000012, -6.977211028999932, 0.0 ], [ 113.411810160000073, -6.977332978999925, 0.0 ], [ 113.412038040000084, -6.977417039999978, 0.0 ], [ 113.412963959000081, -6.977790990999949, 0.0 ], [ 113.413241160000098, -6.977999970999974, 0.0 ], [ 113.41341108000006, -6.978168, 0.0 ], [ 113.413596840000082, -6.978341969999974, 0.0 ], [ 113.413753079000116, -6.978405959999975, 0.0 ], [ 113.413815000000113, -6.978430980999974, 0.0 ], [ 113.414040000000114, -6.978434039999968, 0.0 ], [ 113.414074920000076, -6.978434039999968, 0.0 ], [ 113.414262120000103, -6.978453029999969, 0.0 ], [ 113.414289119000046, -6.978456000999927, 0.0 ], [ 113.414796, -6.97867200099995, 0.0 ], [ 113.415012, -6.97871897899995, 0.0 ], [ 113.415197040000066, -6.978790979999928, 0.0 ], [ 113.415762960000052, -6.979302989999951, 0.0 ], [ 113.415936376000104, -6.979266219999943, 0.0 ], [ 113.416055349000089, -6.97923052799996, 0.0 ], [ 113.416305192000095, -6.979188886999964, 0.0 ], [ 113.416453909000097, -6.979218629999934, 0.0 ], [ 113.416704942000024, -6.979278117999968, 0.0 ], [ 113.417259368000032, -6.979557072999967, 0.0 ], [ 113.417461610000032, -6.979658829999948, 0.0 ], [ 113.417766181000047, -6.979820634999953, 0.0 ], [ 113.417842324000048, -6.979739731999928, 0.0 ], [ 113.417911883000102, -6.979617308999934, 0.0 ], [ 113.417961297000033, -6.979530340999929, 0.0 ], [ 113.418070752000062, -6.979530340999929, 0.0 ], [ 113.418123100000116, -6.979549375999966, 0.0 ], [ 113.418219664000048, -6.979641998999966, 0.0 ], [ 113.418356288000041, -6.979773044999945, 0.0 ], [ 113.418446707000044, -6.979768285999967, 0.0 ], [ 113.418534910000062, -6.979677698999978, 0.0 ], [ 113.418622787000118, -6.979587447999961, 0.0 ], [ 113.418660859000056, -6.979568411999935, 0.0 ], [ 113.41870368900004, -6.979582687999937, 0.0 ], [ 113.418760796000015, -6.97965407199996, 0.0 ], [ 113.418765278000023, -6.979769102999967, 0.0 ], [ 113.418775073, -6.980020508999928, 0.0 ], [ 113.418822662000025, -6.98022038299996, 0.0 ], [ 113.41886549100002, -6.980296525999961, 0.0 ], [ 113.418955912000115, -6.980339355999945, 0.0 ], [ 113.419062988000064, -6.980331028999956, 0.0 ], [ 113.419131397000115, -6.980331028999956, 0.0 ], [ 113.419315804, -6.980369693999933, 0.0 ], [ 113.419378266000081, -6.980393488999937, 0.0 ], [ 113.419408009000108, -6.980387539999981, 0.0 ], [ 113.419528184000114, -6.980349224999941, 0.0 ], [ 113.419613238000011, -6.980322104999971, 0.0 ], [ 113.419648930000108, -6.980325079999943, 0.0 ], [ 113.419666776000099, -6.980372668999962, 0.0 ], [ 113.419642, -6.980429653999977, 0.0 ], [ 113.419607289000055, -6.980509487999939, 0.0 ], [ 113.419583495000097, -6.980554103999964, 0.0 ], [ 113.419607289000055, -6.980631434999964, 0.0 ], [ 113.419684622000091, -6.980693895999934, 0.0 ], [ 113.419830364000063, -6.980729587999974, 0.0 ], [ 113.419961234000084, -6.98073851099997, 0.0 ], [ 113.420095079000021, -6.980681998999955, 0.0 ], [ 113.420095079000021, -6.980664153999953, 0.0 ], [ 113.42014266800004, -6.980619537999928, 0.0 ], [ 113.420217026000046, -6.980568973999937, 0.0 ], [ 113.420438911000019, -6.980443457999968, 0.0 ], [ 113.420562643000039, -6.980372074999934, 0.0 ], [ 113.420754042000112, -6.980218334999961, 0.0 ], [ 113.421426119000103, -6.980186970999966, 0.0 ], [ 113.422042079000107, -6.980357969999943, 0.0 ], [ 113.422588919000077, -6.980634989999942, 0.0 ], [ 113.423312160000023, -6.981057989999954, 0.0 ], [ 113.4243370800001, -6.981668009999964, 0.0 ], [ 113.424693120000029, -6.981938009999965, 0.0 ], [ 113.424787825000067, -6.982009828999935, 0.0 ], [ 113.424746707000054, -6.982062643999939, 0.0 ], [ 113.424414770000112, -6.982522035999978, 0.0 ], [ 113.424101786000051, -6.982953949999967, 0.0 ], [ 113.423904176000065, -6.983253070999979, 0.0 ], [ 113.423641910000015, -6.983800749999943, 0.0 ], [ 113.423394635000022, -6.984116571999948, 0.0 ], [ 113.423048959000084, -6.984631516999968, 0.0 ], [ 113.422818999000015, -6.985079720999977, 0.0 ], [ 113.422622795000052, -6.985593987999948, 0.0 ], [ 113.422427400000061, -6.986323493999976, 0.0 ], [ 113.422115085000087, -6.98687161099997, 0.0 ], [ 113.421803374000092, -6.987551834999977, 0.0 ], [ 113.421690376000015, -6.988132, 0.0 ], [ 113.421493530000021, -6.988580034999927, 0.0 ], [ 113.421230408000042, -6.988962173999937, 0.0 ], [ 113.421097259000021, -6.989207017999945, 0.0 ], [ 113.421115267, -6.989488404999975, 0.0 ], [ 113.421232988000042, -6.989752831999965, 0.0 ], [ 113.421284272000094, -6.990050492999956, 0.0 ], [ 113.421202258000108, -6.990216457999963, 0.0 ], [ 113.421070621000013, -6.990465451999967, 0.0 ], [ 113.421171102000017, -6.990597315999935, 0.0 ], [ 113.421288535000031, -6.990878190999979, 0.0 ], [ 113.421240150000017, -6.991143472999966, 0.0 ], [ 113.421009334000018, -6.991426047999937, 0.0 ], [ 113.420579847000113, -6.991759343999945, 0.0 ], [ 113.420630365000079, -6.991908181999975, 0.0 ], [ 113.420813638000027, -6.992039620999947, 0.0 ], [ 113.420914258000039, -6.992270972999961, 0.0 ], [ 113.421113716000036, -6.992402327999969, 0.0 ], [ 113.421495500000105, -6.992466690999947, 0.0 ], [ 113.42164557000001, -6.992581672999961, 0.0 ], [ 113.421648386000015, -6.993128079999963, 0.0 ], [ 113.421550582, -6.993443224999965, 0.0 ], [ 113.421286574000078, -6.993726061999951, 0.0 ], [ 113.420623954, -6.993878296999981, 0.0 ], [ 113.420292442, -6.993929610999942, 0.0 ], [ 113.420193870000048, -6.994095932999926, 0.0 ], [ 113.420029285000055, -6.99437798699995, 0.0 ], [ 113.420014348000109, -6.994692705999967, 0.0 ], [ 113.420081766000067, -6.994907782999974, 0.0 ], [ 113.420216046000064, -6.995171854999967, 0.0 ], [ 113.420432663000042, -6.995419056999935, 0.0 ], [ 113.420652114000063, -6.995492837999961, 0.0 ], [ 113.420702291000111, -6.995575351999946, 0.0 ], [ 113.420669611000108, -6.995674828999938, 0.0 ], [ 113.420621386000107, -6.995956464999949, 0.0 ], [ 113.420540107000079, -6.996337670999935, 0.0 ], [ 113.420691204000036, -6.996651444999941, 0.0 ], [ 113.420906104000096, -6.996551120999925, 0.0 ], [ 113.421253749000016, -6.996416770999929, 0.0 ], [ 113.421452303000024, -6.996299993999969, 0.0 ], [ 113.421800288000099, -6.996231877999946, 0.0 ], [ 113.42213292200006, -6.996412244999931, 0.0 ], [ 113.422849051000071, -6.996988141999964, 0.0 ], [ 113.423150107000083, -6.997466775999953, 0.0 ], [ 113.423385354000061, -6.998028249999948, 0.0 ], [ 113.423291450000079, -6.999171273999934, 0.0 ], [ 113.423195089000046, -6.99975126399994, 0.0 ], [ 113.42321369800004, -7.000148489999958, 0.0 ], [ 113.423182462000113, -7.000512900999979, 0.0 ], [ 113.423029498, -7.000632966999945, 0.0 ], [ 113.422963098000082, -7.000818100999936, 0.0 ], [ 113.422997483000017, -7.000918948999981, 0.0 ], [ 113.42301554300002, -7.001137351999944, 0.0 ], [ 113.422881281000059, -7.001238886999943, 0.0 ], [ 113.422679479000067, -7.001290258999973, 0.0 ], [ 113.422426585000039, -7.001241229999948, 0.0 ], [ 113.422308869000062, -7.00132578299997, 0.0 ], [ 113.42230939, -7.001426715999969, 0.0 ], [ 113.422343774000069, -7.001527382999939, 0.0 ], [ 113.422445313000026, -7.001661408999951, 0.0 ], [ 113.42251361000001, -7.001829221999969, 0.0 ], [ 113.422582092000084, -7.002047363999964, 0.0 ], [ 113.422549208000078, -7.002165184999967, 0.0 ], [ 113.422313468000084, -7.002216822999969, 0.0 ], [ 113.422094599000047, -7.002184244999967, 0.0 ], [ 113.421723581000037, -7.002068594999969, 0.0 ], [ 113.421537221000108, -7.001918197999942, 0.0 ], [ 113.421317918000113, -7.001801584999953, 0.0 ], [ 113.421098590000042, -7.001752292999981, 0.0 ], [ 113.420947497000043, -7.001786865999975, 0.0 ], [ 113.420880761000035, -7.001921578999941, 0.0 ], [ 113.420882062000032, -7.002173772999981, 0.0 ], [ 113.420899920000011, -7.002425701999925, 0.0 ], [ 113.420934739000018, -7.002610494999942, 0.0 ], [ 113.421019161000117, -7.002694187999964, 0.0 ], [ 113.421221471000081, -7.002726759999973, 0.0 ], [ 113.42149096300011, -7.002725371999929, 0.0 ], [ 113.421642678000012, -7.002724589999957, 0.0 ], [ 113.421743957000103, -7.002808195999933, 0.0 ], [ 113.421846203000086, -7.002992459999973, 0.0 ], [ 113.42179674700003, -7.003194493999956, 0.0 ], [ 113.421746993000056, -7.003396438999971, 0.0 ], [ 113.421596432000115, -7.003548570999953, 0.0 ], [ 113.421360951000111, -7.003650628999935, 0.0 ], [ 113.421076635000077, -7.003988331999949, 0.0 ], [ 113.420808964000116, -7.004342756999961, 0.0 ], [ 113.420356259000073, -7.004731657999969, 0.0 ], [ 113.420070355, -7.004833975999929, 0.0 ], [ 113.419649258000049, -7.004785720999962, 0.0 ], [ 113.419548225000085, -7.004836663999981, 0.0 ], [ 113.419633292000071, -7.004987673999949, 0.0 ], [ 113.419701936000024, -7.005222623999941, 0.0 ], [ 113.419720168000026, -7.005474640999978, 0.0 ], [ 113.419586945000106, -7.00577795099997, 0.0 ], [ 113.419487200000049, -7.006064280999965, 0.0 ], [ 113.41955542200003, -7.006232003999969, 0.0 ], [ 113.419674515000111, -7.006399464999959, 0.0 ], [ 113.419743059000098, -7.006701825999926, 0.0 ], [ 113.419744359000106, -7.006953839999937, 0.0 ], [ 113.419930286000067, -7.007020111999964, 0.0 ], [ 113.420250638000084, -7.007102679999946, 0.0 ], [ 113.420621746000052, -7.007235135999963, 0.0 ], [ 113.420987101000037, -7.007394459999944, 0.0 ], [ 113.421369965000054, -7.00753543999997, 0.0 ], [ 113.421733163000113, -7.007638297999961, 0.0 ], [ 113.42200123300006, -7.007779958999947, 0.0 ], [ 113.422288250000065, -7.007892786999946, 0.0 ], [ 113.42257596200011, -7.008053503999975, 0.0 ], [ 113.422710637000023, -7.008262540999965, 0.0 ], [ 113.422826611, -7.008547938999925, 0.0 ], [ 113.422760219000111, -7.008662588999925, 0.0 ], [ 113.422580050000079, -7.008844604999979, 0.0 ], [ 113.422484866000104, -7.008959403999938, 0.0 ], [ 113.422456741000019, -7.009074127999952, 0.0 ], [ 113.422486196000023, -7.009216748999961, 0.0 ], [ 113.422381198000039, -7.009207892999939, 0.0 ], [ 113.422218102000102, -7.009056111999939, 0.0 ], [ 113.422055522000051, -7.009018907999973, 0.0 ], [ 113.42199853000011, -7.009104955999931, 0.0 ], [ 113.421975008000118, -7.009201416999929, 0.0 ], [ 113.421952001000022, -7.009295769999937, 0.0 ], [ 113.421895797000047, -7.009534434999978, 0.0 ], [ 113.421926709000104, -7.009617842999944, 0.0 ], [ 113.421934604000057, -7.009639144999937, 0.0 ], [ 113.422039701000017, -7.009667247999971, 0.0 ], [ 113.422126098000035, -7.009714423999981, 0.0 ], [ 113.422221795000041, -7.009771038999929, 0.0 ], [ 113.422231786000111, -7.009856921999926, 0.0 ], [ 113.422209599000098, -7.009884444999955, 0.0 ], [ 113.422108455000057, -7.010009908999962, 0.0 ], [ 113.421937411000044, -7.010182479999969, 0.0 ], [ 113.421766907, -7.01045968699998, 0.0 ], [ 113.421682803000067, -7.010784340999976, 0.0 ], [ 113.421577647000049, -7.011235699999929, 0.0 ], [ 113.421459668000011, -7.011428689999946, 0.0 ], [ 113.42123846100003, -7.011652031999972, 0.0 ], [ 113.421120090000045, -7.011697009999978, 0.0 ], [ 113.421063983000067, -7.011697298999934, 0.0 ], [ 113.420793905000096, -7.011698691999925, 0.0 ], [ 113.420466887000089, -7.011611551999977, 0.0 ], [ 113.420067818, -7.011531702999946, 0.0 ], [ 113.41996189300005, -7.011510508999947, 0.0 ], [ 113.419903127000111, -7.011599728999954, 0.0 ], [ 113.419906332000096, -7.011619757999938, 0.0 ], [ 113.419933882, -7.011791951999953, 0.0 ], [ 113.419979099000102, -7.01191018399993, 0.0 ], [ 113.420050356000047, -7.012050980999959, 0.0 ], [ 113.420053859000063, -7.01205790299997, 0.0 ], [ 113.420040007000011, -7.012235716999953, 0.0 ], [ 113.419937170000026, -7.012428628999942, 0.0 ], [ 113.419916656000055, -7.012447236999947, 0.0 ], [ 113.419789496000021, -7.012562584999955, 0.0 ], [ 113.419804648000081, -7.01263669399998, 0.0 ], [ 113.419820480000112, -7.012784624999938, 0.0 ], [ 113.41980447200001, -7.012820158999943, 0.0 ], [ 113.419746954000061, -7.012947837999945, 0.0 ], [ 113.419658429000037, -7.013066758999969, 0.0 ], [ 113.419480680000106, -7.013082404999977, 0.0 ], [ 113.419375126000091, -7.013011070999937, 0.0 ], [ 113.419198030000075, -7.012891388999947, 0.0 ], [ 113.419082034000098, -7.012838697999939, 0.0 ], [ 113.419004678000078, -7.012803558999963, 0.0 ], [ 113.4189010770001, -7.012848641999938, 0.0 ], [ 113.418886842, -7.012952270999961, 0.0 ], [ 113.418858382000053, -7.013218986999959, 0.0 ], [ 113.418859147000035, -7.013367086999949, 0.0 ], [ 113.418637018000027, -7.013412508999977, 0.0 ], [ 113.418588592000106, -7.013419674999966, 0.0 ], [ 113.418429509000021, -7.013443216999974, 0.0 ], [ 113.418280842000058, -7.013384795999968, 0.0 ], [ 113.418043037000075, -7.013326742999936, 0.0 ], [ 113.4178057580001, -7.013298325999926, 0.0 ], [ 113.417701163000061, -7.013150760999963, 0.0 ], [ 113.417626184000028, -7.01303268199996, 0.0 ], [ 113.417623610000078, -7.01303183999994, 0.0 ], [ 113.417537268000046, -7.013003590999972, 0.0 ], [ 113.417522659000042, -7.013092492999931, 0.0 ], [ 113.417510974000038, -7.013209970999981, 0.0 ], [ 113.417494648000115, -7.013374115999966, 0.0 ], [ 113.417476596000029, -7.013740301999974, 0.0 ], [ 113.417467637000073, -7.013922032999972, 0.0 ], [ 113.417351709000059, -7.014425949999975, 0.0 ], [ 113.417236088000095, -7.015004052999927, 0.0 ], [ 113.41710058700005, -7.01550255899997, 0.0 ], [ 113.417057584000077, -7.015798988999961, 0.0 ], [ 113.416955892000033, -7.016214094999953, 0.0 ], [ 113.41689873100006, -7.016628882999953, 0.0 ], [ 113.416707364000104, -7.016926077999926, 0.0 ], [ 113.416426622000017, -7.017105176999962, 0.0 ], [ 113.416294099000083, -7.017327879999925, 0.0 ], [ 113.416251803000023, -7.017379240999958, 0.0 ], [ 113.416220562000035, -7.017417175999981, 0.0 ], [ 113.415925562000098, -7.017315952999979, 0.0 ], [ 113.415923226000018, -7.017315151999981, 0.0 ], [ 113.415916998000057, -7.017316069999936, 0.0 ], [ 113.41561195700001, -7.017361032999929, 0.0 ], [ 113.415528531000064, -7.01736146199994, 0.0 ], [ 113.415315231000022, -7.017362559999981, 0.0 ], [ 113.414915206000046, -7.017468445999953, 0.0 ], [ 113.414752378000117, -7.017528471999981, 0.0 ], [ 113.414708228000109, -7.017602615999976, 0.0 ], [ 113.414734894000048, -7.017622458999938, 0.0 ], [ 113.414767684000026, -7.017646858999967, 0.0 ], [ 113.414960807000057, -7.017675503999953, 0.0 ], [ 113.41519861200004, -7.017733285999952, 0.0 ], [ 113.415317445000028, -7.017791951999925, 0.0 ], [ 113.415451572000052, -7.01788008799997, 0.0 ], [ 113.415437041000018, -7.01799862799993, 0.0 ], [ 113.415410696000095, -7.018017266999948, 0.0 ], [ 113.415289213000051, -7.018103215999929, 0.0 ], [ 113.415111919000083, -7.018207684999936, 0.0 ], [ 113.414830717000086, -7.018297959999927, 0.0 ], [ 113.414731325000048, -7.018312667999965, 0.0 ], [ 113.414623205000112, -7.018328666999935, 0.0 ], [ 113.414503846000116, -7.018240363999951, 0.0 ], [ 113.414413784000089, -7.017989167999929, 0.0 ], [ 113.414264274000061, -7.01776773499995, 0.0 ], [ 113.414227141000083, -7.017764574999944, 0.0 ], [ 113.414101065000068, -7.017753845999948, 0.0 ], [ 113.413997843000061, -7.017872841999974, 0.0 ], [ 113.413998988000117, -7.018094947999941, 0.0 ], [ 113.414026014000115, -7.018158901999925, 0.0 ], [ 113.414073900000062, -7.018272215999957, 0.0 ], [ 113.414092351000022, -7.01842970499996, 0.0 ], [ 113.414105111000026, -7.018538624999962, 0.0 ], [ 113.414091189000033, -7.018760717999953, 0.0 ], [ 113.413839756000016, -7.018924846999937, 0.0 ], [ 113.413365963000047, -7.019075388999966, 0.0 ], [ 113.412950784000031, -7.01910716499998, 0.0 ], [ 113.412773032000018, -7.019122987999936, 0.0 ], [ 113.412714189000098, -7.019212117999928, 0.0 ], [ 113.412744111000052, -7.019300790999978, 0.0 ], [ 113.412848249000035, -7.019359532999943, 0.0 ], [ 113.413086361000069, -7.019476592999979, 0.0 ], [ 113.413294485000051, -7.01956434799996, 0.0 ], [ 113.41347952700005, -7.01960954499998, 0.0 ], [ 113.41359159600006, -7.019636917999946, 0.0 ], [ 113.413858869000023, -7.019694818999938, 0.0 ], [ 113.413715201000059, -7.019806281999934, 0.0 ], [ 113.413474529000041, -7.019993005999936, 0.0 ], [ 113.413149557000111, -7.020246339999971, 0.0 ], [ 113.412600935000114, -7.020308349999937, 0.0 ], [ 113.412289054000098, -7.020235856999932, 0.0 ], [ 113.412051008000049, -7.020059337999953, 0.0 ], [ 113.411826596000083, -7.019734913999969, 0.0 ], [ 113.411602407000032, -7.019395488999976, 0.0 ], [ 113.411422900000048, -7.01907065499995, 0.0 ], [ 113.411199174000103, -7.018879150999965, 0.0 ], [ 113.410951403000013, -7.018885393999938, 0.0 ], [ 113.410773125000105, -7.018871400999956, 0.0 ], [ 113.410580526000103, -7.018872389999956, 0.0 ], [ 113.410372937000034, -7.018888367999978, 0.0 ], [ 113.410298949000094, -7.018962663999957, 0.0 ], [ 113.410152795000045, -7.01939281999995, 0.0 ], [ 113.410036555000033, -7.019852371999946, 0.0 ], [ 113.409740968000051, -7.020076093999933, 0.0 ], [ 113.409401833000061, -7.020433052999977, 0.0 ], [ 113.408751740000071, -7.020969535999939, 0.0 ], [ 113.408220849000031, -7.021549772999947, 0.0 ], [ 113.407482668000057, -7.022204901999942, 0.0 ], [ 113.406921862000104, -7.02278529299997, 0.0 ], [ 113.406257524000011, -7.023410673999933, 0.0 ], [ 113.405524124000067, -7.024414207999939, 0.0 ], [ 113.405082556000025, -7.025157624999963, 0.0 ], [ 113.404462022000075, -7.026150411999936, 0.0 ], [ 113.404458016000035, -7.026156470999979, 0.0 ], [ 113.403831245000106, -7.02710461099997, 0.0 ], [ 113.402931595000041, -7.02787062799996, 0.0 ], [ 113.402654445000053, -7.028106610999941, 0.0 ], [ 113.40177988500011, -7.028172350999967, 0.0 ], [ 113.401091269000062, -7.028589611999962, 0.0 ], [ 113.400525314000106, -7.02897556399995, 0.0 ], [ 113.400296042000036, -7.029160607999927, 0.0 ], [ 113.400099165000029, -7.029848702999971, 0.0 ], [ 113.399418419000085, -7.029542661999926, 0.0 ], [ 113.398955628000067, -7.029762266999967, 0.0 ], [ 113.398694620000015, -7.029807068999958, 0.0 ], [ 113.398273458000062, -7.029722295999932, 0.0 ], [ 113.398069816000088, -7.029593033999959, 0.0 ], [ 113.397764206000033, -7.029362996999964, 0.0 ], [ 113.397486795000077, -7.02903142599996, 0.0 ], [ 113.397267642000088, -7.028757479999967, 0.0 ], [ 113.397193725000079, -7.028453784999954, 0.0 ], [ 113.397119883000073, -7.028222559999961, 0.0 ], [ 113.396975094000027, -7.028266765999945, 0.0 ], [ 113.396759283000051, -7.028571944999953, 0.0 ], [ 113.396340347000091, -7.028921446999959, 0.0 ], [ 113.395805863000078, -7.029329553999958, 0.0 ], [ 113.395415797000055, -7.02962116599997, 0.0 ], [ 113.395199422000019, -7.029793129999973, 0.0 ], [ 113.394815571000095, -7.030098193999947, 0.0 ], [ 113.394502366000097, -7.030482215999939, 0.0 ], [ 113.39434617500001, -7.030820343999949, 0.0 ], [ 113.394392768000102, -7.031134842999961, 0.0 ], [ 113.394417255, -7.031517047999955, 0.0 ], [ 113.394374849000087, -7.032034508999971, 0.0 ], [ 113.394287347000045, -7.032529608999937, 0.0 ], [ 113.394153827000082, -7.032822618999944, 0.0 ], [ 113.393929821000029, -7.033116092999933, 0.0 ], [ 113.393481520000023, -7.033500714999946, 0.0 ], [ 113.393077899000104, -7.033885018999968, 0.0 ], [ 113.392629412000019, -7.034292052999945, 0.0 ], [ 113.392427704000056, -7.034540591999928, 0.0 ], [ 113.392451310000069, -7.034765386999936, 0.0 ], [ 113.392542831000014, -7.034967153999958, 0.0 ], [ 113.392791337000062, -7.035145797999974, 0.0 ], [ 113.393265578000069, -7.035368288999962, 0.0 ], [ 113.393559473000096, -7.035524199999941, 0.0 ], [ 113.393852461000051, -7.035590203999959, 0.0 ], [ 113.394145819000073, -7.035656113999949, 0.0 ], [ 113.394619947000024, -7.035856193999962, 0.0 ], [ 113.394958363000114, -7.035921873999939, 0.0 ], [ 113.395104165000021, -7.036220140999944, 0.0 ], [ 113.395195104000095, -7.036540919999936, 0.0 ], [ 113.395286941000109, -7.037022088999947, 0.0 ], [ 113.395359211000027, -7.037164402999963, 0.0 ], [ 113.395521123000094, -7.037360025999931, 0.0 ], [ 113.395790812000087, -7.03769750999993, 0.0 ], [ 113.396006125000099, -7.037803578999956, 0.0 ], [ 113.395988805000115, -7.03794635099996, 0.0 ], [ 113.39604367000004, -7.038142340999968, 0.0 ], [ 113.396133969000061, -7.038338057999965, 0.0 ], [ 113.396366755000031, -7.038461838999979, 0.0 ], [ 113.396653215000015, -7.038549469999964, 0.0 ], [ 113.396868163000022, -7.038584152999931, 0.0 ], [ 113.396939769000028, -7.038655172999938, 0.0 ], [ 113.396994985000106, -7.038904745999957, 0.0 ], [ 113.397157355000104, -7.039189372999942, 0.0 ], [ 113.397032817000081, -7.039386190999949, 0.0 ], [ 113.396766498000034, -7.039690907999955, 0.0 ], [ 113.396803496000075, -7.03992268099995, 0.0 ], [ 113.396821899000088, -7.040016399999956, 0.0 ], [ 113.396876956000028, -7.040296772999966, 0.0 ], [ 113.396663933000013, -7.040637000999936, 0.0 ], [ 113.396290927000109, -7.041084947999934, 0.0 ], [ 113.395793387000026, -7.041658416999951, 0.0 ], [ 113.397164310000107, -7.042962417999945, 0.0 ], [ 113.397154418000014, -7.042974019999974, 0.0 ], [ 113.396346467000058, -7.043921677999947, 0.0 ], [ 113.396036119000087, -7.044472490999965, 0.0 ], [ 113.396040828000082, -7.044840593999936, 0.0 ], [ 113.396049103000109, -7.045487346999948, 0.0 ], [ 113.395869765000043, -7.046380263999936, 0.0 ], [ 113.395735651000109, -7.047048013999927, 0.0 ], [ 113.395732994000014, -7.04840375699996, 0.0 ], [ 113.395699747000094, -7.048569270999963, 0.0 ], [ 113.395624133000069, -7.048945706999973, 0.0 ], [ 113.395598499000016, -7.049073319999934, 0.0 ], [ 113.395251811000094, -7.049885071999938, 0.0 ], [ 113.3952634850001, -7.050399794999976, 0.0 ], [ 113.395235881000076, -7.050939563999975, 0.0 ], [ 113.395225735000054, -7.051673790999928, 0.0 ], [ 113.395346318000065, -7.052550459999964, 0.0 ], [ 113.396884763000116, -7.05413541799993, 0.0 ], [ 113.39738409600011, -7.055404264999936, 0.0 ], [ 113.397235425000076, -7.056809140999974, 0.0 ], [ 113.395285018000095, -7.056776098999933, 0.0 ], [ 113.392096960000117, -7.056835370999977, 0.0 ], [ 113.392419010000026, -7.057004149999955, 0.0 ], [ 113.392670526000074, -7.057557802999952, 0.0 ] ] ] ] } }
]
}
