{
"type": "FeatureCollection",
"name": "Kec_Omben",
"crs": { "type": "name", "properties": { "name": "urn:ogc:def:crs:OGC:1.3:CRS84" } },
"features": [
{ "type": "Feature", "properties": { "OBJECTID": 9176.0, "NAMOBJ": "Angsokah", "FCODE": "BA03070040", "METADATA": "TASWIL1000020221227_DATA_BATAS_DESAKELURAHAN", "SRS_ID": "SRGI 2013", "KDCPUM": "35.27.05", "KDEPUM": "35.27.05.2014", "KDPKAB": "35.27", "KDPPUM": "35", "LUASWH": 0.0, "TIPADM": 1.0, "WADMKC": "Omben", "WADMKD": "Angsokah", "WADMKK": "Sampang", "WADMPR": "Jawa Timur", "UUPP": "Hasil Delineasi Batas Desa 2019", "LUAS": 4.4267236 }, "geometry": { "type": "MultiPolygon", "coordinates": [ [ [ [ 113.312013838000098, -7.157411998999976, 0.0 ], [ 113.311872000000108, -7.157658958999946, 0.0 ], [ 113.311708921000104, -7.157945969999957, 0.0 ], [ 113.311679040000058, -7.158009958999969, 0.0 ], [ 113.31158507900011, -7.158212998999943, 0.0 ], [ 113.3115429610001, -7.158357990999946, 0.0 ], [ 113.31144, -7.15854798099997, 0.0 ], [ 113.311248121000062, -7.158851010999967, 0.0 ], [ 113.311198081000043, -7.159060979999936, 0.0 ], [ 113.311054080000076, -7.159642018999932, 0.0 ], [ 113.310911160000046, -7.159883037999975, 0.0 ], [ 113.310852840000052, -7.160088959999939, 0.0 ], [ 113.310849960000041, -7.160252038999943, 0.0 ], [ 113.310830880000026, -7.160667030999946, 0.0 ], [ 113.310700920000045, -7.16085701999998, 0.0 ], [ 113.310585, -7.160931990999927, 0.0 ], [ 113.310159120000094, -7.161057988999971, 0.0 ], [ 113.310068040000033, -7.161157978999938, 0.0 ], [ 113.309976137000035, -7.161332709999954, 0.0 ], [ 113.30990496000004, -7.16146803099997, 0.0 ], [ 113.309660880000024, -7.161920008999971, 0.0 ], [ 113.309376121000014, -7.162413028999936, 0.0 ], [ 113.309269043000086, -7.162639648999971, 0.0 ], [ 113.309172001000093, -7.162845027999936, 0.0 ], [ 113.308864920000019, -7.163072008999961, 0.0 ], [ 113.308517160000065, -7.163155979999942, 0.0 ], [ 113.308423584000025, -7.163156260999926, 0.0 ], [ 113.308188120000068, -7.163156968999942, 0.0 ], [ 113.307756121000011, -7.16309801899996, 0.0 ], [ 113.30724204, -7.162998028999937, 0.0 ], [ 113.306604120000088, -7.162755030999961, 0.0 ], [ 113.306418982000082, -7.162673985999959, 0.0 ], [ 113.306335676000117, -7.162465835999967, 0.0 ], [ 113.306084702000021, -7.162535548999927, 0.0 ], [ 113.305800299000111, -7.162614549999944, 0.0 ], [ 113.305752709000103, -7.162537217999954, 0.0 ], [ 113.305761, -7.162410959999931, 0.0 ], [ 113.305363919000115, -7.162325998999961, 0.0 ], [ 113.305309921000116, -7.162310970999954, 0.0 ], [ 113.30492584700005, -7.162269528999957, 0.0 ], [ 113.304616517000113, -7.162245734999942, 0.0 ], [ 113.304455904000065, -7.162180297999953, 0.0 ], [ 113.303968920000102, -7.162309979999975, 0.0 ], [ 113.302992958, -7.162878959999944, 0.0 ], [ 113.302943998000046, -7.162908029999926, 0.0 ], [ 113.302990081000075, -7.163009998999939, 0.0 ], [ 113.303042999000013, -7.16329997899993, 0.0 ], [ 113.303064960000029, -7.163606968999943, 0.0 ], [ 113.303026080000109, -7.164017010999942, 0.0 ], [ 113.302946160000033, -7.164530009999964, 0.0 ], [ 113.302927080000018, -7.164797037999961, 0.0 ], [ 113.30288783900005, -7.165104028999963, 0.0 ], [ 113.302806840000017, -7.165412008999965, 0.0 ], [ 113.302668961000109, -7.165835009999967, 0.0 ], [ 113.302521001000059, -7.165925009999967, 0.0 ], [ 113.302356840000016, -7.166143978999969, 0.0 ], [ 113.30211096000005, -7.166841028999954, 0.0 ], [ 113.301732961000084, -7.167196978999925, 0.0 ], [ 113.301201960000071, -7.167751019999969, 0.0 ], [ 113.300859960000025, -7.168022998999959, 0.0 ], [ 113.300141040000085, -7.168428, 0.0 ], [ 113.29975692000005, -7.168643998999926, 0.0 ], [ 113.299467840000034, -7.168776028999957, 0.0 ], [ 113.299205040000061, -7.168785029999981, 0.0 ], [ 113.29911216000005, -7.168770990999974, 0.0 ], [ 113.298738120000053, -7.168784040999981, 0.0 ], [ 113.298449038000058, -7.168776028999957, 0.0 ], [ 113.297976, -7.168757038999956, 0.0 ], [ 113.29748315900008, -7.168760009999971, 0.0 ], [ 113.297175, -7.168781969999941, 0.0 ], [ 113.296518000000106, -7.168805997999925, 0.0 ], [ 113.295634920000111, -7.168831018999981, 0.0 ], [ 113.295264840000073, -7.168894020999971, 0.0 ], [ 113.294567160000042, -7.168958998999926, 0.0 ], [ 113.294541568000113, -7.168954600999939, 0.0 ], [ 113.29453813900011, -7.168954011999972, 0.0 ], [ 113.294217958000104, -7.16889896999993, 0.0 ], [ 113.294010960000037, -7.168694038999945, 0.0 ], [ 113.293937880000044, -7.16840495799994, 0.0 ], [ 113.293945080000071, -7.167814018999934, 0.0 ], [ 113.293942920000063, -7.167281040999967, 0.0 ], [ 113.293940039000063, -7.166809978999936, 0.0 ], [ 113.293896838000023, -7.166318037999929, 0.0 ], [ 113.293895040000052, -7.165927979999935, 0.0 ], [ 113.293830960000037, -7.165559967999968, 0.0 ], [ 113.293764, -7.165148037999927, 0.0 ], [ 113.293752840000025, -7.165005028999929, 0.0 ], [ 113.293656, -7.164766979999968, 0.0 ], [ 113.293568160000063, -7.164395998999964, 0.0 ], [ 113.293455118000111, -7.163875980999933, 0.0 ], [ 113.293302840000024, -7.163526958999967, 0.0 ], [ 113.293114919000118, -7.163060038999959, 0.0 ], [ 113.293104118000088, -7.162812988999974, 0.0 ], [ 113.293140840000092, -7.162643970999966, 0.0 ], [ 113.293257119000032, -7.162533000999929, 0.0 ], [ 113.293445040000051, -7.162453979999952, 0.0 ], [ 113.293507706000014, -7.162420121999958, 0.0 ], [ 113.293503998, -7.162408997999933, 0.0 ], [ 113.293511, -7.162379000999977, 0.0 ], [ 113.293520999000066, -7.162326998999959, 0.0 ], [ 113.29355, -7.162277, 0.0 ], [ 113.293578, -7.162227, 0.0 ], [ 113.293609, -7.162169, 0.0 ], [ 113.293628, -7.162132998999937, 0.0 ], [ 113.293622999000036, -7.162117998999975, 0.0 ], [ 113.293613, -7.16211, 0.0 ], [ 113.293598, -7.162104000999932, 0.0 ], [ 113.293585999000015, -7.1621, 0.0 ], [ 113.293579, -7.162105000999929, 0.0 ], [ 113.293574, -7.162118998999972, 0.0 ], [ 113.293559999000081, -7.162146, 0.0 ], [ 113.293545999000116, -7.16215799899993, 0.0 ], [ 113.293528, -7.162159, 0.0 ], [ 113.29352, -7.162153997999951, 0.0 ], [ 113.293501000000106, -7.162146, 0.0 ], [ 113.29344499900003, -7.162128, 0.0 ], [ 113.293402, -7.162105000999929, 0.0 ], [ 113.29335099900004, -7.162091998999927, 0.0 ], [ 113.293281, -7.162071998999977, 0.0 ], [ 113.293223, -7.162064000999976, 0.0 ], [ 113.293199, -7.162056997999969, 0.0 ], [ 113.293189, -7.162045000999967, 0.0 ], [ 113.293179, -7.162026000999958, 0.0 ], [ 113.29317099900004, -7.162001998999926, 0.0 ], [ 113.293162, -7.161976998999933, 0.0 ], [ 113.293158, -7.161962998999968, 0.0 ], [ 113.293162, -7.16195000099998, 0.0 ], [ 113.293169, -7.161933, 0.0 ], [ 113.293178, -7.161915, 0.0 ], [ 113.2931880000001, -7.161903998999946, 0.0 ], [ 113.293204, -7.161892, 0.0 ], [ 113.29322, -7.161876998999958, 0.0 ], [ 113.293228999, -7.161858998999946, 0.0 ], [ 113.293271999000012, -7.16178199899997, 0.0 ], [ 113.293309998000041, -7.161718, 0.0 ], [ 113.293326999000101, -7.161695000999941, 0.0 ], [ 113.29334, -7.161672, 0.0 ], [ 113.293343, -7.161656000999926, 0.0 ], [ 113.29334, -7.16164, 0.0 ], [ 113.293331999000088, -7.161617000999968, 0.0 ], [ 113.293328998000106, -7.161597000999961, 0.0 ], [ 113.293325999000103, -7.16158, 0.0 ], [ 113.293331999000088, -7.161559000999944, 0.0 ], [ 113.293343, -7.161521000999926, 0.0 ], [ 113.293353, -7.161494998999956, 0.0 ], [ 113.293372, -7.16148100099997, 0.0 ], [ 113.293388999000058, -7.16147099799997, 0.0 ], [ 113.293429999000068, -7.161462000999961, 0.0 ], [ 113.293451, -7.161452997999959, 0.0 ], [ 113.293466999000088, -7.161445, 0.0 ], [ 113.29348, -7.161420000999954, 0.0 ], [ 113.293496, -7.161389998999937, 0.0 ], [ 113.293497000000116, -7.16138, 0.0 ], [ 113.293487999000035, -7.161368, 0.0 ], [ 113.293473, -7.16135, 0.0 ], [ 113.293451, -7.161329, 0.0 ], [ 113.293406998000023, -7.16127999899993, 0.0 ], [ 113.293373, -7.161246000999938, 0.0 ], [ 113.293349999000043, -7.161220998999966, 0.0 ], [ 113.293329998000104, -7.161194998999974, 0.0 ], [ 113.293321000000105, -7.161169000999962, 0.0 ], [ 113.293315, -7.161151, 0.0 ], [ 113.293319489000055, -7.16112047699994, 0.0 ], [ 113.293320000000108, -7.161116998999944, 0.0 ], [ 113.293322000000103, -7.161089000999937, 0.0 ], [ 113.293324, -7.161073, 0.0 ], [ 113.293337, -7.161047, 0.0 ], [ 113.29335099900004, -7.161011000999963, 0.0 ], [ 113.293364000000111, -7.16097500099994, 0.0 ], [ 113.293370999000103, -7.160942998999928, 0.0 ], [ 113.293384, -7.160869998999942, 0.0 ], [ 113.293388999000058, -7.16082, 0.0 ], [ 113.293389999000055, -7.160780000999978, 0.0 ], [ 113.293389999000055, -7.160744, 0.0 ], [ 113.293393, -7.160719000999961, 0.0 ], [ 113.293402, -7.160696, 0.0 ], [ 113.293415, -7.160661000999937, 0.0 ], [ 113.293424999000081, -7.160642000999928, 0.0 ], [ 113.293439, -7.160618, 0.0 ], [ 113.293462, -7.160596998999949, 0.0 ], [ 113.293491, -7.16058, 0.0 ], [ 113.293522999000061, -7.160575997999956, 0.0 ], [ 113.293540999000015, -7.160573997999961, 0.0 ], [ 113.293553, -7.160579, 0.0 ], [ 113.293591000000106, -7.160616998999956, 0.0 ], [ 113.293617, -7.160641000999931, 0.0 ], [ 113.293646, -7.160657, 0.0 ], [ 113.293666, -7.160659000999942, 0.0 ], [ 113.293681999000114, -7.16066000099994, 0.0 ], [ 113.293685, -7.160659000999942, 0.0 ], [ 113.293687, -7.160654998999973, 0.0 ], [ 113.293687, -7.160648998999932, 0.0 ], [ 113.293687, -7.160635998999965, 0.0 ], [ 113.293685, -7.160619, 0.0 ], [ 113.29367799900001, -7.160604000999967, 0.0 ], [ 113.293668, -7.160584000999961, 0.0 ], [ 113.293662999000048, -7.160561, 0.0 ], [ 113.293660998000064, -7.160552998999947, 0.0 ], [ 113.293641998000112, -7.160531998999943, 0.0 ], [ 113.293620998000051, -7.160518998999976, 0.0 ], [ 113.293596, -7.160505000999933, 0.0 ], [ 113.293567, -7.160486000999981, 0.0 ], [ 113.293545999000116, -7.160471, 0.0 ], [ 113.293517, -7.160448000999963, 0.0 ], [ 113.293494, -7.16043, 0.0 ], [ 113.293489, -7.160414998999954, 0.0 ], [ 113.293482999000048, -7.160387000999947, 0.0 ], [ 113.293479, -7.160363998999969, 0.0 ], [ 113.293479, -7.160335, 0.0 ], [ 113.293478, -7.160297998999965, 0.0 ], [ 113.293479, -7.160285998999939, 0.0 ], [ 113.293485998000051, -7.160259998999948, 0.0 ], [ 113.293491, -7.160235, 0.0 ], [ 113.293500000000108, -7.160198, 0.0 ], [ 113.29351, -7.160151, 0.0 ], [ 113.293519, -7.16012799899994, 0.0 ], [ 113.293532, -7.1601, 0.0 ], [ 113.29354, -7.160081, 0.0 ], [ 113.293553, -7.16006, 0.0 ], [ 113.293553690000067, -7.160058184999968, 0.0 ], [ 113.293514529000049, -7.160040779999974, 0.0 ], [ 113.293505605000064, -7.159951550999949, 0.0 ], [ 113.293431248000047, -7.159895037999945, 0.0 ], [ 113.29340447900006, -7.159871242999941, 0.0 ], [ 113.293240891000096, -7.159880165999937, 0.0 ], [ 113.293178429000022, -7.159871242999941, 0.0 ], [ 113.293133815000033, -7.15987421799997, 0.0 ], [ 113.29309812300005, -7.159829602999935, 0.0 ], [ 113.293083251000098, -7.159782013999973, 0.0 ], [ 113.293026739000084, -7.159701705999964, 0.0 ], [ 113.292863151, -7.159621400999981, 0.0 ], [ 113.292773922000038, -7.159716577999973, 0.0 ], [ 113.29268469200008, -7.159808781999971, 0.0 ], [ 113.292631154000105, -7.159793910999952, 0.0 ], [ 113.292458643000032, -7.159764167999981, 0.0 ], [ 113.292285936000098, -7.159714343999951, 0.0 ], [ 113.292291960000057, -7.159618979999948, 0.0 ], [ 113.292395999000064, -7.158535018999942, 0.0 ], [ 113.292296999000087, -7.158376980999947, 0.0 ], [ 113.291945999000063, -7.157886029999929, 0.0 ], [ 113.291784, -7.157672007999963, 0.0 ], [ 113.291709840000067, -7.157475989999966, 0.0 ], [ 113.291596079000101, -7.157277, 0.0 ], [ 113.29159499900004, -7.157275019999929, 0.0 ], [ 113.291421839, -7.157067029999951, 0.0 ], [ 113.290975525000022, -7.156574058999979, 0.0 ], [ 113.290931999, -7.156576997999935, 0.0 ], [ 113.290865, -7.156581, 0.0 ], [ 113.290841000000114, -7.156576997999935, 0.0 ], [ 113.29081, -7.156563, 0.0 ], [ 113.290782, -7.156545000999927, 0.0 ], [ 113.290767, -7.156538997999974, 0.0 ], [ 113.290741, -7.156527000999972, 0.0 ], [ 113.290722, -7.156519997999965, 0.0 ], [ 113.290713, -7.156514, 0.0 ], [ 113.290714, -7.156498997999961, 0.0 ], [ 113.290718999000092, -7.156482998999934, 0.0 ], [ 113.29072, -7.156457, 0.0 ], [ 113.290725, -7.156433, 0.0 ], [ 113.290716998000107, -7.156402997999976, 0.0 ], [ 113.290698999000028, -7.15638900099998, 0.0 ], [ 113.290669, -7.156359, 0.0 ], [ 113.290634, -7.156341, 0.0 ], [ 113.290607, -7.156337, 0.0 ], [ 113.290573000000109, -7.15632699899993, 0.0 ], [ 113.290544, -7.156321, 0.0 ], [ 113.290533, -7.156313000999944, 0.0 ], [ 113.290525821000074, -7.156302231999973, 0.0 ], [ 113.290517, -7.156289, 0.0 ], [ 113.29049, -7.156251, 0.0 ], [ 113.290479, -7.156243, 0.0 ], [ 113.290454, -7.156242, 0.0 ], [ 113.290432, -7.156243, 0.0 ], [ 113.290415, -7.15624, 0.0 ], [ 113.290411, -7.156231, 0.0 ], [ 113.290405999000086, -7.156217, 0.0 ], [ 113.290404998000099, -7.156199, 0.0 ], [ 113.290398, -7.15618799799995, 0.0 ], [ 113.29038699900002, -7.156183, 0.0 ], [ 113.290374, -7.156188998999937, 0.0 ], [ 113.290364998000086, -7.156203, 0.0 ], [ 113.290350000000103, -7.156219, 0.0 ], [ 113.290328999000053, -7.156236000999968, 0.0 ], [ 113.29031, -7.156247998999959, 0.0 ], [ 113.290295, -7.15625, 0.0 ], [ 113.290285999000048, -7.156242, 0.0 ], [ 113.290276, -7.156226997999966, 0.0 ], [ 113.290265, -7.156199, 0.0 ], [ 113.290247998000041, -7.156176000999949, 0.0 ], [ 113.290227998000091, -7.15614699799994, 0.0 ], [ 113.290206, -7.156119000999979, 0.0 ], [ 113.290191999000058, -7.1561, 0.0 ], [ 113.290174, -7.156088, 0.0 ], [ 113.290171999000108, -7.156077000999971, 0.0 ], [ 113.290175, -7.156051998999942, 0.0 ], [ 113.290182, -7.156028, 0.0 ], [ 113.290168999000116, -7.155985, 0.0 ], [ 113.290164000000118, -7.155952997999975, 0.0 ], [ 113.290168999000116, -7.155943000999969, 0.0 ], [ 113.290185, -7.155914997999957, 0.0 ], [ 113.290207999000017, -7.155891, 0.0 ], [ 113.2902160000001, -7.155881000999955, 0.0 ], [ 113.290217, -7.155867, 0.0 ], [ 113.290206, -7.155864000999941, 0.0 ], [ 113.290188998000076, -7.155864000999941, 0.0 ], [ 113.290144, -7.155866, 0.0 ], [ 113.290108, -7.155873, 0.0 ], [ 113.290078000000108, -7.155879, 0.0 ], [ 113.290063, -7.155876998999929, 0.0 ], [ 113.290048, -7.155855997999936, 0.0 ], [ 113.290042, -7.155792, 0.0 ], [ 113.290038, -7.155757997999956, 0.0 ], [ 113.290028, -7.155736, 0.0 ], [ 113.290030000000115, -7.155692, 0.0 ], [ 113.290049, -7.155627, 0.0 ], [ 113.29007700000011, -7.155536, 0.0 ], [ 113.290099, -7.155486998999947, 0.0 ], [ 113.290099, -7.155467998999939, 0.0 ], [ 113.290088, -7.155443, 0.0 ], [ 113.290062, -7.155405997999935, 0.0 ], [ 113.290015999000047, -7.155359, 0.0 ], [ 113.289971, -7.155327997999962, 0.0 ], [ 113.289916998000081, -7.155299000999946, 0.0 ], [ 113.289885, -7.155285, 0.0 ], [ 113.289837998000053, -7.155264, 0.0 ], [ 113.2898110000001, -7.155249997999931, 0.0 ], [ 113.289797, -7.155240000999981, 0.0 ], [ 113.289777, -7.155219000999978, 0.0 ], [ 113.289775, -7.155212997999968, 0.0 ], [ 113.289778, -7.155202000999964, 0.0 ], [ 113.289782999000067, -7.155173997999952, 0.0 ], [ 113.289787, -7.155131, 0.0 ], [ 113.289789, -7.155095997999979, 0.0 ], [ 113.289789, -7.155066000999966, 0.0 ], [ 113.289776, -7.155039998999939, 0.0 ], [ 113.289755, -7.155000998999981, 0.0 ], [ 113.289742999000055, -7.154957, 0.0 ], [ 113.289739, -7.154921998999953, 0.0 ], [ 113.289741998000068, -7.15490099799996, 0.0 ], [ 113.289759000000117, -7.154880997999953, 0.0 ], [ 113.289713, -7.154865, 0.0 ], [ 113.289365, -7.15466499799993, 0.0 ], [ 113.289396, -7.154487, 0.0 ], [ 113.289291, -7.154488, 0.0 ], [ 113.289113, -7.154553, 0.0 ], [ 113.289026, -7.154852, 0.0 ], [ 113.288898, -7.155168, 0.0 ], [ 113.288753, -7.155241000999979, 0.0 ], [ 113.288664, -7.155161000999954, 0.0 ], [ 113.288565, -7.154838, 0.0 ], [ 113.288521668000044, -7.154805901999964, 0.0 ], [ 113.288537880000035, -7.154775, 0.0 ], [ 113.288582160000033, -7.154004959999952, 0.0 ], [ 113.28887592000001, -7.153808040999934, 0.0 ], [ 113.289014160000079, -7.153602028999956, 0.0 ], [ 113.289075, -7.153207018999979, 0.0 ], [ 113.289134040000022, -7.153056989999925, 0.0 ], [ 113.289235919000021, -7.152977969999938, 0.0 ], [ 113.289470999000059, -7.152954029999933, 0.0 ], [ 113.289551137000103, -7.152974750999931, 0.0 ], [ 113.289554, -7.152962, 0.0 ], [ 113.289565998000057, -7.152938000999939, 0.0 ], [ 113.289583999000115, -7.152889998999967, 0.0 ], [ 113.289603, -7.15285199899995, 0.0 ], [ 113.289615, -7.152829, 0.0 ], [ 113.289625999, -7.152811998999937, 0.0 ], [ 113.289117998000052, -7.152202, 0.0 ], [ 113.288939, -7.151641998999935, 0.0 ], [ 113.288669999000035, -7.151097998999944, 0.0 ], [ 113.288477, -7.150893000999929, 0.0 ], [ 113.287483124, -7.149594638999929, 0.0 ], [ 113.287501080000084, -7.149445018999927, 0.0 ], [ 113.28756012000008, -7.148972970999978, 0.0 ], [ 113.287578838000059, -7.148543039999936, 0.0 ], [ 113.287515840000083, -7.14825602999997, 0.0 ], [ 113.287392, -7.148071978999951, 0.0 ], [ 113.287185, -7.147908989999962, 0.0 ], [ 113.286814920000097, -7.147746990999963, 0.0 ], [ 113.286403080000014, -7.147605960999954, 0.0 ], [ 113.286363508000022, -7.147590946999969, 0.0 ], [ 113.285619000000111, -7.145983, 0.0 ], [ 113.284869, -7.143627998999932, 0.0 ], [ 113.284567, -7.142332, 0.0 ], [ 113.28391099800001, -7.140860998999926, 0.0 ], [ 113.283343998000078, -7.138748, 0.0 ], [ 113.282712157000105, -7.138611042999969, 0.0 ], [ 113.2822460000001, -7.13851, 0.0 ], [ 113.281302, -7.138633, 0.0 ], [ 113.280181, -7.138933, 0.0 ], [ 113.279236, -7.138820000999942, 0.0 ], [ 113.278586998000037, -7.138823, 0.0 ], [ 113.277643, -7.139122998999937, 0.0 ], [ 113.274911, -7.139112000999944, 0.0 ], [ 113.271645999000043, -7.138090998999928, 0.0 ], [ 113.270990919000042, -7.137905082999964, 0.0 ], [ 113.271020999000029, -7.137836998999944, 0.0 ], [ 113.27111388000003, -7.137578968999946, 0.0 ], [ 113.271379920000072, -7.13718099099998, 0.0 ], [ 113.271576119000088, -7.13691296899998, 0.0 ], [ 113.271657840000103, -7.136730990999979, 0.0 ], [ 113.271703919000061, -7.136456039999928, 0.0 ], [ 113.271678, -7.136228969999934, 0.0 ], [ 113.271338160000028, -7.135431030999939, 0.0 ], [ 113.271185880000075, -7.135100009999974, 0.0 ], [ 113.270865838000077, -7.134355979999953, 0.0 ], [ 113.270663160000026, -7.133749019999925, 0.0 ], [ 113.270582160000117, -7.133510969999975, 0.0 ], [ 113.270562, -7.133283989999939, 0.0 ], [ 113.270594040000105, -7.132992029999969, 0.0 ], [ 113.2707070780001, -7.132726979999973, 0.0 ], [ 113.271076080000057, -7.132280039999955, 0.0 ], [ 113.27133708000008, -7.131960989999925, 0.0 ], [ 113.271477118, -7.131716008999945, 0.0 ], [ 113.271498, -7.131606028999954, 0.0 ], [ 113.271728040000085, -7.131398040999954, 0.0 ], [ 113.27215788, -7.13108798899998, 0.0 ], [ 113.272566840000081, -7.130779019999977, 0.0 ], [ 113.272914960000094, -7.130510009999966, 0.0 ], [ 113.273323919000063, -7.130221019999965, 0.0 ], [ 113.273672040000065, -7.129933020999943, 0.0 ], [ 113.274142919000042, -7.129540979999945, 0.0 ], [ 113.274551880000104, -7.129211039999973, 0.0 ], [ 113.274980999000036, -7.12888100999993, 0.0 ], [ 113.275410839000074, -7.12857096099998, 0.0 ], [ 113.275758960000076, -7.128323008999928, 0.0 ], [ 113.276080080000042, -7.128194038999936, 0.0 ], [ 113.276142, -7.127376029999937, 0.0 ], [ 113.276301840000087, -7.126918019999948, 0.0 ], [ 113.276568958000098, -7.12655000899997, 0.0 ], [ 113.277133080000112, -7.126106038999978, 0.0 ], [ 113.27754888000004, -7.125021988999947, 0.0 ], [ 113.277567240000053, -7.125002908999932, 0.0 ], [ 113.277570840000067, -7.124999039999977, 0.0 ], [ 113.277826079000079, -7.124740019999933, 0.0 ], [ 113.277745080000045, -7.12467197999996, 0.0 ], [ 113.277432960000056, -7.124310000999969, 0.0 ], [ 113.277327118000017, -7.124112990999947, 0.0 ], [ 113.277026159000116, -7.123500988999979, 0.0 ], [ 113.276975040000025, -7.123425029999964, 0.0 ], [ 113.277021120000086, -7.123266, 0.0 ], [ 113.277120840000066, -7.122921029999929, 0.0 ], [ 113.277254040000116, -7.122384, 0.0 ], [ 113.277300838000087, -7.12208501899994, 0.0 ], [ 113.277349080000022, -7.121535029999961, 0.0 ], [ 113.277336120000086, -7.12097603899997, 0.0 ], [ 113.277313080000113, -7.120415968999964, 0.0 ], [ 113.277290957000105, -7.120065937999925, 0.0 ], [ 113.276900223000098, -7.119966652999949, 0.0 ], [ 113.276686072000075, -7.120019000999946, 0.0 ], [ 113.276414813000088, -7.120199839999941, 0.0 ], [ 113.276119760000029, -7.120314054999938, 0.0 ], [ 113.275724768000032, -7.120052313999963, 0.0 ], [ 113.275586761000113, -7.119866716999979, 0.0 ], [ 113.275667662000046, -7.11952407299998, 0.0 ], [ 113.275505859000077, -7.118810234999955, 0.0 ], [ 113.275310743000091, -7.118605600999956, 0.0 ], [ 113.275201288000062, -7.118400967999946, 0.0 ], [ 113.275177493000115, -7.118172539999932, 0.0 ], [ 113.275253636000116, -7.118029771999943, 0.0 ], [ 113.27523460000009, -7.117734718999941, 0.0 ], [ 113.275282190000098, -7.117354004999981, 0.0 ], [ 113.275305984000056, -7.117206477999957, 0.0 ], [ 113.275560586000097, -7.117047053999954, 0.0 ], [ 113.275758082000038, -7.116785314999959, 0.0 ], [ 113.275831844000095, -7.116559264999978, 0.0 ], [ 113.275879434000103, -7.116221380999946, 0.0 ], [ 113.27590322900005, -7.11603340399995, 0.0 ], [ 113.275881813000069, -7.115912050999952, 0.0 ], [ 113.275881813000069, -7.115845425999964, 0.0 ], [ 113.27600316600001, -7.115643171999977, 0.0 ], [ 113.276170669000066, -7.115525393999974, 0.0 ], [ 113.276113920000057, -7.115230978999932, 0.0 ], [ 113.276039040000114, -7.114686029999973, 0.0 ], [ 113.276018160000035, -7.114287958999967, 0.0 ], [ 113.276040840000064, -7.114049008999928, 0.0 ], [ 113.276144880000061, -7.113807988999952, 0.0 ], [ 113.276322, -7.113600990999942, 0.0 ], [ 113.276421, -7.113508019999927, 0.0 ], [ 113.276633040000092, -7.11333603099996, 0.0 ], [ 113.276963160000037, -7.113177, 0.0 ], [ 113.277459960000101, -7.113086009999961, 0.0 ], [ 113.278154040000118, -7.113062968999941, 0.0 ], [ 113.278932, -7.113095009999938, 0.0 ], [ 113.279433118000043, -7.11308897999993, 0.0 ], [ 113.279937840000116, -7.113033990999952, 0.0 ], [ 113.280406921, -7.112898990999952, 0.0 ], [ 113.280721921, -7.112734019999948, 0.0 ], [ 113.280914880000068, -7.112631958999941, 0.0 ], [ 113.281198920000065, -7.112450969999941, 0.0 ], [ 113.281718039000111, -7.111986028999979, 0.0 ], [ 113.281971840000097, -7.111720978999927, 0.0 ], [ 113.282193961000075, -7.111433971999929, 0.0 ], [ 113.282336161000103, -7.111178998999947, 0.0 ], [ 113.282449919000101, -7.110943019999979, 0.0 ], [ 113.282628840000029, -7.110586979999937, 0.0 ], [ 113.282821080000076, -7.11014598099996, 0.0 ], [ 113.283141119000106, -7.109537041999943, 0.0 ], [ 113.283426960000043, -7.109036008999965, 0.0 ], [ 113.283699839000064, -7.108567019999953, 0.0 ], [ 113.284004041000117, -7.108097039999961, 0.0 ], [ 113.284235879000107, -7.107769981999979, 0.0 ], [ 113.284407958000088, -7.107463979999977, 0.0 ], [ 113.28453, -7.107228989999953, 0.0 ], [ 113.284734840000056, -7.106849009999962, 0.0 ], [ 113.284953001000076, -7.106369039999947, 0.0 ], [ 113.285093040000106, -7.106046031999938, 0.0 ], [ 113.285287080000103, -7.105590001999929, 0.0 ], [ 113.28539291800007, -7.105248, 0.0 ], [ 113.285463840000034, -7.104789001999961, 0.0 ], [ 113.285547, -7.104192031999958, 0.0 ], [ 113.285622961000058, -7.10362097999996, 0.0 ], [ 113.285712960000069, -7.103181961999951, 0.0 ], [ 113.285747536000031, -7.102969704999964, 0.0 ], [ 113.285784960000115, -7.102739969999959, 0.0 ], [ 113.285851920000027, -7.102428028999952, 0.0 ], [ 113.285931840000103, -7.10208197999998, 0.0 ], [ 113.286031920000028, -7.101725039999963, 0.0 ], [ 113.28616188, -7.10117495999998, 0.0 ], [ 113.286261959000058, -7.100747008999974, 0.0 ], [ 113.286331080000082, -7.100339039999938, 0.0 ], [ 113.286367078000012, -7.100092979999943, 0.0 ], [ 113.286413161000041, -7.099446959999966, 0.0 ], [ 113.28650712000001, -7.098710039999958, 0.0 ], [ 113.286596040000063, -7.098240958999952, 0.0 ], [ 113.286706921000018, -7.097853959999952, 0.0 ], [ 113.286786841000094, -7.09766000999997, 0.0 ], [ 113.286904920000097, -7.097336008999946, 0.0 ], [ 113.286941593000051, -7.097326818999932, 0.0 ], [ 113.287336835000019, -7.09716956099993, 0.0 ], [ 113.287536709000051, -7.097069623999971, 0.0 ], [ 113.288001028000053, -7.096985091999954, 0.0 ], [ 113.288481001000036, -7.096759021999958, 0.0 ], [ 113.288497920000054, -7.096751008999945, 0.0 ], [ 113.288515919000019, -7.096749029999955, 0.0 ], [ 113.288518081, -7.096749029999955, 0.0 ], [ 113.288519161000067, -7.096740030999968, 0.0 ], [ 113.288550840000084, -7.096290029999977, 0.0 ], [ 113.288564879000091, -7.095354029999953, 0.0 ], [ 113.288515919000019, -7.095042, 0.0 ], [ 113.288393881000047, -7.09475103099993, 0.0 ], [ 113.28824988000008, -7.094366009999931, 0.0 ], [ 113.288240761000111, -7.094334759999981, 0.0 ], [ 113.287979290000067, -7.093828797999947, 0.0 ], [ 113.287917739000022, -7.093131753999955, 0.0 ], [ 113.28791169100009, -7.093075674999966, 0.0 ], [ 113.287983390000022, -7.092012749999981, 0.0 ], [ 113.287993921000066, -7.091975969999964, 0.0 ], [ 113.288240880000103, -7.091110979999939, 0.0 ], [ 113.288313961000085, -7.091013959999941, 0.0 ], [ 113.288460120000082, -7.090749989999949, 0.0 ], [ 113.288640119000092, -7.090352008999957, 0.0 ], [ 113.288730839000095, -7.090088038999966, 0.0 ], [ 113.288868, -7.089806969999927, 0.0 ], [ 113.289120519000107, -7.089402011999937, 0.0 ], [ 113.289585426000031, -7.089038942999935, 0.0 ], [ 113.289831700000036, -7.08864990099994, 0.0 ], [ 113.289906602000087, -7.088386616999969, 0.0 ], [ 113.289918120000038, -7.088363008999977, 0.0 ], [ 113.290182, -7.087655969999958, 0.0 ], [ 113.290293960000099, -7.087356989999932, 0.0 ], [ 113.290319879000094, -7.087239989999944, 0.0 ], [ 113.29040808000002, -7.086837961999947, 0.0 ], [ 113.29042629300011, -7.086738192999974, 0.0 ], [ 113.29060283900003, -7.085771008999927, 0.0 ], [ 113.290645880000056, -7.085528990999933, 0.0 ], [ 113.290692121, -7.085268989999975, 0.0 ], [ 113.290751160000013, -7.084929959999954, 0.0 ], [ 113.290756918000056, -7.084905031999938, 0.0 ], [ 113.291201160000014, -7.082792010999981, 0.0 ], [ 113.291455453000026, -7.081693198999972, 0.0 ], [ 113.291538120000041, -7.081335989999957, 0.0 ], [ 113.291763840000044, -7.08039, 0.0 ], [ 113.291828999000018, -7.080174, 0.0 ], [ 113.292037080000114, -7.080102989999943, 0.0 ], [ 113.292362161000028, -7.079979959999946, 0.0 ], [ 113.292565920000015, -7.079952960999947, 0.0 ], [ 113.292834119000076, -7.080005969999945, 0.0 ], [ 113.29305804, -7.080094980999945, 0.0 ], [ 113.293548000000101, -7.079972040999962, 0.0 ], [ 113.293766161, -7.079947020999953, 0.0 ], [ 113.294000161000099, -7.079995980999968, 0.0 ], [ 113.294207159000052, -7.08011702999994, 0.0 ], [ 113.294579040000031, -7.08077402999993, 0.0 ], [ 113.294693881000057, -7.080939989999933, 0.0 ], [ 113.294868121000036, -7.081013969999958, 0.0 ], [ 113.295102840000027, -7.081025040999975, 0.0 ], [ 113.295299040000032, -7.080998038999951, 0.0 ], [ 113.29540884000005, -7.080928019999931, 0.0 ], [ 113.295522960000085, -7.080737039999974, 0.0 ], [ 113.295603959, -7.080408990999956, 0.0 ], [ 113.295539880000092, -7.079946028999927, 0.0 ], [ 113.295345841000085, -7.079389019999951, 0.0 ], [ 113.295260159, -7.079154029999927, 0.0 ], [ 113.29526700100007, -7.079022990999931, 0.0 ], [ 113.295342960000085, -7.078942980999955, 0.0 ], [ 113.29578684, -7.079070958999978, 0.0 ], [ 113.295971880000025, -7.07914502899996, 0.0 ], [ 113.29619184, -7.079141969999966, 0.0 ], [ 113.296484880000094, -7.079055031999928, 0.0 ], [ 113.296803839000063, -7.07894000999994, 0.0 ], [ 113.297038920000091, -7.078919040999949, 0.0 ], [ 113.297275081000066, -7.078761989999975, 0.0 ], [ 113.297420880000118, -7.07880599899994, 0.0 ], [ 113.297697, -7.079014978999965, 0.0 ], [ 113.297891041000071, -7.079267968999943, 0.0 ], [ 113.298072839000042, -7.079462009999929, 0.0 ], [ 113.298185159000013, -7.079479020999941, 0.0 ], [ 113.298364080000056, -7.079418001999954, 0.0 ], [ 113.298566038000104, -7.079270040999972, 0.0 ], [ 113.298671158000047, -7.079054040999949, 0.0 ], [ 113.298681960000067, -7.078827959999956, 0.0 ], [ 113.298600960000044, -7.078596029999972, 0.0 ], [ 113.298454080000056, -7.078384979999953, 0.0 ], [ 113.298354, -7.078152958999965, 0.0 ], [ 113.298362999, -7.07796296999993, 0.0 ], [ 113.298453000000109, -7.077760019999971, 0.0 ], [ 113.298617880000052, -7.077611969999964, 0.0 ], [ 113.298779880000097, -7.077547979999963, 0.0 ], [ 113.298941880000029, -7.077578039999935, 0.0 ], [ 113.299556040000084, -7.07773599099994, 0.0 ], [ 113.299818121000044, -7.07764697999994, 0.0 ], [ 113.299961040000085, -7.077546989999973, 0.0 ], [ 113.300327881000044, -7.077336030999959, 0.0 ], [ 113.300385840000104, -7.077338009999949, 0.0 ], [ 113.300448120000055, -7.077332969999929, 0.0 ], [ 113.300466840000013, -7.077345029999947, 0.0 ], [ 113.300580961000037, -7.077421980999929, 0.0 ], [ 113.300718840000059, -7.077430979999974, 0.0 ], [ 113.300763120000056, -7.077497041999948, 0.0 ], [ 113.300825040000063, -7.07750901199995, 0.0 ], [ 113.301325078000104, -7.07733395899993, 0.0 ], [ 113.301596158000052, -7.077222988999949, 0.0 ], [ 113.301896040000088, -7.077160979999974, 0.0 ], [ 113.302078920000099, -7.077177, 0.0 ], [ 113.302554120000082, -7.07742602999997, 0.0 ], [ 113.302905120000105, -7.077580019999971, 0.0 ], [ 113.303042999000013, -7.077645989999951, 0.0 ], [ 113.303324160000102, -7.077796018999948, 0.0 ], [ 113.303345039000078, -7.077821038999957, 0.0 ], [ 113.303449080000064, -7.077702958999964, 0.0 ], [ 113.303526121, -7.077302998999926, 0.0 ], [ 113.303671921000046, -7.07607, 0.0 ], [ 113.303658959000018, -7.07536196999996, 0.0 ], [ 113.303665078000108, -7.074593009999944, 0.0 ], [ 113.303666159000045, -7.074474029999976, 0.0 ], [ 113.303882160000057, -7.074128969999947, 0.0 ], [ 113.303973961000111, -7.073911980999981, 0.0 ], [ 113.303966040000091, -7.073726038999951, 0.0 ], [ 113.303939040000046, -7.073441998999954, 0.0 ], [ 113.303859120000084, -7.072542, 0.0 ], [ 113.303849040000046, -7.071868979999977, 0.0 ], [ 113.303939040000046, -7.071685019999961, 0.0 ], [ 113.304192120000039, -7.071374970999955, 0.0 ], [ 113.304309840000087, -7.071153029999948, 0.0 ], [ 113.304439080000066, -7.070723011999974, 0.0 ], [ 113.304528, -7.070241960999965, 0.0 ], [ 113.30463708000002, -7.069698989999949, 0.0 ], [ 113.304809879000118, -7.069397038999966, 0.0 ], [ 113.305142160000059, -7.069002028999932, 0.0 ], [ 113.305893120000064, -7.068248009999934, 0.0 ], [ 113.305917958, -7.068200039999965, 0.0 ], [ 113.306149081000058, -7.067646988999968, 0.0 ], [ 113.306209921000118, -7.067219041999977, 0.0 ], [ 113.306208120000065, -7.066688039999974, 0.0 ], [ 113.30601695900009, -7.066014029999963, 0.0 ], [ 113.305992840000044, -7.065854009999953, 0.0 ], [ 113.306069880000109, -7.065671038999938, 0.0 ], [ 113.306079961000023, -7.065657, 0.0 ], [ 113.30614512000011, -7.06557203899996, 0.0 ], [ 113.306203080000046, -7.065545039999961, 0.0 ], [ 113.306901840000023, -7.06534002099994, 0.0 ], [ 113.307318001000112, -7.065199979999932, 0.0 ], [ 113.307712920000085, -7.064981008999951, 0.0 ], [ 113.307989040000052, -7.064757989999976, 0.0 ], [ 113.308049880000112, -7.064326979999976, 0.0 ], [ 113.307928920000109, -7.063910008999926, 0.0 ], [ 113.307877078000047, -7.063819020999972, 0.0 ], [ 113.307153840000069, -7.063605989999928, 0.0 ], [ 113.306793841000058, -7.063488, 0.0 ], [ 113.30676612000002, -7.063472969999964, 0.0 ], [ 113.3067448810001, -7.063441019999971, 0.0 ], [ 113.306739120000088, -7.06280904099998, 0.0 ], [ 113.30668907900008, -7.062705001999973, 0.0 ], [ 113.306727960000103, -7.062644969999951, 0.0 ], [ 113.306784121000078, -7.06248998999996, 0.0 ], [ 113.306799960000035, -7.062224040999979, 0.0 ], [ 113.306742, -7.061949, 0.0 ], [ 113.306393881000076, -7.061193988999946, 0.0 ], [ 113.306223960000011, -7.060635991999959, 0.0 ], [ 113.306180041000061, -7.060235040999942, 0.0 ], [ 113.306082121000031, -7.059894029999953, 0.0 ], [ 113.305924080000068, -7.059582000999967, 0.0 ], [ 113.305615918000058, -7.059061979999967, 0.0 ], [ 113.305606920000059, -7.058736988999954, 0.0 ], [ 113.305299840000089, -7.058360968999978, 0.0 ], [ 113.305132080000021, -7.05813803999996, 0.0 ], [ 113.30451792000008, -7.057896031999974, 0.0 ], [ 113.304407040000115, -7.05782303999996, 0.0 ], [ 113.304366, -7.057710000999975, 0.0 ], [ 113.304128040000023, -7.057310040999937, 0.0 ], [ 113.303932920000079, -7.056835019999937, 0.0 ], [ 113.303818080000042, -7.056433978999962, 0.0 ], [ 113.303754, -7.056111959999953, 0.0 ], [ 113.303540879000025, -7.055416979999961, 0.0 ], [ 113.303706838000039, -7.055366039999967, 0.0 ], [ 113.303827081, -7.055330039999944, 0.0 ], [ 113.304183840000064, -7.055189009999935, 0.0 ], [ 113.304587040000115, -7.05501800899998, 0.0 ], [ 113.304800880000016, -7.054914961999941, 0.0 ], [ 113.304989160000105, -7.054705981999973, 0.0 ], [ 113.305224961000022, -7.054487998999946, 0.0 ], [ 113.305509, -7.054238969999972, 0.0 ], [ 113.305709160000106, -7.054019009999934, 0.0 ], [ 113.305862879000074, -7.053796979999959, 0.0 ], [ 113.305970880000018, -7.053623009999967, 0.0 ], [ 113.306175, -7.053458039999953, 0.0 ], [ 113.306397249000042, -7.05332722199995, 0.0 ], [ 113.30661309300001, -7.053200176999951, 0.0 ], [ 113.306794623000087, -7.053093324999963, 0.0 ], [ 113.307010920000039, -7.052966009999977, 0.0 ], [ 113.307309713000109, -7.052819832999944, 0.0 ], [ 113.30754115600007, -7.052706602999933, 0.0 ], [ 113.307787793000102, -7.052585939999972, 0.0 ], [ 113.308039081000061, -7.052463, 0.0 ], [ 113.308401961000072, -7.052319, 0.0 ], [ 113.30883108, -7.052118029999974, 0.0 ], [ 113.309141041000089, -7.05201803999995, 0.0 ], [ 113.30961084, -7.051968, 0.0 ], [ 113.310101881000037, -7.051910041999975, 0.0 ], [ 113.310317160000068, -7.051809959999957, 0.0 ], [ 113.310525961000053, -7.051626000999931, 0.0 ], [ 113.310807840000052, -7.051431959999945, 0.0 ], [ 113.311056252000071, -7.051271659999941, 0.0 ], [ 113.311302119000061, -7.05111299899994, 0.0 ], [ 113.311395001000051, -7.050979981999944, 0.0 ], [ 113.311550880000027, -7.051037039999926, 0.0 ], [ 113.311626840000031, -7.051065029999961, 0.0 ], [ 113.311946879000061, -7.051151970999967, 0.0 ], [ 113.312005920000047, -7.051167989999954, 0.0 ], [ 113.312436840000032, -7.051131988999941, 0.0 ], [ 113.312666878000073, -7.051122001999943, 0.0 ], [ 113.312903439000024, -7.051205790999973, 0.0 ], [ 113.313129840000101, -7.051285978999942, 0.0 ], [ 113.313309521000065, -7.051406739999948, 0.0 ], [ 113.313431133000108, -7.051488473999939, 0.0 ], [ 113.313666961000081, -7.051646969999979, 0.0 ], [ 113.313961078000034, -7.051913009999964, 0.0 ], [ 113.314087081000025, -7.052086979999956, 0.0 ], [ 113.314143960000024, -7.052261041999941, 0.0 ], [ 113.314185001000055, -7.052506019999953, 0.0 ], [ 113.314277880000077, -7.05259196999998, 0.0 ], [ 113.314605840000013, -7.052778989999979, 0.0 ], [ 113.314834080000082, -7.052774039999974, 0.0 ], [ 113.315145120000011, -7.052691961999926, 0.0 ], [ 113.315490001000057, -7.052608978999956, 0.0 ], [ 113.315771880000057, -7.052643989999979, 0.0 ], [ 113.316184097000018, -7.052690550999955, 0.0 ], [ 113.316559920000032, -7.052732998999943, 0.0 ], [ 113.316734880000013, -7.052657039999929, 0.0 ], [ 113.316960049000045, -7.052532505999977, 0.0 ], [ 113.317197840000063, -7.052400989999967, 0.0 ], [ 113.317368120000083, -7.05236696999998, 0.0 ], [ 113.317629838000016, -7.052315039999939, 0.0 ], [ 113.317922880000083, -7.052266981999935, 0.0 ], [ 113.318298001000016, -7.052264998999931, 0.0 ], [ 113.318610841, -7.05236696999998, 0.0 ], [ 113.319146160000059, -7.052598990999968, 0.0 ], [ 113.319512842000108, -7.052705959999969, 0.0 ], [ 113.319945203000088, -7.052832085999967, 0.0 ], [ 113.320280881000031, -7.052930008999965, 0.0 ], [ 113.320653120000088, -7.052945041999976, 0.0 ], [ 113.320951448000073, -7.052921486999935, 0.0 ], [ 113.321270188000085, -7.05289632399996, 0.0 ], [ 113.321545988000025, -7.052874546999931, 0.0 ], [ 113.321884768000018, -7.052847800999928, 0.0 ], [ 113.3222799240001, -7.05281660199995, 0.0 ], [ 113.322660893000034, -7.052786523999941, 0.0 ], [ 113.322931592000032, -7.052765151999949, 0.0 ], [ 113.323275, -7.052738039999952, 0.0 ], [ 113.323497748000023, -7.052634547999958, 0.0 ], [ 113.323709881000013, -7.052535988999978, 0.0 ], [ 113.32388484, -7.052248981999981, 0.0 ], [ 113.324005078000027, -7.051982038999938, 0.0 ], [ 113.324074347000078, -7.051739555999973, 0.0 ], [ 113.324137920000112, -7.051517009999941, 0.0 ], [ 113.324159160000022, -7.051211009999975, 0.0 ], [ 113.324336998000035, -7.050809969999932, 0.0 ], [ 113.324604120000117, -7.050519, 0.0 ], [ 113.324987880000094, -7.050292019999972, 0.0 ], [ 113.325158472000112, -7.050166978999926, 0.0 ], [ 113.325410880000049, -7.049981970999966, 0.0 ], [ 113.325467041000024, -7.049833018999948, 0.0 ], [ 113.325775920000069, -7.049499029999936, 0.0 ], [ 113.325938430000065, -7.049323249999929, 0.0 ], [ 113.326080120000029, -7.049169991999975, 0.0 ], [ 113.326175880000051, -7.04902698099994, 0.0 ], [ 113.326216921000082, -7.048881, 0.0 ], [ 113.326164, -7.048784968999939, 0.0 ], [ 113.32631412, -7.048689030999981, 0.0 ], [ 113.326526161000061, -7.048360978999938, 0.0 ], [ 113.326613954000095, -7.04819921099994, 0.0 ], [ 113.326708932000088, -7.047911023999973, 0.0 ], [ 113.326790181000092, -7.047664490999978, 0.0 ], [ 113.326865632000022, -7.047455426999932, 0.0 ], [ 113.326932949000025, -7.047268902999974, 0.0 ], [ 113.327233356000079, -7.047346237999932, 0.0 ], [ 113.327399918000083, -7.047301620999974, 0.0 ], [ 113.327634891000116, -7.047221314999945, 0.0 ], [ 113.327875846000097, -7.047228823999944, 0.0 ], [ 113.327917637000041, -7.047230125999931, 0.0 ], [ 113.328304570000114, -7.047253591999947, 0.0 ], [ 113.328753236000011, -7.047280800999943, 0.0 ], [ 113.328820509000025, -7.047137645999953, 0.0 ], [ 113.328912503000083, -7.046941885999956, 0.0 ], [ 113.328933322000012, -7.046757477999961, 0.0 ], [ 113.329025526, -7.046358919999932, 0.0 ], [ 113.329070141000102, -7.046097176999979, 0.0 ], [ 113.329126654000106, -7.045954409999979, 0.0 ], [ 113.329138550000039, -7.045761078999931, 0.0 ], [ 113.329126654000106, -7.045597490999967, 0.0 ], [ 113.329108808000115, -7.045422004999978, 0.0 ], [ 113.32909096000003, -7.045332775999952, 0.0 ], [ 113.328991474000077, -7.045240559999968, 0.0 ], [ 113.328992160000098, -7.045165980999968, 0.0 ], [ 113.32907496100006, -7.044895981999957, 0.0 ], [ 113.329075792000026, -7.044893227999978, 0.0 ], [ 113.329236703000106, -7.04477062999996, 0.0 ], [ 113.329209934, -7.044702217999941, 0.0 ], [ 113.329153422000104, -7.044624885999951, 0.0 ], [ 113.32909096000003, -7.044523758999958, 0.0 ], [ 113.328995783000096, -7.044488066999975, 0.0 ], [ 113.328903580000087, -7.044473194999966, 0.0 ], [ 113.328763784000103, -7.044479143999979, 0.0 ], [ 113.328689428000075, -7.044508886999949, 0.0 ], [ 113.328650761000063, -7.044425605999947, 0.0 ], [ 113.328673921000018, -7.044195959999968, 0.0 ], [ 113.328731068000025, -7.044047866999961, 0.0 ], [ 113.328769733000058, -7.043979456999978, 0.0 ], [ 113.328826246000062, -7.043902124999931, 0.0 ], [ 113.328900605000058, -7.04385453499998, 0.0 ], [ 113.329062755000109, -7.04378719999994, 0.0 ], [ 113.329082038000024, -7.043696896999961, 0.0 ], [ 113.329082038000024, -7.043622537999966, 0.0 ], [ 113.329064192000033, -7.043569, 0.0 ], [ 113.329001732000052, -7.043518436999932, 0.0 ], [ 113.328891682000062, -7.043476796999926, 0.0 ], [ 113.328736568000068, -7.043410926999968, 0.0 ], [ 113.328674555000021, -7.043384593999974, 0.0 ], [ 113.328686768000011, -7.043327424999973, 0.0 ], [ 113.328706338000075, -7.043235816999925, 0.0 ], [ 113.328704300000027, -7.043164492999949, 0.0 ], [ 113.328656710000018, -7.043102030999933, 0.0 ], [ 113.328621018000035, -7.043039569999962, 0.0 ], [ 113.328632915000071, -7.042908699999941, 0.0 ], [ 113.32861209500004, -7.042789726999956, 0.0 ], [ 113.328585327000042, -7.042629113999965, 0.0 ], [ 113.328567480000061, -7.042480396999963, 0.0 ], [ 113.328570454000101, -7.042304911999963, 0.0 ], [ 113.328469327000107, -7.04206101699998, 0.0 ], [ 113.328183545000115, -7.04176515599994, 0.0 ], [ 113.328062999000053, -7.041540959999963, 0.0 ], [ 113.328011161000063, -7.041474989999926, 0.0 ], [ 113.330468161000113, -7.041504959999941, 0.0 ], [ 113.331513960000052, -7.041196979999938, 0.0 ], [ 113.332133160000012, -7.041141989999971, 0.0 ], [ 113.332572, -7.041191039999944, 0.0 ], [ 113.332726080000043, -7.041086009999958, 0.0 ], [ 113.332794120000017, -7.040837971999963, 0.0 ], [ 113.332764960000077, -7.040590019999968, 0.0 ], [ 113.332772878000014, -7.040383019999979, 0.0 ], [ 113.333042161000094, -7.040170979999971, 0.0 ], [ 113.333101921000093, -7.040139029999978, 0.0 ], [ 113.333313960000055, -7.039951021999968, 0.0 ], [ 113.333545080000022, -7.039736011999935, 0.0 ], [ 113.333816880000086, -7.039657979999959, 0.0 ], [ 113.334221881000076, -7.039646009999956, 0.0 ], [ 113.334562081000058, -7.039690018999977, 0.0 ], [ 113.334867, -7.039694969999971, 0.0 ], [ 113.335000920000084, -7.039612979999958, 0.0 ], [ 113.335139158000061, -7.03945097999997, 0.0 ], [ 113.335251840000069, -7.039360979999969, 0.0 ], [ 113.335390080000025, -7.039397969999925, 0.0 ], [ 113.33614104000003, -7.03967400199997, 0.0 ], [ 113.336382960000037, -7.039656, 0.0 ], [ 113.336517959000048, -7.039578958999925, 0.0 ], [ 113.336615879000078, -7.039423979999981, 0.0 ], [ 113.336897040000053, -7.038914038999962, 0.0 ], [ 113.336983080000095, -7.038755009999932, 0.0 ], [ 113.337122039000064, -7.038428038999939, 0.0 ], [ 113.33724084000005, -7.038312029999929, 0.0 ], [ 113.337709920000066, -7.038569969999969, 0.0 ], [ 113.338082881000105, -7.038963988999967, 0.0 ], [ 113.338500840000052, -7.039169011999945, 0.0 ], [ 113.338738081000088, -7.039407960999938, 0.0 ], [ 113.338843920000045, -7.040071978999947, 0.0 ], [ 113.338882080000076, -7.040478959999973, 0.0 ], [ 113.339089081000111, -7.040598031999934, 0.0 ], [ 113.339711880000095, -7.041117958999962, 0.0 ], [ 113.339661840000076, -7.041653009999948, 0.0 ], [ 113.339635921000081, -7.041988981999964, 0.0 ], [ 113.339696039000046, -7.042044961999977, 0.0 ], [ 113.33997288, -7.042093019999925, 0.0 ], [ 113.340337921000014, -7.042173029999958, 0.0 ], [ 113.340448080000101, -7.042347001999929, 0.0 ], [ 113.340475081000022, -7.042559039999958, 0.0 ], [ 113.340443041000071, -7.043144039999959, 0.0 ], [ 113.340309840000032, -7.043640031999928, 0.0 ], [ 113.34027383900002, -7.043994988999941, 0.0 ], [ 113.340147120000097, -7.044290008999951, 0.0 ], [ 113.339988001000052, -7.044695009999941, 0.0 ], [ 113.339754001000074, -7.045054018999963, 0.0 ], [ 113.339589839000041, -7.045552978999979, 0.0 ], [ 113.339464920000069, -7.04597400199998, 0.0 ], [ 113.33928312, -7.046589961999928, 0.0 ], [ 113.339142, -7.047042029999943, 0.0 ], [ 113.33905596000011, -7.047365040999978, 0.0 ], [ 113.338833120000118, -7.047756988999936, 0.0 ], [ 113.338614960000086, -7.048076039999955, 0.0 ], [ 113.338491840000074, -7.048187998999936, 0.0 ], [ 113.338240920000089, -7.048434959999952, 0.0 ], [ 113.33812660000001, -7.048555250999925, 0.0 ], [ 113.338047961000029, -7.048637998999936, 0.0 ], [ 113.337897120000093, -7.048817008999947, 0.0 ], [ 113.337783001000048, -7.04909700099995, 0.0 ], [ 113.337726841000062, -7.04923496899994, 0.0 ], [ 113.337632880000115, -7.049661029999982, 0.0 ], [ 113.337636840000073, -7.049988000999974, 0.0 ], [ 113.337685081000018, -7.050303990999964, 0.0 ], [ 113.337612, -7.050758040999938, 0.0 ], [ 113.337510118000068, -7.05107196199998, 0.0 ], [ 113.337407880000114, -7.051239001999932, 0.0 ], [ 113.337510841000039, -7.051562009999941, 0.0 ], [ 113.3375119210001, -7.051757041999963, 0.0 ], [ 113.337496080000051, -7.052313958999946, 0.0 ], [ 113.337468001000047, -7.052685029999964, 0.0 ], [ 113.337381961, -7.053164008999943, 0.0 ], [ 113.337387, -7.053379018999976, 0.0 ], [ 113.337411841000062, -7.053426001999981, 0.0 ], [ 113.33763612100006, -7.053587009999944, 0.0 ], [ 113.338225080000029, -7.053982019999978, 0.0 ], [ 113.338513080000098, -7.054156980999949, 0.0 ], [ 113.339225880000072, -7.054544970999928, 0.0 ], [ 113.339430000000107, -7.054698960999929, 0.0 ], [ 113.339739961000078, -7.055179019999969, 0.0 ], [ 113.339869921000059, -7.055469000999949, 0.0 ], [ 113.339923920000047, -7.055811988999949, 0.0 ], [ 113.33990808100009, -7.056329038999934, 0.0 ], [ 113.339900881000062, -7.056594989999951, 0.0 ], [ 113.3401478400001, -7.056630988999927, 0.0 ], [ 113.34045492100006, -7.056606959999954, 0.0 ], [ 113.340687120000098, -7.056644038999934, 0.0 ], [ 113.34085812, -7.056806041999948, 0.0 ], [ 113.340980880000075, -7.056969029999948, 0.0 ], [ 113.341231081000046, -7.057086029999937, 0.0 ], [ 113.341704119000042, -7.057234979999976, 0.0 ], [ 113.342419080000013, -7.057623960999933, 0.0 ], [ 113.342937840000104, -7.057887028999971, 0.0 ], [ 113.343143040000086, -7.057990979999943, 0.0 ], [ 113.343365160000076, -7.058204011999976, 0.0 ], [ 113.343536161000088, -7.058534038999937, 0.0 ], [ 113.343597001000035, -7.058671020999952, 0.0 ], [ 113.34381192100011, -7.058878019999952, 0.0 ], [ 113.344057080000084, -7.059032998999953, 0.0 ], [ 113.344553879000046, -7.059167009999953, 0.0 ], [ 113.345282159000021, -7.059333958999957, 0.0 ], [ 113.34548304000009, -7.059403981999935, 0.0 ], [ 113.345647920000033, -7.059708989999933, 0.0 ], [ 113.345724960000098, -7.059881968999946, 0.0 ], [ 113.345908919000067, -7.060080960999926, 0.0 ], [ 113.34607596, -7.059909961999949, 0.0 ], [ 113.346412920000034, -7.059607020999977, 0.0 ], [ 113.346515880000084, -7.059556979999968, 0.0 ], [ 113.34665700100004, -7.059528989999933, 0.0 ], [ 113.347293839000031, -7.059518009999977, 0.0 ], [ 113.347716840000089, -7.059473011999955, 0.0 ], [ 113.348180879000097, -7.059881968999946, 0.0 ], [ 113.348475, -7.060133969999981, 0.0 ], [ 113.348692080000092, -7.060397041999977, 0.0 ], [ 113.348976841000081, -7.060746961999939, 0.0 ], [ 113.349165120000066, -7.061029019999978, 0.0 ], [ 113.349353041000086, -7.06144797099995, 0.0 ], [ 113.349441960000036, -7.061671979999971, 0.0 ], [ 113.349584160000063, -7.062092009999958, 0.0 ], [ 113.3496540000001, -7.062278038999978, 0.0 ], [ 113.349853081000106, -7.062783028999945, 0.0 ], [ 113.350376880000113, -7.063448038999979, 0.0 ], [ 113.350968001000069, -7.064622989999975, 0.0 ], [ 113.350476960000037, -7.065331019999974, 0.0 ], [ 113.350151880000112, -7.065767969999968, 0.0 ], [ 113.349949921000075, -7.066001969999945, 0.0 ], [ 113.349870001000113, -7.066099979999933, 0.0 ], [ 113.349948120000022, -7.066163968999945, 0.0 ], [ 113.349962159000029, -7.06636899199998, 0.0 ], [ 113.349917880000021, -7.066646011999978, 0.0 ], [ 113.349909960000105, -7.066918979999969, 0.0 ], [ 113.349971161000099, -7.066998001999934, 0.0 ], [ 113.350123081000106, -7.067080978999968, 0.0 ], [ 113.350268880000044, -7.067086019999977, 0.0 ], [ 113.350386960000037, -7.067006009999943, 0.0 ], [ 113.350434839000059, -7.066889009999954, 0.0 ], [ 113.350501080000072, -7.066843020999954, 0.0 ], [ 113.350619880000067, -7.066902959999936, 0.0 ], [ 113.350816080000072, -7.067138039999975, 0.0 ], [ 113.350880159000099, -7.067325959999948, 0.0 ], [ 113.350970880000091, -7.067441969999948, 0.0 ], [ 113.351159161000055, -7.067554019999932, 0.0 ], [ 113.351308918000086, -7.067565989999935, 0.0 ], [ 113.351357878000044, -7.067451960999961, 0.0 ], [ 113.351405041000021, -7.067123998999932, 0.0 ], [ 113.35147487800009, -7.066942021999978, 0.0 ], [ 113.35157784, -7.066905031999966, 0.0 ], [ 113.351762161000011, -7.066924021999966, 0.0 ], [ 113.351918040000101, -7.067010959999948, 0.0 ], [ 113.351978880000047, -7.067130028999941, 0.0 ], [ 113.351950080000051, -7.067307959999937, 0.0 ], [ 113.351922001000048, -7.067718001999935, 0.0 ], [ 113.352082920000043, -7.067856958999926, 0.0 ], [ 113.352324839000062, -7.067973958999971, 0.0 ], [ 113.352509879000081, -7.068093030999933, 0.0 ], [ 113.352792839000017, -7.068464011999936, 0.0 ], [ 113.352959879000082, -7.068554009999957, 0.0 ], [ 113.353193160000046, -7.068664980999927, 0.0 ], [ 113.353288921000058, -7.069075019999957, 0.0 ], [ 113.353464959, -7.069260958999962, 0.0 ], [ 113.353729920000092, -7.06942404199998, 0.0 ], [ 113.353873921000059, -7.069210019999957, 0.0 ], [ 113.35395384100002, -7.06917096199993, 0.0 ], [ 113.354020079000065, -7.069253039999978, 0.0 ], [ 113.354129879000084, -7.069385970999974, 0.0 ], [ 113.354223119000039, -7.069497030999969, 0.0 ], [ 113.354344080000033, -7.06953896999994, 0.0 ], [ 113.35435416100006, -7.069546981999963, 0.0 ], [ 113.354767081000091, -7.069599988999926, 0.0 ], [ 113.354916121000088, -7.069724009999959, 0.0 ], [ 113.354988121000019, -7.070113981999953, 0.0 ], [ 113.355037080000102, -7.070171039999934, 0.0 ], [ 113.355482041000073, -7.070147009999971, 0.0 ], [ 113.355678960000091, -7.070114969999963, 0.0 ], [ 113.355790920000118, -7.070033971999976, 0.0 ], [ 113.355861118, -7.069871970999941, 0.0 ], [ 113.355880921000107, -7.069733009999936, 0.0 ], [ 113.355960119000088, -7.069626000999961, 0.0 ], [ 113.356083961000081, -7.069592968999928, 0.0 ], [ 113.356280159000107, -7.069863958999974, 0.0 ], [ 113.356383120000032, -7.06999202999998, 0.0 ], [ 113.356595881000089, -7.07006096899994, 0.0 ], [ 113.356737001000056, -7.070112, 0.0 ], [ 113.356834921000086, -7.070238, 0.0 ], [ 113.356977840000013, -7.070207040999946, 0.0 ], [ 113.357117881000022, -7.07012703099997, 0.0 ], [ 113.357129038000039, -7.070112991999963, 0.0 ], [ 113.357248921000064, -7.069955039999968, 0.0 ], [ 113.357482921000042, -7.06962797999995, 0.0 ], [ 113.35776804000011, -7.069502970999963, 0.0 ], [ 113.357973961000084, -7.069346009999947, 0.0 ], [ 113.358228840000038, -7.069164029999968, 0.0 ], [ 113.358412081000097, -7.069221001999949, 0.0 ], [ 113.358623040000111, -7.069348980999962, 0.0 ], [ 113.358805921000112, -7.069421969999951, 0.0 ], [ 113.358971158000031, -7.069393979999973, 0.0 ], [ 113.359188961000086, -7.069272029999979, 0.0 ], [ 113.360447160000035, -7.068540958999961, 0.0 ], [ 113.360726881, -7.068583978999925, 0.0 ], [ 113.360990038000068, -7.068626009999946, 0.0 ], [ 113.36134896100009, -7.068652018999956, 0.0 ], [ 113.361599160000083, -7.068843, 0.0 ], [ 113.361665041000037, -7.068967020999935, 0.0 ], [ 113.361719041000015, -7.069133971999975, 0.0 ], [ 113.361756840000112, -7.06919696999995, 0.0 ], [ 113.361908039000014, -7.069338989999949, 0.0 ], [ 113.362185961000023, -7.069501979999927, 0.0 ], [ 113.362418160000061, -7.069590990999927, 0.0 ], [ 113.362751880000019, -7.069637970999963, 0.0 ], [ 113.363108999000019, -7.069737961999977, 0.0 ], [ 113.363492041000086, -7.069901039999934, 0.0 ], [ 113.363508959000114, -7.070002020999937, 0.0 ], [ 113.363619840000069, -7.070688, 0.0 ], [ 113.363764920000108, -7.071009029999971, 0.0 ], [ 113.364006120000113, -7.071383969999943, 0.0 ], [ 113.364128880000067, -7.071471988999974, 0.0 ], [ 113.364617038, -7.07171102999996, 0.0 ], [ 113.364659160000087, -7.071735958999966, 0.0 ], [ 113.364888120000046, -7.071873029999949, 0.0 ], [ 113.365045081000062, -7.072084980999932, 0.0 ], [ 113.365176839000014, -7.072254989999976, 0.0 ], [ 113.365308961000096, -7.072337969999978, 0.0 ], [ 113.365622159000054, -7.072531018999939, 0.0 ], [ 113.365734840000073, -7.072707959999946, 0.0 ], [ 113.365764001000116, -7.07285195999998, 0.0 ], [ 113.365842840000028, -7.072937008999929, 0.0 ], [ 113.366040118000114, -7.072998029999951, 0.0 ], [ 113.366238119000059, -7.07300000999993, 0.0 ], [ 113.366384999000047, -7.072934041999929, 0.0 ], [ 113.367471121000108, -7.072400968999943, 0.0 ], [ 113.36750784000003, -7.072390980999955, 0.0 ], [ 113.36772815900008, -7.072244011999942, 0.0 ], [ 113.368101839000019, -7.071906959999978, 0.0 ], [ 113.36828112, -7.071725970999978, 0.0 ], [ 113.368494960000021, -7.071524011999941, 0.0 ], [ 113.368718160000071, -7.071438959999966, 0.0 ], [ 113.368958999000029, -7.07135003999997, 0.0 ], [ 113.369226121000111, -7.071273989999952, 0.0 ], [ 113.36958612, -7.071251039999936, 0.0 ], [ 113.36989716100004, -7.071230968999942, 0.0 ], [ 113.370116040000084, -7.071168959999966, 0.0 ], [ 113.370265079000092, -7.071080041999949, 0.0 ], [ 113.370338881000066, -7.070992018999959, 0.0 ], [ 113.370442920000073, -7.070724989999974, 0.0 ], [ 113.370554158, -7.070416021999961, 0.0 ], [ 113.370643081000026, -7.070175001999928, 0.0 ], [ 113.370712918000095, -7.069987978999961, 0.0 ], [ 113.370851880000032, -7.069570019999958, 0.0 ], [ 113.370848998000042, -7.069133971999975, 0.0 ], [ 113.370800038000084, -7.069049011999937, 0.0 ], [ 113.370611041000075, -7.068722041999933, 0.0 ], [ 113.370438961000104, -7.068546988999969, 0.0 ], [ 113.370165, -7.068382020999934, 0.0 ], [ 113.369834159000106, -7.068312, 0.0 ], [ 113.369563079000045, -7.06833900099997, 0.0 ], [ 113.369457960000091, -7.068293998999934, 0.0 ], [ 113.369212079000022, -7.068024, 0.0 ], [ 113.369109840000078, -7.067856958999926, 0.0 ], [ 113.369046119000018, -7.067496960999961, 0.0 ], [ 113.369078880000075, -7.067258009999932, 0.0 ], [ 113.36913, -7.067079, 0.0 ], [ 113.369113079000044, -7.066856969999947, 0.0 ], [ 113.369036041000072, -7.066653031999977, 0.0 ], [ 113.368523041000117, -7.066306980999968, 0.0 ], [ 113.368338000000108, -7.066172971999947, 0.0 ], [ 113.368397040000104, -7.065839971999935, 0.0 ], [ 113.368439161000083, -7.065480959999945, 0.0 ], [ 113.368357081000113, -7.065304021999964, 0.0 ], [ 113.368163040000013, -7.064512019999938, 0.0 ], [ 113.368163040000013, -7.06427604199996, 0.0 ], [ 113.368329, -7.064019988999974, 0.0 ], [ 113.368379040000036, -7.06389497999993, 0.0 ], [ 113.368380841000089, -7.063586011999973, 0.0 ], [ 113.368376880000028, -7.063576019999971, 0.0 ], [ 113.368542840000032, -7.063009019999981, 0.0 ], [ 113.368831921000037, -7.062794998999948, 0.0 ], [ 113.369218921000083, -7.062551011999972, 0.0 ], [ 113.369886, -7.061884018999933, 0.0 ], [ 113.370521040000085, -7.061401979999971, 0.0 ], [ 113.370915960000048, -7.060944959999972, 0.0 ], [ 113.371439040000041, -7.059912029999964, 0.0 ], [ 113.371629121000069, -7.059349980999968, 0.0 ], [ 113.371923960000117, -7.058646991999979, 0.0 ], [ 113.372202960000095, -7.058330008999974, 0.0 ], [ 113.372588161000067, -7.058064958999978, 0.0 ], [ 113.373321840000017, -7.057625041999927, 0.0 ], [ 113.373393841000052, -7.057564021999951, 0.0 ], [ 113.373489960000029, -7.057483021999928, 0.0 ], [ 113.374190161000115, -7.057217971999933, 0.0 ], [ 113.374215, -7.057295009999962, 0.0 ], [ 113.37430896, -7.057494991999931, 0.0 ], [ 113.374427038000022, -7.057752028999971, 0.0 ], [ 113.374522081, -7.057914031999928, 0.0 ], [ 113.374707121000029, -7.058034988999964, 0.0 ], [ 113.37499872, -7.05819374899994, 0.0 ], [ 113.374999080000066, -7.058194019999974, 0.0 ], [ 113.375607840000043, -7.058525041999928, 0.0 ], [ 113.375810880000017, -7.058702971999935, 0.0 ], [ 113.376189961000023, -7.059117958999934, 0.0 ], [ 113.37639984100008, -7.059288959999947, 0.0 ], [ 113.376929041000039, -7.059652020999977, 0.0 ], [ 113.377146840000023, -7.059959011999979, 0.0 ], [ 113.377177081000013, -7.060148009999978, 0.0 ], [ 113.377264918000037, -7.060338989999934, 0.0 ], [ 113.377362121000033, -7.060579019999977, 0.0 ], [ 113.378529961000027, -7.061939008999957, 0.0 ], [ 113.382402841000044, -7.063440029999981, 0.0 ], [ 113.384414879000019, -7.06416399099993, 0.0 ], [ 113.385751920000075, -7.064379, 0.0 ], [ 113.388158879000116, -7.06436901099994, 0.0 ], [ 113.388247080000042, -7.064431019999972, 0.0 ], [ 113.388397920000102, -7.064445959999944, 0.0 ], [ 113.388777001000108, -7.064541989999952, 0.0 ], [ 113.389008839000098, -7.064650981999932, 0.0 ], [ 113.389157881000074, -7.064828009999928, 0.0 ], [ 113.389239961000044, -7.065056971999979, 0.0 ], [ 113.389318079000077, -7.065403021999941, 0.0 ], [ 113.38934112000004, -7.065428041999951, 0.0 ], [ 113.38944084100001, -7.065596968999955, 0.0 ], [ 113.389489080000089, -7.065935009999976, 0.0 ], [ 113.389589159000025, -7.066665001999979, 0.0 ], [ 113.389702920000104, -7.067242980999936, 0.0 ], [ 113.389755119000029, -7.067671019999977, 0.0 ], [ 113.389988040000048, -7.068270960999939, 0.0 ], [ 113.390142841000056, -7.068522959999939, 0.0 ], [ 113.390353080000068, -7.068708, 0.0 ], [ 113.390651880000064, -7.068665971999962, 0.0 ], [ 113.390908920000015, -7.068671009999946, 0.0 ], [ 113.391225, -7.06879196999995, 0.0 ], [ 113.391398160000108, -7.068942, 0.0 ], [ 113.391766080000025, -7.069331971999929, 0.0 ], [ 113.392038959000047, -7.070056018999935, 0.0 ], [ 113.392006920000085, -7.070325029999935, 0.0 ], [ 113.391970919000073, -7.070745959999954, 0.0 ], [ 113.391992161000076, -7.070994990999964, 0.0 ], [ 113.392131120000045, -7.071366958999931, 0.0 ], [ 113.393489041000066, -7.073201968999967, 0.0 ], [ 113.393605961000048, -7.073359968999966, 0.0 ], [ 113.393394989000058, -7.073592590999965, 0.0 ], [ 113.393273606000093, -7.073765900999945, 0.0 ], [ 113.393042268000045, -7.074100803999954, 0.0 ], [ 113.39268529200001, -7.074362706999977, 0.0 ], [ 113.392020352000031, -7.074886169999957, 0.0 ], [ 113.39161514500006, -7.075213472999963, 0.0 ], [ 113.391030683000054, -7.075574045999929, 0.0 ], [ 113.390364735000048, -7.075902416999952, 0.0 ], [ 113.389731165000057, -7.076230710999937, 0.0 ], [ 113.388885368000047, -7.076462591999928, 0.0 ], [ 113.388316702000111, -7.076660516999937, 0.0 ], [ 113.387731307000081, -7.076826085999926, 0.0 ], [ 113.387227805000066, -7.077088828999933, 0.0 ], [ 113.386739997000063, -7.077269981999962, 0.0 ], [ 113.386203364000039, -7.077386503999946, 0.0 ], [ 113.385422858000084, -7.07765057499995, 0.0 ], [ 113.385059329000114, -7.077785816999949, 0.0 ], [ 113.384807646000013, -7.078039584999942, 0.0 ], [ 113.38452845200004, -7.078091743999948, 0.0 ], [ 113.384227250000095, -7.078148014999954, 0.0 ], [ 113.38278364700011, -7.077878502999965, 0.0 ], [ 113.380234230000042, -7.077402541999959, 0.0 ], [ 113.380259848000037, -7.078280073999963, 0.0 ], [ 113.380554556000106, -7.079147863999935, 0.0 ], [ 113.380950142000074, -7.080116552999925, 0.0 ], [ 113.381172990000096, -7.080763647999959, 0.0 ], [ 113.38152234800009, -7.081099650999931, 0.0 ], [ 113.382143961000111, -7.08146151699998, 0.0 ], [ 113.382398759000012, -7.081813716999932, 0.0 ], [ 113.382667428000104, -7.082032899999945, 0.0 ], [ 113.382879308000042, -7.082205753999972, 0.0 ], [ 113.383029302000068, -7.08241821799993, 0.0 ], [ 113.383257664000098, -7.082741688999931, 0.0 ], [ 113.386578569000108, -7.083827665999934, 0.0 ], [ 113.386866492000081, -7.084397330999934, 0.0 ], [ 113.386186143000032, -7.084993949999955, 0.0 ], [ 113.385733014000039, -7.085860986999933, 0.0 ], [ 113.385518064000053, -7.086550015999933, 0.0 ], [ 113.385223736000057, -7.087661154999978, 0.0 ], [ 113.385106356000051, -7.087915574999954, 0.0 ], [ 113.385059091000016, -7.088018021999972, 0.0 ], [ 113.384600463000083, -7.088857711999935, 0.0 ], [ 113.383363415000076, -7.089193449999925, 0.0 ], [ 113.383297124000023, -7.089211441999964, 0.0 ], [ 113.38287080300006, -7.089233585999978, 0.0 ], [ 113.382429197000079, -7.08925652299996, 0.0 ], [ 113.381560922000062, -7.089233890999935, 0.0 ], [ 113.381276043000071, -7.089397686999973, 0.0 ], [ 113.380680417, -7.089740153999969, 0.0 ], [ 113.380463115000111, -7.089865095999926, 0.0 ], [ 113.38036202, -7.090161526999964, 0.0 ], [ 113.380135032000112, -7.090553897999939, 0.0 ], [ 113.379987644000039, -7.09080867299997, 0.0 ], [ 113.379566138000087, -7.091763304999972, 0.0 ], [ 113.379539173000012, -7.09181717599995, 0.0 ], [ 113.379330957000093, -7.092233146999945, 0.0 ], [ 113.379012400000079, -7.09264023399993, 0.0 ], [ 113.378870868000035, -7.092892988999949, 0.0 ], [ 113.378706356000066, -7.093186782999965, 0.0 ], [ 113.378359828000043, -7.093536354999969, 0.0 ], [ 113.378178031000061, -7.093719749999934, 0.0 ], [ 113.377647736000085, -7.094077982999977, 0.0 ], [ 113.377612336000084, -7.09409510699993, 0.0 ], [ 113.377015626000116, -7.094383748999974, 0.0 ], [ 113.376438983000071, -7.094757934999961, 0.0 ], [ 113.376410044000068, -7.09476977099996, 0.0 ], [ 113.375780259000067, -7.09502735999996, 0.0 ], [ 113.375724123000055, -7.095050319999928, 0.0 ], [ 113.374788946000081, -7.09527311599993, 0.0 ], [ 113.374419732000092, -7.095591686999967, 0.0 ], [ 113.374316205000014, -7.095681012999933, 0.0 ], [ 113.374023989000079, -7.095846430999927, 0.0 ], [ 113.373625344000061, -7.096327607999967, 0.0 ], [ 113.373578486000042, -7.096352486999933, 0.0 ], [ 113.373407759000088, -7.096443130999944, 0.0 ], [ 113.373295411000072, -7.09650277999998, 0.0 ], [ 113.373152401000084, -7.096538909999936, 0.0 ], [ 113.372968598000057, -7.096585344999937, 0.0 ], [ 113.372733493000055, -7.096649573999969, 0.0 ], [ 113.372234267000067, -7.096792308999966, 0.0 ], [ 113.371996835, -7.096918226999946, 0.0 ], [ 113.371498109000072, -7.097056595999959, 0.0 ], [ 113.370920333000072, -7.097172775999979, 0.0 ], [ 113.370308179000062, -7.097277744999928, 0.0 ], [ 113.36994504900008, -7.097290986999951, 0.0 ], [ 113.369446463000031, -7.097384168999952, 0.0 ], [ 113.368985836000093, -7.09745926599993, 0.0 ], [ 113.368486934000089, -7.097563654999931, 0.0 ], [ 113.367954940000118, -7.09774764399998, 0.0 ], [ 113.367671694000023, -7.097873522999976, 0.0 ], [ 113.367608928000095, -7.097897621999948, 0.0 ], [ 113.367252839000116, -7.098034341999949, 0.0 ], [ 113.366879648, -7.098239930999966, 0.0 ], [ 113.366483784000025, -7.098490996999942, 0.0 ], [ 113.366110783000067, -7.098821378999958, 0.0 ], [ 113.365761115000055, -7.099162756999931, 0.0 ], [ 113.365467570000078, -7.099492732999977, 0.0 ], [ 113.365140144000065, -7.099777246999963, 0.0 ], [ 113.364936884000031, -7.099948170999937, 0.0 ], [ 113.364688089000083, -7.100085258999968, 0.0 ], [ 113.364499653000053, -7.100121095999953, 0.0 ], [ 113.364381963000028, -7.100143478999939, 0.0 ], [ 113.364177768000104, -7.100189973999932, 0.0 ], [ 113.363917625000113, -7.100281846999962, 0.0 ], [ 113.363745547, -7.100481166999941, 0.0 ], [ 113.363509438000051, -7.100867237999978, 0.0 ], [ 113.363386544000036, -7.101230230999931, 0.0 ], [ 113.363274634000049, -7.10158187199994, 0.0 ], [ 113.363208359000055, -7.101899122999953, 0.0 ], [ 113.363164079000057, -7.102125895999961, 0.0 ], [ 113.363244446000067, -7.102317874999926, 0.0 ], [ 113.363381647000097, -7.102521039999942, 0.0 ], [ 113.363541398000052, -7.102712704999931, 0.0 ], [ 113.363724327000114, -7.102972296999951, 0.0 ], [ 113.363804676000086, -7.103175571999941, 0.0 ], [ 113.363828449000039, -7.103345246999936, 0.0 ], [ 113.363840880000112, -7.103616913999929, 0.0 ], [ 113.363842270000077, -7.103888817999973, 0.0 ], [ 113.363798180000117, -7.104138089999935, 0.0 ], [ 113.3637424530001, -7.104285489999938, 0.0 ], [ 113.363617601000101, -7.10455740499998, 0.0 ], [ 113.363560442000107, -7.104677613999968, 0.0 ], [ 113.363471885000081, -7.104863854999962, 0.0 ], [ 113.36333697900011, -7.105124795999927, 0.0 ], [ 113.363213737000024, -7.105419926999957, 0.0 ], [ 113.36311291200002, -7.10569217099993, 0.0 ], [ 113.362989092000021, -7.105874075999964, 0.0 ], [ 113.362876627000105, -7.106044265999969, 0.0 ], [ 113.362696071000073, -7.106249051999953, 0.0 ], [ 113.362663801000053, -7.106577514999969, 0.0 ], [ 113.362767089000045, -7.106860103999963, 0.0 ], [ 113.36298148000003, -7.107045371999959, 0.0 ], [ 113.363040704000014, -7.107096550999927, 0.0 ], [ 113.36338170800002, -7.107219335999957, 0.0 ], [ 113.363722869000071, -7.107387392999954, 0.0 ], [ 113.364007262000086, -7.107499170999972, 0.0 ], [ 113.364178546000062, -7.107713366999974, 0.0 ], [ 113.364292979000084, -7.107928124999944, 0.0 ], [ 113.364464535000025, -7.108210092999968, 0.0 ], [ 113.364522315000045, -7.108391071999961, 0.0 ], [ 113.364580789000115, -7.108707866999964, 0.0 ], [ 113.364638543000069, -7.108956709999973, 0.0 ], [ 113.364763811000103, -7.109057912999958, 0.0 ], [ 113.364866565000057, -7.109148023999978, 0.0 ], [ 113.365105307000022, -7.109203374999936, 0.0 ], [ 113.365410932000032, -7.109133768999925, 0.0 ], [ 113.36605664700005, -7.108949468999981, 0.0 ], [ 113.366498186000058, -7.108743348999951, 0.0 ], [ 113.366781305000018, -7.10860599199998, 0.0 ], [ 113.366985610000029, -7.108639016999973, 0.0 ], [ 113.367315415, -7.108818332999931, 0.0 ], [ 113.367576864000057, -7.108907632999944, 0.0 ], [ 113.367838543000062, -7.10904220499998, 0.0 ], [ 113.367977495000105, -7.10916216499993, 0.0 ], [ 113.368020954000031, -7.109199682999929, 0.0 ], [ 113.368147152, -7.109482152999931, 0.0 ], [ 113.368136532000108, -7.109652093999955, 0.0 ], [ 113.368171350000011, -7.109821712999974, 0.0 ], [ 113.368233247000035, -7.109932274999949, 0.0 ], [ 113.368493809000029, -7.109863167999947, 0.0 ], [ 113.368935323000073, -7.109725000999958, 0.0 ], [ 113.369218979000038, -7.109678186999929, 0.0 ], [ 113.369446092000089, -7.109779046999961, 0.0 ], [ 113.36963993400002, -7.109925079999925, 0.0 ], [ 113.369720057000109, -7.110083350999957, 0.0 ], [ 113.369720580000035, -7.110185189999982, 0.0 ], [ 113.369641967, -7.110321411999962, 0.0 ], [ 113.369585986000061, -7.110491584999977, 0.0 ], [ 113.369564324000066, -7.110661491999963, 0.0 ], [ 113.369633031000035, -7.110819640999978, 0.0 ], [ 113.369815735000088, -7.111033956999961, 0.0 ], [ 113.369941296000093, -7.111191814999927, 0.0 ], [ 113.369976346000044, -7.111406704999979, 0.0 ], [ 113.370034883000017, -7.111734702999968, 0.0 ], [ 113.370024862000037, -7.112006663999978, 0.0 ], [ 113.370026547000066, -7.112334951999969, 0.0 ], [ 113.369937315000016, -7.112641114999974, 0.0 ], [ 113.369711927000026, -7.112891314999956, 0.0 ], [ 113.369519376000085, -7.11298293699997, 0.0 ], [ 113.369258854, -7.113074725999979, 0.0 ], [ 113.369043596000097, -7.113132395999969, 0.0 ], [ 113.368805806000069, -7.11319027199994, 0.0 ], [ 113.368511279000018, -7.113271029999964, 0.0 ], [ 113.368261358000041, -7.113335020999955, 0.0 ], [ 113.368262635000065, -7.113584061999973, 0.0 ], [ 113.368263622000086, -7.113776535999932, 0.0 ], [ 113.368298987000117, -7.113980037999966, 0.0 ], [ 113.368334097000115, -7.114206313999944, 0.0 ], [ 113.368335026000068, -7.114387581999949, 0.0 ], [ 113.368290534000039, -7.114557696999952, 0.0 ], [ 113.368189014000109, -7.114694035999946, 0.0 ], [ 113.368076609000013, -7.114875703999928, 0.0 ], [ 113.367964322000034, -7.115080141999954, 0.0 ], [ 113.367806181000105, -7.115261952999958, 0.0 ], [ 113.367614333, -7.115432821999946, 0.0 ], [ 113.367467666000039, -7.115626049999946, 0.0 ], [ 113.367389052000021, -7.115762452999945, 0.0 ], [ 113.367344369000079, -7.115909796999972, 0.0 ], [ 113.367288792000068, -7.116159127999936, 0.0 ], [ 113.367255948000093, -7.116374545999975, 0.0 ], [ 113.367199732000017, -7.116499266999938, 0.0 ], [ 113.367087229000049, -7.116647138999951, 0.0 ], [ 113.366963102000113, -7.116783591999933, 0.0 ], [ 113.366805043000113, -7.116909014999976, 0.0 ], [ 113.366691994, -7.11711074699997, 0.0 ], [ 113.36662453800011, -7.117269592999946, 0.0 ], [ 113.366614366000022, -7.117439441999977, 0.0 ], [ 113.366683133000038, -7.117608977999964, 0.0 ], [ 113.366820592000067, -7.117846115999953, 0.0 ], [ 113.366924203000053, -7.118117314999949, 0.0 ], [ 113.367016455000112, -7.118399957999941, 0.0 ], [ 113.367131241000038, -7.11868239599994, 0.0 ], [ 113.367257384000027, -7.11895347899997, 0.0 ], [ 113.367338048000079, -7.119202112999972, 0.0 ], [ 113.367486557, -7.119382444999928, 0.0 ], [ 113.367578521000041, -7.119608429999971, 0.0 ], [ 113.367590393000114, -7.119755664999957, 0.0 ], [ 113.367535249000071, -7.120016380999971, 0.0 ], [ 113.367547395000088, -7.120231387999979, 0.0 ], [ 113.367549291000046, -7.120234656999969, 0.0 ], [ 113.367684855000107, -7.120468436999943, 0.0 ], [ 113.367776877000097, -7.120705806999979, 0.0 ], [ 113.367880257000024, -7.120931732999964, 0.0 ], [ 113.367903546000093, -7.121078909999937, 0.0 ], [ 113.367938306000042, -7.121237141999927, 0.0 ], [ 113.367916413000103, -7.121361687999979, 0.0 ], [ 113.367860621000091, -7.121554451999941, 0.0 ], [ 113.367770749000101, -7.121736184999975, 0.0 ], [ 113.367703766000091, -7.121929006999949, 0.0 ], [ 113.367556691000118, -7.122042986999929, 0.0 ], [ 113.36750242800008, -7.122453140999937, 0.0 ], [ 113.367417649000117, -7.122704746999943, 0.0 ], [ 113.367332223000062, -7.122949157999926, 0.0 ], [ 113.36719258100004, -7.12333429399996, 0.0 ], [ 113.367070170000034, -7.123988319999967, 0.0 ], [ 113.367064306000088, -7.124641643999951, 0.0 ], [ 113.366720359000055, -7.124927339999942, 0.0 ], [ 113.366458110000053, -7.125314085999946, 0.0 ], [ 113.366521094000063, -7.125709271999938, 0.0 ], [ 113.366603979000047, -7.126023200999953, 0.0 ], [ 113.366691147000097, -7.126401959999953, 0.0 ], [ 113.36672154900009, -7.126987723999946, 0.0 ], [ 113.366716648000079, -7.127253965999955, 0.0 ], [ 113.366832450000061, -7.127485718999935, 0.0 ], [ 113.36686921, -7.127628569999956, 0.0 ], [ 113.366898966, -7.127744205999932, 0.0 ], [ 113.36702248600011, -7.128002452999965, 0.0 ], [ 113.367041986000118, -7.128301029999932, 0.0 ], [ 113.367205784000021, -7.129001002999928, 0.0 ], [ 113.366658024000117, -7.129129536999926, 0.0 ], [ 113.366442385000028, -7.129064756999981, 0.0 ], [ 113.366342422000116, -7.129034726999976, 0.0 ], [ 113.366198694000104, -7.129016305999926, 0.0 ], [ 113.365805463000015, -7.128970425999967, 0.0 ], [ 113.365826429000094, -7.12933376899997, 0.0 ], [ 113.365675409, -7.129755284999931, 0.0 ], [ 113.365600255000118, -7.130042669999966, 0.0 ], [ 113.365467724000041, -7.130330349999952, 0.0 ], [ 113.365296074000071, -7.130541690999962, 0.0 ], [ 113.365076650000105, -7.130705200999955, 0.0 ], [ 113.364808609000079, -7.130802270999936, 0.0 ], [ 113.364617937000048, -7.130956235999975, 0.0 ], [ 113.364493967000044, -7.131138595999971, 0.0 ], [ 113.364494664000063, -7.131347065999933, 0.0 ], [ 113.364572696000096, -7.131547548999947, 0.0 ], [ 113.36466000300004, -7.131766961999972, 0.0 ], [ 113.364738496000086, -7.132130009999969, 0.0 ], [ 113.364796832000025, -7.132301947999963, 0.0 ], [ 113.365113733000044, -7.132405509999955, 0.0 ], [ 113.365450153000097, -7.132575933999931, 0.0 ], [ 113.365642200000025, -7.13268971399998, 0.0 ], [ 113.365729066000085, -7.132823099999939, 0.0 ], [ 113.365777999000102, -7.133023640999966, 0.0 ], [ 113.365886232000094, -7.133510969999975, 0.0 ], [ 113.366138017000026, -7.134054763999927, 0.0 ], [ 113.366388431000018, -7.134273338999947, 0.0 ], [ 113.366561181000066, -7.134348992999946, 0.0 ], [ 113.366385187000105, -7.135065047999944, 0.0 ], [ 113.366366748000019, -7.135208552999927, 0.0 ], [ 113.366405615000076, -7.135323117999974, 0.0 ], [ 113.366463363000094, -7.135380293999958, 0.0 ], [ 113.366568766000114, -7.135389151999959, 0.0 ], [ 113.366722071000027, -7.135397943999976, 0.0 ], [ 113.366885276000062, -7.135416354999961, 0.0 ], [ 113.367048476000036, -7.135492056999965, 0.0 ], [ 113.36718342100005, -7.135586881999927, 0.0 ], [ 113.367279642000085, -7.135682084999928, 0.0 ], [ 113.36739538300003, -7.135844057999975, 0.0 ], [ 113.36739577700007, -7.135920595999949, 0.0 ], [ 113.367415641000093, -7.13605423499996, 0.0 ], [ 113.367387554000061, -7.136178811999969, 0.0 ], [ 113.36743587300009, -7.136274260999926, 0.0 ], [ 113.367474471000037, -7.136321866999936, 0.0 ], [ 113.367522643000029, -7.136388580999949, 0.0 ], [ 113.367532808000078, -7.136493622999978, 0.0 ], [ 113.367514419000031, -7.136646704999976, 0.0 ], [ 113.367458393000106, -7.136924414999953, 0.0 ], [ 113.367425303, -7.137048204999928, 0.0 ], [ 113.367373837000059, -7.137240404999943, 0.0 ], [ 113.367374526000049, -7.137374412999975, 0.0 ], [ 113.36741319600003, -7.137450663999971, 0.0 ], [ 113.367336986000055, -7.137517924999941, 0.0 ], [ 113.367231976000085, -7.13758560499997, 0.0 ], [ 113.367201637000107, -7.137594591999971, 0.0 ], [ 113.367040942000017, -7.13764219199993, 0.0 ], [ 113.36616527800004, -7.137901573999955, 0.0 ], [ 113.365078791000087, -7.138223404999962, 0.0 ], [ 113.364979525000081, -7.138252808999937, 0.0 ], [ 113.364862489000075, -7.139154484999949, 0.0 ], [ 113.364801672000112, -7.139969980999979, 0.0 ], [ 113.364752731000067, -7.140363734999937, 0.0 ], [ 113.364713536000068, -7.140679081999963, 0.0 ], [ 113.364518353000108, -7.141407796999943, 0.0 ], [ 113.364191687000016, -7.142093943999953, 0.0 ], [ 113.364177304, -7.142124155999966, 0.0 ], [ 113.363913823000075, -7.142456244999948, 0.0 ], [ 113.363121404000026, -7.143068918999973, 0.0 ], [ 113.362552900000082, -7.143389377999938, 0.0 ], [ 113.362370217000034, -7.143450195999947, 0.0 ], [ 113.361745429000052, -7.143658195999933, 0.0 ], [ 113.361176176000072, -7.143833077999943, 0.0 ], [ 113.360635843000068, -7.144620185999941, 0.0 ], [ 113.360650311000086, -7.146210640999925, 0.0 ], [ 113.360662837000064, -7.146286730999975, 0.0 ], [ 113.360704466000016, -7.147468669999967, 0.0 ], [ 113.360768338000071, -7.148585385999979, 0.0 ], [ 113.361034989000018, -7.150023750999935, 0.0 ], [ 113.361356032000117, -7.150565288999928, 0.0 ], [ 113.36131173800004, -7.150749641999937, 0.0 ], [ 113.361264148000032, -7.150934048999943, 0.0 ], [ 113.361198713000022, -7.151076818999968, 0.0 ], [ 113.361091638000062, -7.151160097999934, 0.0 ], [ 113.360913178000033, -7.151261224999928, 0.0 ], [ 113.360794205000047, -7.151386147999972, 0.0 ], [ 113.360603848000096, -7.15158840099997, 0.0 ], [ 113.360425387000078, -7.151725221999925, 0.0 ], [ 113.360306415000082, -7.151915577999944, 0.0 ], [ 113.359888820000037, -7.152151143999959, 0.0 ], [ 113.359617895000042, -7.152009230999965, 0.0 ], [ 113.359616033000066, -7.15201082699997, 0.0 ], [ 113.359046491000072, -7.151765670999964, 0.0 ], [ 113.358089767000024, -7.152664572999981, 0.0 ], [ 113.356820160000098, -7.153093979999937, 0.0 ], [ 113.356815840000081, -7.153093979999937, 0.0 ], [ 113.356550160000097, -7.15312998099995, 0.0 ], [ 113.356305, -7.153223040999933, 0.0 ], [ 113.355785879000109, -7.153404029999933, 0.0 ], [ 113.355656998000086, -7.153385039999932, 0.0 ], [ 113.355216, -7.153273979999938, 0.0 ], [ 113.354705880000097, -7.153274967999948, 0.0 ], [ 113.35439808000001, -7.153257959999962, 0.0 ], [ 113.354011080000078, -7.153593029999968, 0.0 ], [ 113.353827839000019, -7.153615980999973, 0.0 ], [ 113.353675920000114, -7.153623000999971, 0.0 ], [ 113.353287119000015, -7.153639018999968, 0.0 ], [ 113.35322412000005, -7.153715969999951, 0.0 ], [ 113.353264080000031, -7.153836028999933, 0.0 ], [ 113.353670880000095, -7.15468895999993, 0.0 ], [ 113.353585920000114, -7.154793989999973, 0.0 ], [ 113.353540920000114, -7.154831969999975, 0.0 ], [ 113.353395838000097, -7.154933039999946, 0.0 ], [ 113.352865920000113, -7.155304020999949, 0.0 ], [ 113.352491879000013, -7.155520019999926, 0.0 ], [ 113.352320880000093, -7.15546196899993, 0.0 ], [ 113.352198120000025, -7.155297990999941, 0.0 ], [ 113.35198284, -7.155063000999974, 0.0 ], [ 113.351888160000044, -7.155107010999927, 0.0 ], [ 113.351274000000103, -7.155468990999964, 0.0 ], [ 113.351167080000096, -7.155397979999975, 0.0 ], [ 113.350731840000094, -7.154912968999952, 0.0 ], [ 113.350716, -7.154911979999952, 0.0 ], [ 113.350572, -7.154907028999958, 0.0 ], [ 113.350375080000049, -7.154961029999981, 0.0 ], [ 113.350030921000098, -7.15507901999996, 0.0 ], [ 113.349483001000067, -7.155343978999952, 0.0 ], [ 113.349013921000051, -7.155548008999972, 0.0 ], [ 113.348779921000073, -7.155586981999932, 0.0 ], [ 113.348660040000027, -7.155532979999975, 0.0 ], [ 113.34837311900003, -7.155367019999971, 0.0 ], [ 113.347766161000095, -7.155095041999971, 0.0 ], [ 113.347644839000054, -7.155100979999929, 0.0 ], [ 113.347406881000097, -7.155180991999941, 0.0 ], [ 113.34733884100001, -7.155272971999977, 0.0 ], [ 113.347152, -7.15554, 0.0 ], [ 113.347015920000104, -7.155605969999954, 0.0 ], [ 113.346936, -7.155592019999972, 0.0 ], [ 113.346672120000107, -7.155452969999942, 0.0 ], [ 113.34657492000008, -7.155546029999925, 0.0 ], [ 113.346311041000035, -7.15588902199994, 0.0 ], [ 113.345974080000019, -7.156103039999948, 0.0 ], [ 113.34584196000003, -7.156110959999978, 0.0 ], [ 113.345484120000037, -7.156148041999927, 0.0 ], [ 113.34512484000004, -7.156148041999927, 0.0 ], [ 113.344842958000072, -7.156009978999975, 0.0 ], [ 113.344665841000051, -7.155978029999972, 0.0 ], [ 113.344523999000103, -7.155977039999925, 0.0 ], [ 113.343868080000107, -7.155991979999953, 0.0 ], [ 113.343636959000037, -7.156107, 0.0 ], [ 113.343332040000064, -7.156312018999927, 0.0 ], [ 113.342874840000036, -7.156620990999954, 0.0 ], [ 113.342735880000077, -7.156780018999939, 0.0 ], [ 113.342704920000074, -7.156943009999964, 0.0 ], [ 113.34266712100009, -7.157111039999961, 0.0 ], [ 113.342574960000093, -7.15720301999994, 0.0 ], [ 113.342433840000012, -7.157241989999932, 0.0 ], [ 113.342313961000059, -7.157206979999955, 0.0 ], [ 113.341916880000099, -7.157055958999933, 0.0 ], [ 113.341746960000023, -7.157019959999957, 0.0 ], [ 113.341111919000014, -7.156990981999968, 0.0 ], [ 113.341101120000076, -7.156989989999943, 0.0 ], [ 113.341066920000117, -7.157017979999978, 0.0 ], [ 113.340309120000029, -7.157642038999938, 0.0 ], [ 113.340024001000074, -7.157855969999957, 0.0 ], [ 113.340141001, -7.157952001999945, 0.0 ], [ 113.340378959000077, -7.158120029999964, 0.0 ], [ 113.340359160000048, -7.158165028999974, 0.0 ], [ 113.340238921000036, -7.15820003999994, 0.0 ], [ 113.340075840000054, -7.158176009999977, 0.0 ], [ 113.33976516000007, -7.158124979999968, 0.0 ], [ 113.339697840000099, -7.158285989999968, 0.0 ], [ 113.33946312, -7.158414959999959, 0.0 ], [ 113.339115000000106, -7.15861997899998, 0.0 ], [ 113.339031841000065, -7.158858029999976, 0.0 ], [ 113.338905840000052, -7.158977009999944, 0.0 ], [ 113.338648080000098, -7.159131, 0.0 ], [ 113.338505160000068, -7.159016971999961, 0.0 ], [ 113.338443960000063, -7.158900959999926, 0.0 ], [ 113.338247040000056, -7.158566970999971, 0.0 ], [ 113.338078920000044, -7.158542039999929, 0.0 ], [ 113.337978118000024, -7.158569039999975, 0.0 ], [ 113.337468001000047, -7.158308039999952, 0.0 ], [ 113.336952840000095, -7.15806503999994, 0.0 ], [ 113.336295120000045, -7.157822040999974, 0.0 ], [ 113.335697878000019, -7.157600010999943, 0.0 ], [ 113.335018920000039, -7.157439, 0.0 ], [ 113.334648840000114, -7.157421, 0.0 ], [ 113.334135841000034, -7.157422979999978, 0.0 ], [ 113.333787, -7.157446020999942, 0.0 ], [ 113.333541120000064, -7.157508030999963, 0.0 ], [ 113.333274, -7.157550961999959, 0.0 ], [ 113.332944960000077, -7.157552041999963, 0.0 ], [ 113.332514040000092, -7.157513970999958, 0.0 ], [ 113.332143960000053, -7.157412988999965, 0.0 ], [ 113.331753001000038, -7.15729203099994, 0.0 ], [ 113.331215160000056, -7.157167018999928, 0.0 ], [ 113.330959920000055, -7.156947961999947, 0.0 ], [ 113.330747880000104, -7.156859038999926, 0.0 ], [ 113.330602081000052, -7.156833029999973, 0.0 ], [ 113.3302971600001, -7.156910971999935, 0.0 ], [ 113.329994040000088, -7.156935000999965, 0.0 ], [ 113.329622880000102, -7.156884959999957, 0.0 ], [ 113.329513080000083, -7.156816018999962, 0.0 ], [ 113.329366920000098, -7.156341, 0.0 ], [ 113.329266121000046, -7.156127970999933, 0.0 ], [ 113.329231920000097, -7.156014029999938, 0.0 ], [ 113.328861120000056, -7.155923038999958, 0.0 ], [ 113.32878912000001, -7.155914041999949, 0.0 ], [ 113.328227160000097, -7.155811978999964, 0.0 ], [ 113.327996039000027, -7.155834029999937, 0.0 ], [ 113.327434080000103, -7.155891, 0.0 ], [ 113.32665, -7.155858959999932, 0.0 ], [ 113.326446960000112, -7.155960028999971, 0.0 ], [ 113.326108920000024, -7.156179989999941, 0.0 ], [ 113.325752160000093, -7.156403998999963, 0.0 ], [ 113.32545984, -7.156497961999946, 0.0 ], [ 113.325240960000087, -7.156509028999949, 0.0 ], [ 113.324913, -7.156456019999951, 0.0 ], [ 113.324708159000011, -7.156402019999973, 0.0 ], [ 113.32426104000001, -7.156284029999938, 0.0 ], [ 113.324258158000021, -7.156283041999927, 0.0 ], [ 113.323367161000078, -7.156308959999933, 0.0 ], [ 113.32269, -7.156414979999965, 0.0 ], [ 113.321931120000045, -7.156583008999974, 0.0 ], [ 113.321540879000054, -7.156688039999949, 0.0 ], [ 113.320371959000113, -7.157000968999967, 0.0 ], [ 113.319387, -7.157189969999934, 0.0 ], [ 113.318565120000017, -7.157214989999943, 0.0 ], [ 113.317764120000106, -7.157219041999952, 0.0 ], [ 113.317292160000079, -7.15716, 0.0 ], [ 113.316634078000106, -7.157122019999974, 0.0 ], [ 113.316161040000111, -7.157062978999932, 0.0 ], [ 113.31533916, -7.156944, 0.0 ], [ 113.314722120000056, -7.156824030999928, 0.0 ], [ 113.313981960000092, -7.15672602099994, 0.0 ], [ 113.31353088100002, -7.156728, 0.0 ], [ 113.313256920000072, -7.156775969999956, 0.0 ], [ 113.312549160000117, -7.157052990999944, 0.0 ], [ 113.312013838000098, -7.157411998999976, 0.0 ] ] ] ] } }
]
}
