{
"type": "FeatureCollection",
"name": "Kec_Jrengik",
"crs": { "type": "name", "properties": { "name": "urn:ogc:def:crs:OGC:1.3:CRS84" } },
"features": [
{ "type": "Feature", "properties": { "OBJECTID": 9199.0, "NAMOBJ": "Asemnonggal", "FCODE": "BA03070040", "METADATA": "TASWIL1000020221227_DATA_BATAS_DESAKELURAHAN", "SRS_ID": "SRGI 2013", "KDCPUM": "35.27.07", "KDEPUM": "35.27.07.2003", "KDPKAB": "35.27", "KDPPUM": "35", "LUASWH": 0.0, "TIPADM": 1.0, "WADMKC": "Jrengik", "WADMKD": "Asemnonggal", "WADMKK": "Sampang", "WADMPR": "Jawa Timur", "UUPP": "Hasil Delineasi Batas Desa 2019", "LUAS": 10.15732361 }, "geometry": { "type": "MultiPolygon", "coordinates": [ [ [ [ 113.140897920000043, -7.156239030999927, 0.0 ], [ 113.140626120000093, -7.156458, 0.0 ], [ 113.140244160000066, -7.156568969999967, 0.0 ], [ 113.139641880000113, -7.156463039999949, 0.0 ], [ 113.138603998, -7.156413, 0.0 ], [ 113.137731, -7.156635029999961, 0.0 ], [ 113.137350840000067, -7.156963978999954, 0.0 ], [ 113.137079041000106, -7.157347019999975, 0.0 ], [ 113.137027920000037, -7.15800096199996, 0.0 ], [ 113.137139158000082, -7.158491008999931, 0.0 ], [ 113.137525080000046, -7.159197959999972, 0.0 ], [ 113.137526880000109, -7.159689, 0.0 ], [ 113.137202880000018, -7.160562991999939, 0.0 ], [ 113.13660708000009, -7.161491970999975, 0.0 ], [ 113.135682960000054, -7.162423021999928, 0.0 ], [ 113.134649040000113, -7.163354969999943, 0.0 ], [ 113.133997080000086, -7.164120960999981, 0.0 ], [ 113.133018959000083, -7.165161990999934, 0.0 ], [ 113.132531160000099, -7.165926989999946, 0.0 ], [ 113.132207159000018, -7.166691989999947, 0.0 ], [ 113.132099880000055, -7.167183031999969, 0.0 ], [ 113.132102039000074, -7.167673979999961, 0.0 ], [ 113.132267999000078, -7.168053958999963, 0.0 ], [ 113.132793960000072, -7.168663978999973, 0.0 ], [ 113.132589119000045, -7.168829039999935, 0.0 ], [ 113.13256716, -7.16890202999997, 0.0 ], [ 113.132207159000018, -7.169100029999981, 0.0 ], [ 113.131989, -7.16930495899993, 0.0 ], [ 113.131941841000071, -7.169360038999969, 0.0 ], [ 113.131483920000051, -7.169586029999948, 0.0 ], [ 113.131104118000053, -7.16962400999995, 0.0 ], [ 113.130744120000031, -7.169517989999974, 0.0 ], [ 113.130069841000022, -7.169237008999971, 0.0 ], [ 113.129191081000045, -7.16908301899997, 0.0 ], [ 113.128549921000058, -7.168752991999952, 0.0 ], [ 113.128283880000026, -7.168481009999937, 0.0 ], [ 113.128107840000098, -7.168383989999938, 0.0 ], [ 113.127737041000046, -7.168382009999959, 0.0 ], [ 113.127198839000016, -7.168436008999947, 0.0 ], [ 113.126740920000088, -7.168365989999927, 0.0 ], [ 113.125897081000062, -7.168129018999934, 0.0 ], [ 113.125389841000015, -7.167818969999928, 0.0 ], [ 113.124998880000021, -7.16763599899997, 0.0 ], [ 113.124998880000021, -7.167635908999955, 0.0 ], [ 113.124633120000112, -7.16747202199997, 0.0 ], [ 113.124341160000085, -7.16731200199996, 0.0 ], [ 113.124146040000028, -7.16715198199995, 0.0 ], [ 113.123984040000096, -7.166959018999933, 0.0 ], [ 113.123918158000038, -7.166735009999968, 0.0 ], [ 113.124013920000039, -7.166475989999981, 0.0 ], [ 113.124108960000058, -7.166121028999953, 0.0 ], [ 113.124139921000051, -7.165734029999953, 0.0 ], [ 113.124072961000024, -7.165217971999937, 0.0 ], [ 113.124007080000069, -7.164864, 0.0 ], [ 113.12387387900003, -7.164123029999928, 0.0 ], [ 113.123742120000088, -7.163607958999933, 0.0 ], [ 113.123481840000068, -7.163286029999938, 0.0 ], [ 113.123189879000051, -7.16302997899993, 0.0 ], [ 113.12286696000001, -7.162902000999964, 0.0 ], [ 113.122348921000025, -7.162742971999933, 0.0 ], [ 113.121830881000051, -7.162649009999939, 0.0 ], [ 113.121379080000111, -7.162586998999927, 0.0 ], [ 113.120894158000056, -7.162491959999954, 0.0 ], [ 113.120440920000078, -7.162397010999939, 0.0 ], [ 113.119988040000067, -7.162302958999931, 0.0 ], [ 113.119697160000101, -7.162304038999935, 0.0 ], [ 113.119342921000111, -7.162467029999959, 0.0 ], [ 113.119021080000039, -7.16275898899994, 0.0 ], [ 113.118764040000087, -7.163049960999956, 0.0 ], [ 113.118507001000012, -7.163503019999951, 0.0 ], [ 113.118185881000045, -7.163793989999931, 0.0 ], [ 113.1178949990001, -7.163859959999968, 0.0 ], [ 113.117668921000018, -7.163861038999926, 0.0 ], [ 113.117538961000037, -7.163732970999945, 0.0 ], [ 113.117474160000029, -7.163507969999955, 0.0 ], [ 113.117474160000029, -7.163506979999966, 0.0 ], [ 113.117536080000036, -7.16311898999993, 0.0 ], [ 113.11766316100011, -7.162538038999969, 0.0 ], [ 113.117789879000043, -7.162021981999942, 0.0 ], [ 113.117949, -7.161441028999946, 0.0 ], [ 113.118075001000079, -7.160923978999961, 0.0 ], [ 113.118171120000056, -7.160600969999962, 0.0 ], [ 113.118234119000022, -7.160246008999934, 0.0 ], [ 113.118329880000033, -7.159987978999936, 0.0 ], [ 113.118360840000037, -7.159731030999978, 0.0 ], [ 113.118327, -7.15947300199997, 0.0 ], [ 113.118197039000052, -7.159311990999981, 0.0 ], [ 113.117970961000083, -7.159184009999933, 0.0 ], [ 113.117420880000054, -7.15908996099995, 0.0 ], [ 113.117001120000054, -7.159059991999925, 0.0 ], [ 113.116353838, -7.159030019999932, 0.0 ], [ 113.11599888100011, -7.159096981999937, 0.0 ], [ 113.115579841000113, -7.159356001999981, 0.0 ], [ 113.115258, -7.159583969999971, 0.0 ], [ 113.114774880000027, -7.159941001999925, 0.0 ], [ 113.114292120000073, -7.160329979999972, 0.0 ], [ 113.114003039000067, -7.160621039999967, 0.0 ], [ 113.113648081000065, -7.160784030999935, 0.0 ], [ 113.113067039000043, -7.160850989999972, 0.0 ], [ 113.112646920000088, -7.160852969999951, 0.0 ], [ 113.112161999000023, -7.160759010999925, 0.0 ], [ 113.111709121000104, -7.160599981999951, 0.0 ], [ 113.111448841000083, -7.160374978999926, 0.0 ], [ 113.111156878000088, -7.160150969999961, 0.0 ], [ 113.110898040000052, -7.159829039999977, 0.0 ], [ 113.110701840000047, -7.159572, 0.0 ], [ 113.110410960000081, -7.159411979999959, 0.0 ], [ 113.10999012100001, -7.159284989999946, 0.0 ], [ 113.109536880000064, -7.159061969999925, 0.0 ], [ 113.109342119000075, -7.158900959999926, 0.0 ], [ 113.10924384100008, -7.158644009999932, 0.0 ], [ 113.109177960000011, -7.158354029999941, 0.0 ], [ 113.10914412000011, -7.157998978999956, 0.0 ], [ 113.10914412000011, -7.157997988999966, 0.0 ], [ 113.10914412000011, -7.157837968999957, 0.0 ], [ 113.109045840000022, -7.157612971999981, 0.0 ], [ 113.108883120000087, -7.157356019999952, 0.0 ], [ 113.108720039000104, -7.157131018999962, 0.0 ], [ 113.108622120000064, -7.156841038999971, 0.0 ], [ 113.108622120000064, -7.156839959999957, 0.0 ], [ 113.108653080000067, -7.156613969999967, 0.0 ], [ 113.10874883800011, -7.156387979999977, 0.0 ], [ 113.108844960000056, -7.156064968999942, 0.0 ], [ 113.10887592000006, -7.155775978999941, 0.0 ], [ 113.108842080000045, -7.15548599899995, 0.0 ], [ 113.108744160000015, -7.155227968999952, 0.0 ], [ 113.1086138390001, -7.155002969999941, 0.0 ], [ 113.10845112100003, -7.154810009999949, 0.0 ], [ 113.108159160000014, -7.15448897899995, 0.0 ], [ 113.107899959000065, -7.154297009999937, 0.0 ], [ 113.107608, -7.154072011999972, 0.0 ], [ 113.107316040000114, -7.153815959999974, 0.0 ], [ 113.10708815800001, -7.153559008999935, 0.0 ], [ 113.106665880000037, -7.153109008999934, 0.0 ], [ 113.10627708100003, -7.15272398999997, 0.0 ], [ 113.105919960000051, -7.15233896899997, 0.0 ], [ 113.105531160000055, -7.152179038999975, 0.0 ], [ 113.105045880000034, -7.152181020999933, 0.0 ], [ 113.104658880000102, -7.152311969999971, 0.0 ], [ 113.104433881000091, -7.15247396999996, 0.0 ], [ 113.104209960000048, -7.152894990999926, 0.0 ], [ 113.10401808000006, -7.153346969999973, 0.0 ], [ 113.103794159000017, -7.153800029999957, 0.0 ], [ 113.103537121000045, -7.154219971999964, 0.0 ], [ 113.103312120000055, -7.15444703999998, 0.0 ], [ 113.102989920000027, -7.154609039999968, 0.0 ], [ 113.102570161000017, -7.154773019999936, 0.0 ], [ 113.102053920000117, -7.154903969999964, 0.0 ], [ 113.101676359000066, -7.154981222999936, 0.0 ], [ 113.101570078, -7.155002969999941, 0.0 ], [ 113.101085880000028, -7.155134009999927, 0.0 ], [ 113.100536881000039, -7.15529799199993, 0.0 ], [ 113.100095880000026, -7.155431008999926, 0.0 ], [ 113.099550841000109, -7.155705959999977, 0.0 ], [ 113.099146920000067, -7.155980009999951, 0.0 ], [ 113.09875812100006, -7.156269990999931, 0.0 ], [ 113.098439160000112, -7.156504979999966, 0.0 ], [ 113.098065840000118, -7.156701000999931, 0.0 ], [ 113.097660026000085, -7.15677119399993, 0.0 ], [ 113.097676037000042, -7.156628798999975, 0.0 ], [ 113.097630532000039, -7.156420857999933, 0.0 ], [ 113.097485743000107, -7.156158868999967, 0.0 ], [ 113.097450983000044, -7.155917980999959, 0.0 ], [ 113.097413102000019, -7.155271472999971, 0.0 ], [ 113.097453313000074, -7.154777896999974, 0.0 ], [ 113.097440196000093, -7.154504010999972, 0.0 ], [ 113.097203228000012, -7.153815116999965, 0.0 ], [ 113.096823614000073, -7.15343127899996, 0.0 ], [ 113.09604326300007, -7.152728227999944, 0.0 ], [ 113.095079727000098, -7.151983529999939, 0.0 ], [ 113.094225213000072, -7.151431387999935, 0.0 ], [ 113.093652161000023, -7.151081232999957, 0.0 ], [ 113.093544309000094, -7.150969299999929, 0.0 ], [ 113.093456898000113, -7.150878580999972, 0.0 ], [ 113.093174379000061, -7.150526290999949, 0.0 ], [ 113.093141310000078, -7.150213448999978, 0.0 ], [ 113.09318002200007, -7.149749976999942, 0.0 ], [ 113.093189767000013, -7.149644636999938, 0.0 ], [ 113.093326131000026, -7.149548935999974, 0.0 ], [ 113.093832291000012, -7.149534524999979, 0.0 ], [ 113.094220646000053, -7.149531629999956, 0.0 ], [ 113.094422904000112, -7.149530122999977, 0.0 ], [ 113.094938515000081, -7.149378828999943, 0.0 ], [ 113.095400489000099, -7.149101696999935, 0.0 ], [ 113.09578826500001, -7.14877248099998, 0.0 ], [ 113.095912862000091, -7.148518935999959, 0.0 ], [ 113.095963434000055, -7.148234364999951, 0.0 ], [ 113.095875355000089, -7.147740286999976, 0.0 ], [ 113.095617465000032, -7.14678196899996, 0.0 ], [ 113.095547213000032, -7.14653102699998, 0.0 ], [ 113.095454565000068, -7.14613105799998, 0.0 ], [ 113.095434666000074, -7.14576040299994, 0.0 ], [ 113.095427700000073, -7.145410927999933, 0.0 ], [ 113.095443821000117, -7.145214636999981, 0.0 ], [ 113.09547108400011, -7.145023084999934, 0.0 ], [ 113.095442450000064, -7.144717182999955, 0.0 ], [ 113.095334619000027, -7.144457372999966, 0.0 ], [ 113.095185533000063, -7.144266440999957, 0.0 ], [ 113.094965144000071, -7.144052334999969, 0.0 ], [ 113.094792304000066, -7.14376933099993, 0.0 ], [ 113.094771601000048, -7.143735431999971, 0.0 ], [ 113.094747742000095, -7.143560018999949, 0.0 ], [ 113.094784197000081, -7.143010513999968, 0.0 ], [ 113.094786937000094, -7.142776411999932, 0.0 ], [ 113.094741195000097, -7.142695727999978, 0.0 ], [ 113.094677486000023, -7.142619644999968, 0.0 ], [ 113.094471740000017, -7.142261040999927, 0.0 ], [ 113.094301769000026, -7.141892060999965, 0.0 ], [ 113.094300538000084, -7.141877317999956, 0.0 ], [ 113.094291271000088, -7.141766296999947, 0.0 ], [ 113.094290190000038, -7.141627294999978, 0.0 ], [ 113.094291840000096, -7.141530578999948, 0.0 ], [ 113.094258352000111, -7.141469632999929, 0.0 ], [ 113.094234138000047, -7.141396714999928, 0.0 ], [ 113.094340026000054, -7.141279099999963, 0.0 ], [ 113.094503714000098, -7.141087740999978, 0.0 ], [ 113.094589291000034, -7.140656140999965, 0.0 ], [ 113.094587449000073, -7.140614926999945, 0.0 ], [ 113.094574001000069, -7.140314024999952, 0.0 ], [ 113.09471028400003, -7.139856707999968, 0.0 ], [ 113.094709012000067, -7.13969194799995, 0.0 ], [ 113.094555483000022, -7.13954098399995, 0.0 ], [ 113.094058340000061, -7.139303909999967, 0.0 ], [ 113.093879306000076, -7.13914049899995, 0.0 ], [ 113.093712958000083, -7.138976939999964, 0.0 ], [ 113.093388184000105, -7.137836006999976, 0.0 ], [ 113.093242515000043, -7.137324272999933, 0.0 ], [ 113.093237495000039, -7.136663423999948, 0.0 ], [ 113.093720153000049, -7.135964209999941, 0.0 ], [ 113.093645432000017, -7.135303948999933, 0.0 ], [ 113.093744658000105, -7.13460755899996, 0.0 ], [ 113.093454982000026, -7.133869035999965, 0.0 ], [ 113.093155728000056, -7.13310609499996, 0.0 ], [ 113.093082541000058, -7.132717151999941, 0.0 ], [ 113.093979472000115, -7.132135274999939, 0.0 ], [ 113.094696919000057, -7.13127456899997, 0.0 ], [ 113.09541325400005, -7.130251633999933, 0.0 ], [ 113.095668313000033, -7.129925338999954, 0.0 ], [ 113.096027824000089, -7.129465416999949, 0.0 ], [ 113.097033829000111, -7.128107837999949, 0.0 ], [ 113.097376717000088, -7.127658982999947, 0.0 ], [ 113.09784921500011, -7.127189836999946, 0.0 ], [ 113.098078949000069, -7.127048972999944, 0.0 ], [ 113.098261404000027, -7.127013980999948, 0.0 ], [ 113.098482711000088, -7.127021923999962, 0.0 ], [ 113.098651336000103, -7.127063816999964, 0.0 ], [ 113.098810129000071, -7.127077014999941, 0.0 ], [ 113.098896510000031, -7.127052399999968, 0.0 ], [ 113.098950014000025, -7.127002480999977, 0.0 ], [ 113.099015855000061, -7.126941049999971, 0.0 ], [ 113.099116066000079, -7.126839548999953, 0.0 ], [ 113.099240240000086, -7.12672338699997, 0.0 ], [ 113.099307507000049, -7.126713319999965, 0.0 ], [ 113.099504409000019, -7.126687841999967, 0.0 ], [ 113.099580773000071, -7.126610489999962, 0.0 ], [ 113.099667360000012, -7.126614615999927, 0.0 ], [ 113.099768792000077, -7.126666665999949, 0.0 ], [ 113.099874330000034, -7.126637083999981, 0.0 ], [ 113.099945800000114, -7.126550083999973, 0.0 ], [ 113.099978860000078, -7.126468318999969, 0.0 ], [ 113.100108708000107, -7.126467276999961, 0.0 ], [ 113.100224673000071, -7.126548002999925, 0.0 ], [ 113.100292331000105, -7.126590716999942, 0.0 ], [ 113.100412941000059, -7.12664258999996, 0.0 ], [ 113.100634594000098, -7.126693731999978, 0.0 ], [ 113.100754696000081, -7.126683244999981, 0.0 ], [ 113.10084112100003, -7.126668119999977, 0.0 ], [ 113.100879812000016, -7.126691894999965, 0.0 ], [ 113.100902855000072, -7.126727453999933, 0.0 ], [ 113.100913857000023, -7.126744432999942, 0.0 ], [ 113.100912524000023, -7.126812223999934, 0.0 ], [ 113.100885485000049, -7.12698714499993, 0.0 ], [ 113.100848283, -7.127077153999949, 0.0 ], [ 113.100787178000019, -7.127129580999963, 0.0 ], [ 113.100745457000016, -7.127243199999953, 0.0 ], [ 113.100662218000025, -7.127498814999967, 0.0 ], [ 113.100686217000089, -7.127541185999974, 0.0 ], [ 113.100714756000116, -7.127564554999935, 0.0 ], [ 113.100904735000086, -7.127657597999928, 0.0 ], [ 113.101426745000026, -7.12785198399996, 0.0 ], [ 113.10158806600009, -7.127912167999966, 0.0 ], [ 113.101873012000055, -7.128046984999969, 0.0 ], [ 113.102090940000039, -7.128083140999934, 0.0 ], [ 113.102403879, -7.128170471999965, 0.0 ], [ 113.102551247000065, -7.128263797999978, 0.0 ], [ 113.102664687000015, -7.128248819999953, 0.0 ], [ 113.102888024000094, -7.12837460999998, 0.0 ], [ 113.103020579000031, -7.128378343999941, 0.0 ], [ 113.103144065000038, -7.128438789999962, 0.0 ], [ 113.103224694, -7.128461830999981, 0.0 ], [ 113.103290478000076, -7.128404591999981, 0.0 ], [ 113.103406710000058, -7.128134544999966, 0.0 ], [ 113.103470541000092, -7.127812949999964, 0.0 ], [ 113.103498287000093, -7.127727774999926, 0.0 ], [ 113.10364417400001, -7.127627509999968, 0.0 ], [ 113.103724008000086, -7.12754182599997, 0.0 ], [ 113.103814046000025, -7.127337244999978, 0.0 ], [ 113.103854814000101, -7.127194889999942, 0.0 ], [ 113.103923795000014, -7.126906168999938, 0.0 ], [ 113.104043397000055, -7.126671356999964, 0.0 ], [ 113.104179505000047, -7.126407184999948, 0.0 ], [ 113.104224491000082, -7.126273215999959, 0.0 ], [ 113.104324160000033, -7.126168010999947, 0.0 ], [ 113.104373458000055, -7.126046493999979, 0.0 ], [ 113.104463579000026, -7.125795275999963, 0.0 ], [ 113.104542601000048, -7.125727853999933, 0.0 ], [ 113.104608877000032, -7.12563120599998, 0.0 ], [ 113.104716705000101, -7.125449770999978, 0.0 ], [ 113.10477258100002, -7.125429, 0.0 ], [ 113.104889411000045, -7.125372160999973, 0.0 ], [ 113.10496015700005, -7.125290223999968, 0.0 ], [ 113.105005334000111, -7.125198281999928, 0.0 ], [ 113.105111750000106, -7.125116091999928, 0.0 ], [ 113.105223645000024, -7.125089823999929, 0.0 ], [ 113.10525390600003, -7.12504892499993, 0.0 ], [ 113.105284098000084, -7.124992750999979, 0.0 ], [ 113.105328964000023, -7.124865198999942, 0.0 ], [ 113.105450701000109, -7.124788001999946, 0.0 ], [ 113.105623453000021, -7.124720603999947, 0.0 ], [ 113.105765898000072, -7.12468389299994, 0.0 ], [ 113.105902598000057, -7.124565864999965, 0.0 ], [ 113.105957854000053, -7.124458601999947, 0.0 ], [ 113.106141402000048, -7.124467436999964, 0.0 ], [ 113.106233190000012, -7.124466746999929, 0.0 ], [ 113.106263260000105, -7.124400360999971, 0.0 ], [ 113.106242050000105, -7.124298778999957, 0.0 ], [ 113.10626184900002, -7.12422231599993, 0.0 ], [ 113.106352898000068, -7.124125012999968, 0.0 ], [ 113.106382373000088, -7.123977285999956, 0.0 ], [ 113.106391163000012, -7.123794133999979, 0.0 ], [ 113.106431289000056, -7.123707275999948, 0.0 ], [ 113.106461023000065, -7.123600309999972, 0.0 ], [ 113.106439553000087, -7.123457966999979, 0.0 ], [ 113.106525666000039, -7.123391234999929, 0.0 ], [ 113.106588790000046, -7.123258177999958, 0.0 ], [ 113.106755534000058, -7.123215208999966, 0.0 ], [ 113.106906604000073, -7.122943197999973, 0.0 ], [ 113.107022018000066, -7.122560178999947, 0.0 ], [ 113.107012712000028, -7.122254551999958, 0.0 ], [ 113.106983902000025, -7.122122816999934, 0.0 ], [ 113.107031517000109, -7.121976544999939, 0.0 ], [ 113.10703, -7.12177509199995, 0.0 ], [ 113.106938537000019, -7.121650692999935, 0.0 ], [ 113.106785038000112, -7.121603217999962, 0.0 ], [ 113.106715181000027, -7.121569010999963, 0.0 ], [ 113.10670712600006, -7.121423172999926, 0.0 ], [ 113.106706416000065, -7.121332884999958, 0.0 ], [ 113.106852868000033, -7.121373431999928, 0.0 ], [ 113.106904557, -7.121285617999945, 0.0 ], [ 113.106903786000089, -7.121182224999927, 0.0 ], [ 113.106838839000034, -7.121079304999967, 0.0 ], [ 113.106724401000065, -7.12095699899993, 0.0 ], [ 113.106561011000053, -7.120884352999951, 0.0 ], [ 113.10624438900004, -7.120773541999938, 0.0 ], [ 113.106243570000061, -7.120773103999966, 0.0 ], [ 113.106135392000056, -7.12071519999995, 0.0 ], [ 113.106090475000087, -7.120651504999955, 0.0 ], [ 113.106094958000085, -7.120587494999938, 0.0 ], [ 113.10618343200008, -7.120547414999976, 0.0 ], [ 113.106163214000048, -7.120483516999968, 0.0 ], [ 113.106048523000027, -7.12032189599995, 0.0 ], [ 113.106077864000099, -7.120292116999963, 0.0 ], [ 113.106126914000015, -7.120247425999935, 0.0 ], [ 113.106126607000078, -7.120212901999935, 0.0 ], [ 113.106106577000105, -7.120173676999968, 0.0 ], [ 113.106072513000072, -7.120153632999973, 0.0 ], [ 113.106057042000089, -7.120144528999958, 0.0 ], [ 113.10600252800009, -7.120120283999938, 0.0 ], [ 113.105943046000107, -7.120086299999969, 0.0 ], [ 113.10595752200004, -7.12003688599998, 0.0 ], [ 113.106010981000054, -7.119928184999935, 0.0 ], [ 113.106089065000106, -7.119819191999966, 0.0 ], [ 113.106049006000035, -7.119740741999976, 0.0 ], [ 113.106062921000103, -7.119617489999939, 0.0 ], [ 113.106077367000012, -7.11957801799997, 0.0 ], [ 113.106106618000013, -7.119528535999962, 0.0 ], [ 113.106224882000106, -7.119507933999955, 0.0 ], [ 113.106288541000026, -7.119443381999929, 0.0 ], [ 113.106337030000077, -7.119324852999966, 0.0 ], [ 113.106385256000067, -7.119181649999973, 0.0 ], [ 113.106379912000079, -7.119122564999941, 0.0 ], [ 113.106384299000069, -7.119053584999961, 0.0 ], [ 113.106393940000089, -7.119023986999935, 0.0 ], [ 113.106398423000087, -7.118959884999981, 0.0 ], [ 113.106348110000113, -7.118842076999954, 0.0 ], [ 113.106287476000034, -7.118686535999927, 0.0 ], [ 113.10624429500001, -7.118545465999944, 0.0 ], [ 113.10621264200006, -7.118411936999962, 0.0 ], [ 113.106189086000086, -7.118335671999944, 0.0 ], [ 113.106043749000037, -7.118359651999981, 0.0 ], [ 113.105924739000102, -7.118314731999931, 0.0 ], [ 113.105862578000028, -7.118200501999979, 0.0 ], [ 113.105804204000037, -7.118082458999936, 0.0 ], [ 113.105769444000089, -7.118036883999935, 0.0 ], [ 113.105638868000028, -7.117992016999949, 0.0 ], [ 113.10557307900001, -7.117900759999941, 0.0 ], [ 113.105529721000039, -7.117736733999948, 0.0 ], [ 113.105532722000021, -7.117625912999927, 0.0 ], [ 113.105562207000048, -7.117480445999945, 0.0 ], [ 113.105549698, -7.117339146999939, 0.0 ], [ 113.105587621000041, -7.117292969999937, 0.0 ], [ 113.105656625000051, -7.117303953999965, 0.0 ], [ 113.105707151000047, -7.117402962999961, 0.0 ], [ 113.105730065000103, -7.117387493999956, 0.0 ], [ 113.105748452000057, -7.11729558199994, 0.0 ], [ 113.105766208000091, -7.117081839999969, 0.0 ], [ 113.105722989000014, -7.116964903999929, 0.0 ], [ 113.105642341000021, -7.116871635999928, 0.0 ], [ 113.105599260000076, -7.116768705999959, 0.0 ], [ 113.105598063000116, -7.11660448899994, 0.0 ], [ 113.105653453000059, -7.116477432999943, 0.0 ], [ 113.105629114000067, -7.116360318999966, 0.0 ], [ 113.105577015000108, -7.11630903899993, 0.0 ], [ 113.105567111000028, -7.116248165999934, 0.0 ], [ 113.105599859000108, -7.116229127999929, 0.0 ], [ 113.105642171000113, -7.116228845999956, 0.0 ], [ 113.105689663000021, -7.11628475599997, 0.0 ], [ 113.105755770000087, -7.116331181999954, 0.0 ], [ 113.105845094000074, -7.116330504999951, 0.0 ], [ 113.105915729000117, -7.116339401999937, 0.0 ], [ 113.105986632000054, -7.116390415999945, 0.0 ], [ 113.106001484000103, -7.116488863999962, 0.0 ], [ 113.106048657000088, -7.116507267999964, 0.0 ], [ 113.106081085000028, -7.116450721999968, 0.0 ], [ 113.106127756000092, -7.116408120999949, 0.0 ], [ 113.106174864000081, -7.116412515999968, 0.0 ], [ 113.106282993000036, -7.116411662999951, 0.0 ], [ 113.106277929000044, -7.116364776999944, 0.0 ], [ 113.106263525000031, -7.116332034999971, 0.0 ], [ 113.106248856000093, -7.116257085999962, 0.0 ], [ 113.106295708000061, -7.116237981999973, 0.0 ], [ 113.106347155000094, -7.11619535899996, 0.0 ], [ 113.106422032000069, -7.116152539999973, 0.0 ], [ 113.106492893000109, -7.116194244999974, 0.0 ], [ 113.106498022000096, -7.116255227999943, 0.0 ], [ 113.10655496000004, -7.116320494999968, 0.0 ], [ 113.106630746000064, -7.116394985999932, 0.0 ], [ 113.10671125600004, -7.116474154999935, 0.0 ], [ 113.106754518000116, -7.116600491999975, 0.0 ], [ 113.106797193000034, -7.116647113999932, 0.0 ], [ 113.106811274000052, -7.116642259999935, 0.0 ], [ 113.106881676000057, -7.116632359999926, 0.0 ], [ 113.106895234000035, -7.116561890999947, 0.0 ], [ 113.106965144000014, -7.11647688499994, 0.0 ], [ 113.107054468000115, -7.116476206999948, 0.0 ], [ 113.107120061000046, -7.11644291999994, 0.0 ], [ 113.107166710000115, -7.116395618999945, 0.0 ], [ 113.107212856000046, -7.11628731299993, 0.0 ], [ 113.107188805000078, -7.116217105999965, 0.0 ], [ 113.107240252000111, -7.116174482999952, 0.0 ], [ 113.107258554000055, -7.116113391999932, 0.0 ], [ 113.10723414000006, -7.115996278999944, 0.0 ], [ 113.107280382000113, -7.115892672999962, 0.0 ], [ 113.107331551000016, -7.115821942999958, 0.0 ], [ 113.107439637000084, -7.11581168999993, 0.0 ], [ 113.107564725000088, -7.115802921999943, 0.0 ], [ 113.107589958000062, -7.11580115299995, 0.0 ], [ 113.107624773000111, -7.115744144999951, 0.0 ], [ 113.107597620000092, -7.115681182999936, 0.0 ], [ 113.107603085000051, -7.115521453999975, 0.0 ], [ 113.107629303000067, -7.115461411999945, 0.0 ], [ 113.107665928000074, -7.115457810999942, 0.0 ], [ 113.10772931200006, -7.115463939999927, 0.0 ], [ 113.107745788000102, -7.115443889999938, 0.0 ], [ 113.107732203000069, -7.115410691999955, 0.0 ], [ 113.107671935000099, -7.115367944999946, 0.0 ], [ 113.107624406000014, -7.115255184999967, 0.0 ], [ 113.107566306000081, -7.115066009999964, 0.0 ], [ 113.107573908000063, -7.114753257999951, 0.0 ], [ 113.107553171000063, -7.114657005999959, 0.0 ], [ 113.107464840000034, -7.114449892999971, 0.0 ], [ 113.10746434400005, -7.11439033399995, 0.0 ], [ 113.107495949000054, -7.11431689099993, 0.0 ], [ 113.107449097000085, -7.114188943999977, 0.0 ], [ 113.107475758000078, -7.114078828999936, 0.0 ], [ 113.107544540000049, -7.114073725999958, 0.0 ], [ 113.107544182000083, -7.114027993999969, 0.0 ], [ 113.107520756000099, -7.113964020999958, 0.0 ], [ 113.107534023000085, -7.113895179999929, 0.0 ], [ 113.107561401000112, -7.113876707999964, 0.0 ], [ 113.107643987000074, -7.113871450999966, 0.0 ], [ 113.107731009000076, -7.113857046999954, 0.0 ], [ 113.107772150000073, -7.113829292999981, 0.0 ], [ 113.107771834, -7.113792689999968, 0.0 ], [ 113.107721168000012, -7.113761015999955, 0.0 ], [ 113.107629045000067, -7.11372049299996, 0.0 ], [ 113.10761499900002, -7.113683952999963, 0.0 ], [ 113.10761461900006, -7.11363352199993, 0.0 ], [ 113.107596062000084, -7.113606220999941, 0.0 ], [ 113.107600172000048, -7.113542031999941, 0.0 ], [ 113.107627329000024, -7.113491474999933, 0.0 ], [ 113.10770084100011, -7.113509216999944, 0.0 ], [ 113.107801584000072, -7.113476400999957, 0.0 ], [ 113.107888585000069, -7.11345747699994, 0.0 ], [ 113.107869828000048, -7.11340261099997, 0.0 ], [ 113.107869386000061, -7.113338532999933, 0.0 ], [ 113.10785971100006, -7.113279015999979, 0.0 ], [ 113.10782279700004, -7.113251888999969, 0.0 ], [ 113.107684741000071, -7.11320253699995, 0.0 ], [ 113.107560288000059, -7.113125555999943, 0.0 ], [ 113.107468428000061, -7.112930118999941, 0.0 ], [ 113.107407367000064, -7.112680763999947, 0.0 ], [ 113.107401149000111, -7.112462702999949, 0.0 ], [ 113.107363917000043, -7.112349442999971, 0.0 ], [ 113.107281268000065, -7.11225916799998, 0.0 ], [ 113.107139519000043, -7.112169340999969, 0.0 ], [ 113.10702097, -7.112143036999953, 0.0 ], [ 113.106907308000018, -7.112157472999968, 0.0 ], [ 113.106766636000089, -7.112222193999969, 0.0 ], [ 113.106675775000099, -7.112245562999931, 0.0 ], [ 113.106575371000076, -7.112205439999968, 0.0 ], [ 113.106497275000038, -7.112115141999936, 0.0 ], [ 113.106389542000102, -7.111989639999933, 0.0 ], [ 113.106259129000023, -7.111816701999942, 0.0 ], [ 113.106231847000117, -7.111626844999932, 0.0 ], [ 113.106243605000031, -7.111472148999951, 0.0 ], [ 113.10626172100001, -7.111304590999964, 0.0 ], [ 113.10623517700003, -7.111211347999927, 0.0 ], [ 113.106166475, -7.111086300999943, 0.0 ], [ 113.106010870000091, -7.110919893999949, 0.0 ], [ 113.106005353000114, -7.11077359199993, 0.0 ], [ 113.106057634000081, -7.110635794999951, 0.0 ], [ 113.106021276000092, -7.110534099999938, 0.0 ], [ 113.106011278000096, -7.110509682999975, 0.0 ], [ 113.105957886000056, -7.110379293999927, 0.0 ], [ 113.105836638000028, -7.110202878999928, 0.0 ], [ 113.105742543000019, -7.11010605599995, 0.0 ], [ 113.105617324000036, -7.109991660999981, 0.0 ], [ 113.105621099000018, -7.109902979999958, 0.0 ], [ 113.10566872600009, -7.109742968999967, 0.0 ], [ 113.105784613000083, -7.109790886999974, 0.0 ], [ 113.105832748000012, -7.109692965999955, 0.0 ], [ 113.105796504000068, -7.109600127999954, 0.0 ], [ 113.10578220900004, -7.109476099999938, 0.0 ], [ 113.105844268000055, -7.109453402999975, 0.0 ], [ 113.105924302000062, -7.109461715999942, 0.0 ], [ 113.106142387000091, -7.109517663999952, 0.0 ], [ 113.106426467, -7.109661885999969, 0.0 ], [ 113.106442437000055, -7.109612827999968, 0.0 ], [ 113.106430773000056, -7.109509484999933, 0.0 ], [ 113.106457239000065, -7.109405786999957, 0.0 ], [ 113.106527608000079, -7.109339940999973, 0.0 ], [ 113.106609320000075, -7.109323029999928, 0.0 ], [ 113.106794929000102, -7.109343424999963, 0.0 ], [ 113.106877240000017, -7.109333644999936, 0.0 ], [ 113.106893007000053, -7.109331770999972, 0.0 ], [ 113.1069305420001, -7.10924980599998, 0.0 ], [ 113.107048026000029, -7.108911426999953, 0.0 ], [ 113.107111109000016, -7.108606103999932, 0.0 ], [ 113.107121582000104, -7.108546132999948, 0.0 ], [ 113.107202796000024, -7.108469300999957, 0.0 ], [ 113.107354826, -7.10837560799996, 0.0 ], [ 113.107408828000075, -7.108304412999928, 0.0 ], [ 113.107613369000092, -7.10794358499993, 0.0 ], [ 113.107686709000063, -7.10784440499998, 0.0 ], [ 113.107840098000111, -7.107636974999934, 0.0 ], [ 113.108164848000115, -7.107815124999945, 0.0 ], [ 113.108437166000044, -7.107964511999967, 0.0 ], [ 113.108486938000055, -7.108062167999947, 0.0 ], [ 113.108444179000116, -7.108176784999955, 0.0 ], [ 113.108353933000103, -7.108498679999968, 0.0 ], [ 113.108344231000046, -7.108662043999971, 0.0 ], [ 113.108323436000092, -7.108798341999943, 0.0 ], [ 113.108313610000096, -7.108934499999975, 0.0 ], [ 113.108271298000091, -7.109114460999933, 0.0 ], [ 113.108227966000072, -7.109152888999972, 0.0 ], [ 113.108151778000092, -7.109169776999977, 0.0 ], [ 113.108125012000073, -7.109240756999952, 0.0 ], [ 113.108011711000017, -7.109399529999962, 0.0 ], [ 113.107891769000048, -7.10941128199994, 0.0 ], [ 113.107837369000094, -7.109428069999979, 0.0 ], [ 113.10783759200001, -7.109460695999928, 0.0 ], [ 113.107854407000104, -7.109515028999965, 0.0 ], [ 113.107898150000096, -7.109697761999939, 0.0 ], [ 113.107893292000085, -7.10986001699996, 0.0 ], [ 113.107995913000082, -7.109895250999955, 0.0 ], [ 113.108225707000088, -7.110031674999959, 0.0 ], [ 113.108214327000042, -7.110121926999966, 0.0 ], [ 113.108191146000081, -7.110242239999934, 0.0 ], [ 113.108137707000083, -7.110338737999939, 0.0 ], [ 113.108042053000077, -7.110423589999925, 0.0 ], [ 113.107904025000039, -7.110478717999968, 0.0 ], [ 113.107826456000112, -7.110569361999978, 0.0 ], [ 113.107767047000038, -7.110665977999929, 0.0 ], [ 113.107690215000048, -7.110852783999974, 0.0 ], [ 113.107667614000093, -7.111051182999972, 0.0 ], [ 113.107728468, -7.111140834999958, 0.0 ], [ 113.107801467000058, -7.111242452999932, 0.0 ], [ 113.107863160000079, -7.111434231999965, 0.0 ], [ 113.1079301420001, -7.111541841999951, 0.0 ], [ 113.107948855000018, -7.111619755999925, 0.0 ], [ 113.107943760000012, -7.111746041999936, 0.0 ], [ 113.107956114000103, -7.111787921999962, 0.0 ], [ 113.108047145000114, -7.111883401999933, 0.0 ], [ 113.108186094000075, -7.111948385999938, 0.0 ], [ 113.108277520000115, -7.112097911999967, 0.0 ], [ 113.108272028000101, -7.112170060999972, 0.0 ], [ 113.108236095000052, -7.112194355999975, 0.0 ], [ 113.108170486000063, -7.112272924999957, 0.0 ], [ 113.108146936000026, -7.112345246999951, 0.0 ], [ 113.108117389000085, -7.112411540999972, 0.0 ], [ 113.108075282000073, -7.112423842999931, 0.0 ], [ 113.107985118000101, -7.11243654499998, 0.0 ], [ 113.10791929700008, -7.11248510799993, 0.0 ], [ 113.107859943000108, -7.112593745999959, 0.0 ], [ 113.107764508000059, -7.112874089999934, 0.0 ], [ 113.107743962000086, -7.112934105999955, 0.0 ], [ 113.10773564100009, -7.113024072999963, 0.0 ], [ 113.107739123000101, -7.113083889999928, 0.0 ], [ 113.10776343100008, -7.113128698999958, 0.0 ], [ 113.107796741000016, -7.113167320999935, 0.0 ], [ 113.107847967000112, -7.113190946999964, 0.0 ], [ 113.107991974000015, -7.113186857999949, 0.0 ], [ 113.108157488000074, -7.113251448999961, 0.0 ], [ 113.108296017000043, -7.113322309999944, 0.0 ], [ 113.10841042200002, -7.113372311999967, 0.0 ], [ 113.108500573000015, -7.113389615999949, 0.0 ], [ 113.108520177000059, -7.113433813999961, 0.0 ], [ 113.108543683000107, -7.113433615999952, 0.0 ], [ 113.108567115000028, -7.113433418999932, 0.0 ], [ 113.108696056000099, -7.11341493599997, 0.0 ], [ 113.108784581, -7.113484487999926, 0.0 ], [ 113.108937681000043, -7.11355943999996, 0.0 ], [ 113.108996904000037, -7.113635089999946, 0.0 ], [ 113.10905682900011, -7.113798586999962, 0.0 ], [ 113.10913964000008, -7.113891663999937, 0.0 ], [ 113.109222189000093, -7.113943709999944, 0.0 ], [ 113.109233541000094, -7.113896749999981, 0.0 ], [ 113.109167487000036, -7.113698212999964, 0.0 ], [ 113.109108027000048, -7.113587404999976, 0.0 ], [ 113.109100781000052, -7.113405952999926, 0.0 ], [ 113.109064417000013, -7.113254006999966, 0.0 ], [ 113.109052029000054, -7.113172177999957, 0.0 ], [ 113.109110420000093, -7.113130698999953, 0.0 ], [ 113.109204220000038, -7.113130000999945, 0.0 ], [ 113.10925708000002, -7.113135452999927, 0.0 ], [ 113.109275054000022, -7.113182188999929, 0.0 ], [ 113.109293027000035, -7.113228833999926, 0.0 ], [ 113.109316640000088, -7.113252134999925, 0.0 ], [ 113.109381397000107, -7.11328094299995, 0.0 ], [ 113.10941106000007, -7.11332165999994, 0.0 ], [ 113.109423192, -7.113380080999946, 0.0 ], [ 113.109511535000024, -7.113426315999959, 0.0 ], [ 113.10953522300008, -7.113449524999965, 0.0 ], [ 113.109559225000112, -7.113525425999967, 0.0 ], [ 113.1096576650001, -7.113527327999975, 0.0 ], [ 113.109678570000028, -7.113627735999955, 0.0 ], [ 113.109689993000075, -7.113808716999927, 0.0 ], [ 113.109841936000066, -7.113908166999977, 0.0 ], [ 113.10990313800005, -7.114008210999941, 0.0 ], [ 113.109954221000066, -7.114098358999968, 0.0 ], [ 113.110106163000069, -7.114197807999972, 0.0 ], [ 113.110237292000079, -7.11421691399994, 0.0 ], [ 113.110348605000013, -7.114276418999964, 0.0 ], [ 113.110541058000081, -7.114405780999959, 0.0 ], [ 113.110744674000102, -7.114675723999937, 0.0 ], [ 113.110876941000015, -7.11484576099997, 0.0 ], [ 113.11109978200011, -7.114994956999965, 0.0 ], [ 113.111182224000117, -7.115235717999951, 0.0 ], [ 113.111350549, -7.116159725999978, 0.0 ], [ 113.111362519000068, -7.11641111199998, 0.0 ], [ 113.111555018000104, -7.116550503999974, 0.0 ], [ 113.111765556000023, -7.116408097999965, 0.0 ], [ 113.111834132000013, -7.116146041999968, 0.0 ], [ 113.112114217000112, -7.115872355999954, 0.0 ], [ 113.112283368000021, -7.115589505999935, 0.0 ], [ 113.112371545000087, -7.115256863999946, 0.0 ], [ 113.112600669000017, -7.114903151999954, 0.0 ], [ 113.112852094, -7.114840906999973, 0.0 ], [ 113.113074509000057, -7.114929729999972, 0.0 ], [ 113.113378276000049, -7.115118504999941, 0.0 ], [ 113.113762635000057, -7.115306729999929, 0.0 ], [ 113.114218726000104, -7.11564520099995, 0.0 ], [ 113.114442539000038, -7.115925171999947, 0.0 ], [ 113.1145686750001, -7.116029293999929, 0.0 ], [ 113.114696029000015, -7.11613442099997, 0.0 ], [ 113.115059482000106, -7.116222235999942, 0.0 ], [ 113.115290834, -7.116160080999975, 0.0 ], [ 113.115400463000014, -7.115998341999955, 0.0 ], [ 113.115429047000021, -7.115786900999979, 0.0 ], [ 113.115408680000087, -7.115642726999965, 0.0 ], [ 113.115365186000076, -7.115334837999967, 0.0 ], [ 113.115361454000094, -7.115315181999961, 0.0 ], [ 113.115264400000115, -7.114804040999957, 0.0 ], [ 113.115017218000048, -7.114472929999977, 0.0 ], [ 113.114714619000097, -7.114164397999957, 0.0 ], [ 113.11467859600009, -7.113985877999937, 0.0 ], [ 113.11464528800002, -7.113820815999929, 0.0 ], [ 113.114608027000031, -7.113310516999945, 0.0 ], [ 113.114417271000093, -7.113078927999936, 0.0 ], [ 113.114115481000113, -7.11288137899993, 0.0 ], [ 113.113857586000108, -7.112605899999949, 0.0 ], [ 113.113789011000108, -7.112362184999938, 0.0 ], [ 113.113775852000117, -7.112095892999946, 0.0 ], [ 113.113828373000047, -7.111684781999941, 0.0 ], [ 113.113903460000074, -7.111329062999971, 0.0 ], [ 113.11389654300001, -7.111280071999943, 0.0 ], [ 113.113856492000082, -7.11099640499998, 0.0 ], [ 113.113842578000117, -7.110630245999971, 0.0 ], [ 113.113740170000028, -7.110331371999962, 0.0 ], [ 113.113671141000054, -7.110021047999965, 0.0 ], [ 113.113708275000022, -7.109672008999951, 0.0 ], [ 113.113720597000111, -7.109600001999979, 0.0 ], [ 113.113741926000102, -7.109475367999949, 0.0 ], [ 113.113641194000024, -7.109167447999937, 0.0 ], [ 113.113609823000047, -7.109087839999972, 0.0 ], [ 113.113533682000025, -7.108894626999927, 0.0 ], [ 113.113496464000036, -7.108621214999971, 0.0 ], [ 113.113523026000053, -7.108424605999971, 0.0 ], [ 113.113606301, -7.108276633999935, 0.0 ], [ 113.113781148000044, -7.108163040999955, 0.0 ], [ 113.113970675000019, -7.108126565999953, 0.0 ], [ 113.114216498000019, -7.10809661299993, 0.0 ], [ 113.114238043000114, -7.108091772999956, 0.0 ], [ 113.114312305000112, -7.108075090999932, 0.0 ], [ 113.114377893000096, -7.108060356999943, 0.0 ], [ 113.114404736000097, -7.108029596999927, 0.0 ], [ 113.114446264000094, -7.107982007999965, 0.0 ], [ 113.114538166000102, -7.107876694999959, 0.0 ], [ 113.114564492000113, -7.107644928999946, 0.0 ], [ 113.114480449000098, -7.107380225999975, 0.0 ], [ 113.114369583000098, -7.107091784999966, 0.0 ], [ 113.114102213000024, -7.106864792999943, 0.0 ], [ 113.11399992500003, -7.106843104999939, 0.0 ], [ 113.113388642000018, -7.10671349699993, 0.0 ], [ 113.112904696000101, -7.106596671999966, 0.0 ], [ 113.112767549000068, -7.106469324999978, 0.0 ], [ 113.112685792000093, -7.106393409999953, 0.0 ], [ 113.112585778000039, -7.105948287999979, 0.0 ], [ 113.112689826000064, -7.10533277199994, 0.0 ], [ 113.112927236000019, -7.104800701999977, 0.0 ], [ 113.11315386800004, -7.104425311999933, 0.0 ], [ 113.113514229000089, -7.104181538999967, 0.0 ], [ 113.113791913000114, -7.10416743899998, 0.0 ], [ 113.114251918000036, -7.104320614999949, 0.0 ], [ 113.114421646000096, -7.104409724999925, 0.0 ], [ 113.114591373000053, -7.104498834999958, 0.0 ], [ 113.11472397600005, -7.104572170999973, 0.0 ], [ 113.115064337000035, -7.104760406999958, 0.0 ], [ 113.115354903000025, -7.104854613999976, 0.0 ], [ 113.115499557000021, -7.104829369999948, 0.0 ], [ 113.115628144000084, -7.104726021999966, 0.0 ], [ 113.115847663000068, -7.104549589999976, 0.0 ], [ 113.116002446000039, -7.104259122999963, 0.0 ], [ 113.116000283000062, -7.103981935999968, 0.0 ], [ 113.115936846000068, -7.103572619999966, 0.0 ], [ 113.115807439000037, -7.102885051999976, 0.0 ], [ 113.11570959200003, -7.102652948999946, 0.0 ], [ 113.115659969000035, -7.102441051999961, 0.0 ], [ 113.11560277600006, -7.10214016499998, 0.0 ], [ 113.115559512, -7.101866598999948, 0.0 ], [ 113.115473421000047, -7.101627690999976, 0.0 ], [ 113.115468436000015, -7.101613857999951, 0.0 ], [ 113.115463471000112, -7.101609146999976, 0.0 ], [ 113.115267951000078, -7.101423616999966, 0.0 ], [ 113.114924323000082, -7.101344112999925, 0.0 ], [ 113.114740957000095, -7.101334322999946, 0.0 ], [ 113.114475134000031, -7.101320130999966, 0.0 ], [ 113.114455204000024, -7.101335225999946, 0.0 ], [ 113.114382821000049, -7.101368273999981, 0.0 ], [ 113.114310451000051, -7.101403851999976, 0.0 ], [ 113.114308889000085, -7.101404539999976, 0.0 ], [ 113.114218104000088, -7.101444492999974, 0.0 ], [ 113.114068438000118, -7.101515671999948, 0.0 ], [ 113.11399067900004, -7.101498763999928, 0.0 ], [ 113.113957812000081, -7.101458964999949, 0.0 ], [ 113.11391689200002, -7.10144427299997, 0.0 ], [ 113.113862361000088, -7.101424693999945, 0.0 ], [ 113.113816102000101, -7.10143861499995, 0.0 ], [ 113.113759896000033, -7.101455528999963, 0.0 ], [ 113.113674743000047, -7.101453656999979, 0.0 ], [ 113.113614508000069, -7.101434138999934, 0.0 ], [ 113.113581642000099, -7.101394339999956, 0.0 ], [ 113.113566277000018, -7.101346959999944, 0.0 ], [ 113.113578278000091, -7.101321672999973, 0.0 ], [ 113.113600794000035, -7.101274226999976, 0.0 ], [ 113.113597725000091, -7.101206816999934, 0.0 ], [ 113.113537466000025, -7.101182236999932, 0.0 ], [ 113.113474895000081, -7.101190204999966, 0.0 ], [ 113.113325284000098, -7.101273855999978, 0.0 ], [ 113.113276456000108, -7.101299295999979, 0.0 ], [ 113.113227984000105, -7.101324550999948, 0.0 ], [ 113.113137774000052, -7.101310229999967, 0.0 ], [ 113.113099788000113, -7.101260512999943, 0.0 ], [ 113.113080908000029, -7.101080740999976, 0.0 ], [ 113.113090751000072, -7.100823444999946, 0.0 ], [ 113.113093441000046, -7.100753143999952, 0.0 ], [ 113.113085317000014, -7.100673284999971, 0.0 ], [ 113.113040091000016, -7.10065613699993, 0.0 ], [ 113.112972594000098, -7.100664126999959, 0.0 ], [ 113.11289523500011, -7.100702167999941, 0.0 ], [ 113.112802689000091, -7.100715423999929, 0.0 ], [ 113.112722358000042, -7.100691025999936, 0.0 ], [ 113.112674339000023, -7.100633852999977, 0.0 ], [ 113.112639055000045, -7.100604096999973, 0.0 ], [ 113.11255875900008, -7.100587289999964, 0.0 ], [ 113.112483748000045, -7.100600285999974, 0.0 ], [ 113.112383654000041, -7.100611044999937, 0.0 ], [ 113.112328676000061, -7.10063144999998, 0.0 ], [ 113.112286485000027, -7.100674301999959, 0.0 ], [ 113.112244803000067, -7.100746705999939, 0.0 ], [ 113.112228148000099, -7.100825503999943, 0.0 ], [ 113.112221135000027, -7.100874792999946, 0.0 ], [ 113.112181837000094, -7.100897205999956, 0.0 ], [ 113.112132587000019, -7.100897610999937, 0.0 ], [ 113.112063377000027, -7.100873523999951, 0.0 ], [ 113.111986656000113, -7.100822445999938, 0.0 ], [ 113.111929746000101, -7.100795861999927, 0.0 ], [ 113.111885268000037, -7.100778982999941, 0.0 ], [ 113.111819002000061, -7.100811459999932, 0.0 ], [ 113.111762500000054, -7.100841361999926, 0.0 ], [ 113.111710789000085, -7.10084177799996, 0.0 ], [ 113.111656461000052, -7.100824943999953, 0.0 ], [ 113.111624307000056, -7.100810447999947, 0.0 ], [ 113.111594287000116, -7.100756536999938, 0.0 ], [ 113.111557163000043, -7.100732212999958, 0.0 ], [ 113.111473376000049, -7.100735305999933, 0.0 ], [ 113.11132077000002, -7.100751274999936, 0.0 ], [ 113.11119756100004, -7.10074975699996, 0.0 ], [ 113.11109392100002, -7.100735767999936, 0.0 ], [ 113.111068990000035, -7.100701535999974, 0.0 ], [ 113.11105889800001, -7.100664707999954, 0.0 ], [ 113.111036407000029, -7.100625493999928, 0.0 ], [ 113.111001778000059, -7.100608568999974, 0.0 ], [ 113.110942594000107, -7.100606579999976, 0.0 ], [ 113.110851572000115, -7.100626876999968, 0.0 ], [ 113.110741295000025, -7.100632207999979, 0.0 ], [ 113.110696764000068, -7.100634360999948, 0.0 ], [ 113.11065622700005, -7.100614479999933, 0.0 ], [ 113.110637379000082, -7.100589753999941, 0.0 ], [ 113.110625674000062, -7.100574399999971, 0.0 ], [ 113.110618640000098, -7.100537556999939, 0.0 ], [ 113.110567925000055, -7.100511034999954, 0.0 ], [ 113.110460400000079, -7.100528695999969, 0.0 ], [ 113.110410764000108, -7.100536126999941, 0.0 ], [ 113.11034272500001, -7.100546313999928, 0.0 ], [ 113.11025534700002, -7.100563792999935, 0.0 ], [ 113.110130957000024, -7.100581530999932, 0.0 ], [ 113.110080241000105, -7.100555008999947, 0.0 ], [ 113.110059746000047, -7.100511538999967, 0.0 ], [ 113.11002694900003, -7.100469448999945, 0.0 ], [ 113.110015535000116, -7.100454799999966, 0.0 ], [ 113.109964743000091, -7.100411467999947, 0.0 ], [ 113.10990077800011, -7.100408594999976, 0.0 ], [ 113.109850411000025, -7.100425815999927, 0.0 ], [ 113.10984036100001, -7.100437032999935, 0.0 ], [ 113.109817075000024, -7.100463023999964, 0.0 ], [ 113.109783499000059, -7.100480076999929, 0.0 ], [ 113.109699629000033, -7.100514261999933, 0.0 ], [ 113.109652574000052, -7.100521344999947, 0.0 ], [ 113.109588458000076, -7.100501662999932, 0.0 ], [ 113.109524509000039, -7.100502133999953, 0.0 ], [ 113.109454161000031, -7.100539599999934, 0.0 ], [ 113.109379850000096, -7.100509931999966, 0.0 ], [ 113.109375932000034, -7.100436108999929, 0.0 ], [ 113.109375326000077, -7.100352147999956, 0.0 ], [ 113.109373436000055, -7.100317998999969, 0.0 ], [ 113.109371421000105, -7.100281577999965, 0.0 ], [ 113.109337420000088, -7.100238167999976, 0.0 ], [ 113.109286795000116, -7.100215080999931, 0.0 ], [ 113.109242552000069, -7.10015156299994, 0.0 ], [ 113.109228576000078, -7.100081128999932, 0.0 ], [ 113.109228228, -7.100037476999944, 0.0 ], [ 113.109170630000108, -7.099990830999957, 0.0 ], [ 113.109126782000089, -7.099981087999936, 0.0 ], [ 113.109110174000079, -7.100004752999951, 0.0 ], [ 113.109060186000079, -7.100072314999977, 0.0 ], [ 113.109009956000023, -7.100102910999965, 0.0 ], [ 113.108976348000056, -7.100113276999934, 0.0 ], [ 113.108919189000062, -7.100113717999932, 0.0 ], [ 113.108891949000054, -7.100080309999953, 0.0 ], [ 113.108871423000096, -7.100030060999927, 0.0 ], [ 113.108871105000048, -7.099993096999981, 0.0 ], [ 113.108897633000083, -7.099935854999956, 0.0 ], [ 113.108933949000061, -7.099848201999976, 0.0 ], [ 113.108958148000056, -7.099738277999961, 0.0 ], [ 113.109028009000099, -7.099692408999942, 0.0 ], [ 113.10909, -7.099687788999972, 0.0 ], [ 113.109139379000112, -7.099666775999935, 0.0 ], [ 113.10915150400001, -7.09962541699997, 0.0 ], [ 113.10914299500007, -7.099592556999937, 0.0 ], [ 113.109105405000037, -7.099547446999964, 0.0 ], [ 113.10908449100009, -7.099510484999939, 0.0 ], [ 113.109088351000082, -7.099473321999938, 0.0 ], [ 113.109112601000106, -7.099407142999951, 0.0 ], [ 113.109120134000023, -7.099308140999938, 0.0 ], [ 113.109115524000117, -7.099246341999958, 0.0 ], [ 113.109078139000076, -7.099213612999961, 0.0 ], [ 113.109016073000021, -7.09920169399993, 0.0 ], [ 113.10896970500005, -7.099175486999968, 0.0 ], [ 113.108904074000066, -7.099138392999976, 0.0 ], [ 113.1089238940001, -7.099082538999937, 0.0 ], [ 113.108943575000012, -7.099048695999954, 0.0 ], [ 113.108988977000081, -7.098970621999968, 0.0 ], [ 113.108988528000054, -7.098904826999956, 0.0 ], [ 113.10895722500004, -7.098798770999963, 0.0 ], [ 113.108956063000051, -7.098641783999938, 0.0 ], [ 113.108954710000035, -7.098459581999975, 0.0 ], [ 113.108974126000021, -7.098348053999928, 0.0 ], [ 113.108973223000021, -7.098231557999952, 0.0 ], [ 113.108952689000034, -7.09819631199997, 0.0 ], [ 113.108891587000016, -7.098166401999947, 0.0 ], [ 113.108800039000016, -7.098136720999946, 0.0 ], [ 113.108654599000033, -7.098070770999925, 0.0 ], [ 113.108482123000044, -7.097967345999962, 0.0 ], [ 113.108261232000018, -7.097769058999972, 0.0 ], [ 113.108135342000082, -7.097522528999946, 0.0 ], [ 113.10812334600007, -7.09719883899993, 0.0 ], [ 113.108119072000022, -7.096637138999938, 0.0 ], [ 113.108221017, -7.096246048999944, 0.0 ], [ 113.1082866590001, -7.096093187999941, 0.0 ], [ 113.108369620000076, -7.09571176399993, 0.0 ], [ 113.10841559000005, -7.095482890999961, 0.0 ], [ 113.108510910000064, -7.09547260599993, 0.0 ], [ 113.108578308, -7.095557800999927, 0.0 ], [ 113.10867436, -7.095642774999931, 0.0 ], [ 113.108798626000066, -7.095679898999947, 0.0 ], [ 113.108988740000086, -7.09559281199995, 0.0 ], [ 113.109092029000067, -7.095382567999934, 0.0 ], [ 113.109214130000055, -7.095124607999935, 0.0 ], [ 113.109372164000092, -7.095039382999971, 0.0 ], [ 113.109399451000058, -7.095001207999928, 0.0 ], [ 113.109471549000091, -7.094938608999939, 0.0 ], [ 113.10950579200005, -7.094903926999962, 0.0 ], [ 113.109536417000072, -7.094845040999928, 0.0 ], [ 113.1095671490001, -7.094793111999934, 0.0 ], [ 113.109635587000071, -7.094713355999943, 0.0 ], [ 113.10972869200009, -7.094691964999981, 0.0 ], [ 113.10987715300007, -7.094683968999959, 0.0 ], [ 113.109984495000049, -7.09472451399995, 0.0 ], [ 113.110106069000039, -7.094809732999977, 0.0 ], [ 113.11014749800006, -7.094812888999968, 0.0 ], [ 113.110195499000042, -7.094767750999949, 0.0 ], [ 113.11021964300005, -7.094760591999943, 0.0 ], [ 113.110264596000093, -7.09476716599994, 0.0 ], [ 113.110312981000106, -7.094773724999925, 0.0 ], [ 113.110382463000064, -7.094824925999944, 0.0 ], [ 113.110451592000118, -7.094831299999953, 0.0 ], [ 113.11052096800006, -7.094875542999944, 0.0 ], [ 113.110572722000029, -7.094868256999973, 0.0 ], [ 113.110600115000011, -7.094837040999948, 0.0 ], [ 113.110617058000116, -7.094788610999956, 0.0 ], [ 113.110643913000104, -7.094688436999945, 0.0 ], [ 113.110674538000012, -7.094629639999937, 0.0 ], [ 113.110722892000013, -7.094629239999961, 0.0 ], [ 113.110754255000074, -7.094666965999977, 0.0 ], [ 113.110754778000114, -7.094732490999945, 0.0 ], [ 113.110800009000059, -7.094783801999938, 0.0 ], [ 113.11082430700003, -7.094793994999975, 0.0 ], [ 113.11083171100006, -7.094862830999944, 0.0 ], [ 113.110804918000099, -7.094976833999965, 0.0 ], [ 113.110815860000116, -7.09505261299995, 0.0 ], [ 113.1108610120001, -7.095086752999975, 0.0 ], [ 113.110954687000117, -7.095141187999957, 0.0 ], [ 113.11103791000005, -7.095178407999981, 0.0 ], [ 113.111125047000087, -7.095288095999933, 0.0 ], [ 113.111246484000048, -7.095359576999954, 0.0 ], [ 113.111315845000036, -7.095400384999948, 0.0 ], [ 113.111392683000076, -7.095510118999925, 0.0 ], [ 113.111441189000061, -7.095526979999931, 0.0 ], [ 113.111513445000014, -7.095498904999943, 0.0 ], [ 113.111596147000114, -7.095470691999935, 0.0 ], [ 113.111671571000102, -7.095401206999952, 0.0 ], [ 113.111760568000022, -7.095297043999949, 0.0 ], [ 113.111814937000076, -7.095176048999974, 0.0 ], [ 113.111876479000102, -7.095089363999932, 0.0 ], [ 113.111944747000052, -7.094988911999963, 0.0 ], [ 113.111954518000061, -7.094906077999951, 0.0 ], [ 113.111940159000028, -7.094833838999932, 0.0 ], [ 113.111963712000033, -7.094745970999952, 0.0 ], [ 113.112012030000074, -7.09467245299993, 0.0 ], [ 113.11203617000001, -7.094503090999979, 0.0 ], [ 113.11203715900001, -7.094496154999945, 0.0 ], [ 113.112038134000045, -7.09448931299994, 0.0 ], [ 113.112036218000071, -7.094484154999975, 0.0 ], [ 113.112034996000034, -7.094480866999959, 0.0 ], [ 113.11196016800011, -7.094279440999969, 0.0 ], [ 113.11186430500004, -7.094121620999942, 0.0 ], [ 113.111835944000063, -7.094005971999934, 0.0 ], [ 113.111788841000021, -7.093838709999943, 0.0 ], [ 113.111766697, -7.093744362999928, 0.0 ], [ 113.111775132000048, -7.093646712999941, 0.0 ], [ 113.111797942000067, -7.093604570999958, 0.0 ], [ 113.111808283000073, -7.093585464999933, 0.0 ], [ 113.111832201000084, -7.093512146999956, 0.0 ], [ 113.111828755000033, -7.093460283999946, 0.0 ], [ 113.111793745000114, -7.093400446999965, 0.0 ], [ 113.11178709, -7.093389072999969, 0.0 ], [ 113.111736420000057, -7.093355862999942, 0.0 ], [ 113.111664254000061, -7.093272406999972, 0.0 ], [ 113.11168047600006, -7.093196774999967, 0.0 ], [ 113.111751372000072, -7.09311646499998, 0.0 ], [ 113.111738117000073, -7.093024156999945, 0.0 ], [ 113.11172461700005, -7.092910970999981, 0.0 ], [ 113.111635472000103, -7.092802466999956, 0.0 ], [ 113.111538275000044, -7.092744431999961, 0.0 ], [ 113.111403188000054, -7.092674097999975, 0.0 ], [ 113.111339264000094, -7.092565388999958, 0.0 ], [ 113.11133007400008, -7.092464746999951, 0.0 ], [ 113.111376110000037, -7.092430824999951, 0.0 ], [ 113.111480888000074, -7.092383802999962, 0.0 ], [ 113.11152263300005, -7.092341494999971, 0.0 ], [ 113.11152216000005, -7.092286996999974, 0.0 ], [ 113.111488222000048, -7.092241057999956, 0.0 ], [ 113.111407624000094, -7.092157641999961, 0.0 ], [ 113.111339713, -7.092074257999968, 0.0 ], [ 113.111334946000056, -7.091994472999943, 0.0 ], [ 113.111351338000077, -7.09193980799995, 0.0 ], [ 113.111392741000031, -7.091855565999936, 0.0 ], [ 113.111387882000031, -7.091771623999932, 0.0 ], [ 113.111354001000109, -7.091738245999977, 0.0 ], [ 113.111298775000023, -7.091671524999981, 0.0 ], [ 113.111239314000045, -7.09159225999997, 0.0 ], [ 113.111243019000085, -7.091520841999966, 0.0 ], [ 113.111293120000028, -7.091478496999969, 0.0 ], [ 113.111369929000034, -7.091450762999955, 0.0 ], [ 113.111441229000093, -7.091420176999975, 0.0 ], [ 113.111495569000112, -7.091396866999958, 0.0 ], [ 113.111604058000012, -7.091263603999948, 0.0 ], [ 113.111626648000083, -7.091177367999933, 0.0 ], [ 113.111641070000019, -7.091116023999973, 0.0 ], [ 113.111641069000029, -7.091115933999959, 0.0 ], [ 113.111655565000092, -7.091054589999942, 0.0 ], [ 113.111622119000117, -7.091018498999972, 0.0 ], [ 113.111680445000047, -7.090734075999933, 0.0 ], [ 113.111524507000013, -7.090967785999965, 0.0 ], [ 113.111494560000096, -7.091044294999961, 0.0 ], [ 113.111446228000091, -7.091061814999932, 0.0 ], [ 113.11144330500008, -7.091062874999977, 0.0 ], [ 113.111320918000047, -7.091110158999925, 0.0 ], [ 113.111260967000021, -7.091070844999933, 0.0 ], [ 113.111167721000015, -7.091028517999973, 0.0 ], [ 113.111084670000082, -7.091012626999941, 0.0 ], [ 113.110998171, -7.090976867999927, 0.0 ], [ 113.110970810000026, -7.090867811999942, 0.0 ], [ 113.110976926000035, -7.090801534999969, 0.0 ], [ 113.111052960000052, -7.090767838999966, 0.0 ], [ 113.11112911500004, -7.090744083999937, 0.0 ], [ 113.111165139000036, -7.090690865999932, 0.0 ], [ 113.111164673000076, -7.090621274999933, 0.0 ], [ 113.111147762000087, -7.090578421999965, 0.0 ], [ 113.111140986, -7.090565165999976, 0.0 ], [ 113.110998585000061, -7.09059274599997, 0.0 ], [ 113.110892192000051, -7.090563765999946, 0.0 ], [ 113.110858536000023, -7.090497850999952, 0.0 ], [ 113.110857816000021, -7.090405122999925, 0.0 ], [ 113.110914002000072, -7.090371606999952, 0.0 ], [ 113.11100014100009, -7.090361002999941, 0.0 ], [ 113.111053, -7.090334100999939, 0.0 ], [ 113.111068206000027, -7.090292726999962, 0.0 ], [ 113.111072532000094, -7.090280957999937, 0.0 ], [ 113.111072037000099, -7.090221398999972, 0.0 ], [ 113.111035173, -7.090172037999935, 0.0 ], [ 113.11100440000007, -7.090153158999954, 0.0 ], [ 113.110955180000019, -7.090122962999942, 0.0 ], [ 113.110888378000027, -7.090053943999976, 0.0 ], [ 113.110848172000033, -7.090007851999928, 0.0 ], [ 113.110787361, -7.089861710999969, 0.0 ], [ 113.110810221000065, -7.089785415999927, 0.0 ], [ 113.11082706600007, -7.089682847999939, 0.0 ], [ 113.110826623000094, -7.089618407999978, 0.0 ], [ 113.110805586000083, -7.089554152999938, 0.0 ], [ 113.11078438100003, -7.089469380999958, 0.0 ], [ 113.110786553000025, -7.089372752999964, 0.0 ], [ 113.110812229000089, -7.089275928999939, 0.0 ], [ 113.110870577000014, -7.089225682999938, 0.0 ], [ 113.11091982500011, -7.089143303999947, 0.0 ], [ 113.110925101000021, -7.089072962999978, 0.0 ], [ 113.110901295000076, -7.089023361999978, 0.0 ], [ 113.11086298400005, -7.089000216999978, 0.0 ], [ 113.110850670000104, -7.088996756999961, 0.0 ], [ 113.11086203800005, -7.08891497999997, 0.0 ], [ 113.110890121000011, -7.088713019999943, 0.0 ], [ 113.11091604, -7.08864497999997, 0.0 ], [ 113.110943039000063, -7.088605020999978, 0.0 ], [ 113.111030880000044, -7.088408010999956, 0.0 ], [ 113.111069040000075, -7.08814296099996, 0.0 ], [ 113.111070839000035, -7.088130990999957, 0.0 ], [ 113.111103961000026, -7.087919039999974, 0.0 ], [ 113.111116920000086, -7.087842989999956, 0.0 ], [ 113.111222041000019, -7.087898969999969, 0.0 ], [ 113.11136784100006, -7.08795503999994, 0.0 ], [ 113.111516159000075, -7.088112, 0.0 ], [ 113.111619840000117, -7.088246008999931, 0.0 ], [ 113.111854921000031, -7.088328991999958, 0.0 ], [ 113.112054, -7.088375968999969, 0.0 ], [ 113.112072, -7.088771971999961, 0.0 ], [ 113.112208080000073, -7.089323039999954, 0.0 ], [ 113.11228008, -7.089494039999977, 0.0 ], [ 113.112649079000107, -7.089867, 0.0 ], [ 113.112761041000113, -7.089951958999961, 0.0 ], [ 113.112951840000051, -7.090095961999964, 0.0 ], [ 113.113104118000024, -7.090164001999938, 0.0 ], [ 113.113175040000101, -7.090173, 0.0 ], [ 113.113204920000044, -7.090142039999932, 0.0 ], [ 113.113406158000089, -7.089893011999948, 0.0 ], [ 113.113735920000067, -7.089483958999949, 0.0 ], [ 113.11434612000005, -7.088911018999966, 0.0 ], [ 113.114896921000081, -7.088560018999942, 0.0 ], [ 113.115156840000054, -7.088392979999981, 0.0 ], [ 113.115425040000105, -7.088289028999952, 0.0 ], [ 113.115642119000086, -7.088225039999941, 0.0 ], [ 113.115974039000093, -7.087973039999952, 0.0 ], [ 113.116251961000103, -7.087578031999954, 0.0 ], [ 113.116398120000099, -7.087269959999958, 0.0 ], [ 113.116514040000084, -7.087158000999978, 0.0 ], [ 113.116829040000084, -7.087087978999932, 0.0 ], [ 113.117271839000068, -7.087102019999975, 0.0 ], [ 113.117496120000055, -7.087112009999942, 0.0 ], [ 113.11752888, -7.08709499899993, 0.0 ], [ 113.117609160000029, -7.087052970999935, 0.0 ], [ 113.11770492100004, -7.086825, 0.0 ], [ 113.117964840000013, -7.086683970999957, 0.0 ], [ 113.118207839000092, -7.086621960999935, 0.0 ], [ 113.118540120000034, -7.086681, 0.0 ], [ 113.118638040000064, -7.086735989999966, 0.0 ], [ 113.119134120000012, -7.086826979999955, 0.0 ], [ 113.119832880000104, -7.087062959999969, 0.0 ], [ 113.12005608000004, -7.087124968999944, 0.0 ], [ 113.120119080000109, -7.087127039999928, 0.0 ], [ 113.120286121000049, -7.087244039999973, 0.0 ], [ 113.120364960000074, -7.087140989999966, 0.0 ], [ 113.120430839000051, -7.08705396199997, 0.0 ], [ 113.120613001000038, -7.086878009999964, 0.0 ], [ 113.120857078000085, -7.086772979999978, 0.0 ], [ 113.121014040000091, -7.08671303899996, 0.0 ], [ 113.121276118000083, -7.086611969999979, 0.0 ], [ 113.121432001000016, -7.086558958999944, 0.0 ], [ 113.121470160000058, -7.086546, 0.0 ], [ 113.122024920000058, -7.086380039999938, 0.0 ], [ 113.122364040000093, -7.086401010999964, 0.0 ], [ 113.12237195900002, -7.086402, 0.0 ], [ 113.122447920000013, -7.086408031999952, 0.0 ], [ 113.122522081000056, -7.086664980999956, 0.0 ], [ 113.123090160000061, -7.08684902899995, 0.0 ], [ 113.123356919000116, -7.086972960999958, 0.0 ], [ 113.123523960000057, -7.087102019999975, 0.0 ], [ 113.123598119, -7.087229998999931, 0.0 ], [ 113.123734920000061, -7.087636978999967, 0.0 ], [ 113.123892959000045, -7.087848030999965, 0.0 ], [ 113.123904840000023, -7.087865038999951, 0.0 ], [ 113.124000960000103, -7.08804504099993, 0.0 ], [ 113.124004921000051, -7.088139989999945, 0.0 ], [ 113.124108960000058, -7.088290018999942, 0.0 ], [ 113.124363121000101, -7.088451029999931, 0.0 ], [ 113.124853080000094, -7.088864040999965, 0.0 ], [ 113.124998880000021, -7.088986980999948, 0.0 ], [ 113.125130999000021, -7.089168959999938, 0.0 ], [ 113.125350960000105, -7.08938802199998, 0.0 ], [ 113.125371118000089, -7.089491970999973, 0.0 ], [ 113.125924080000118, -7.089761969999927, 0.0 ], [ 113.126406840000072, -7.090121969999927, 0.0 ], [ 113.127575038000032, -7.091234009999937, 0.0 ], [ 113.127977160000114, -7.09147295899993, 0.0 ], [ 113.128300080000031, -7.091588969999975, 0.0 ], [ 113.129352, -7.091532989999962, 0.0 ], [ 113.130050040000015, -7.091412028999969, 0.0 ], [ 113.13081684000008, -7.091240038999956, 0.0 ], [ 113.131542961000036, -7.090992988999972, 0.0 ], [ 113.132147041000053, -7.090844039999979, 0.0 ], [ 113.13301716, -7.090774021999948, 0.0 ], [ 113.134137120000105, -7.090692029999957, 0.0 ], [ 113.135182920000034, -7.090667008999958, 0.0 ], [ 113.134820040000022, -7.092194038999935, 0.0 ], [ 113.133530160000078, -7.093547009999952, 0.0 ], [ 113.132967120000103, -7.094233981999935, 0.0 ], [ 113.135590702000059, -7.094476904999965, 0.0 ], [ 113.137709612000094, -7.094438833999959, 0.0 ], [ 113.137810741000067, -7.094563756999946, 0.0 ], [ 113.137870225000029, -7.094700573999944, 0.0 ], [ 113.137929713000062, -7.094908775999954, 0.0 ], [ 113.137941610000098, -7.095116978999954, 0.0 ], [ 113.13788807200001, -7.095265694999966, 0.0 ], [ 113.137858329000096, -7.095563127999981, 0.0 ], [ 113.137890154000047, -7.095789435999961, 0.0 ], [ 113.137965405000045, -7.096324554999967, 0.0 ], [ 113.138078429000075, -7.09663388499996, 0.0 ], [ 113.13806536200002, -7.096834247999936, 0.0 ], [ 113.138060583000083, -7.09690752399996, 0.0 ], [ 113.138039168000091, -7.097146659999964, 0.0 ], [ 113.137972543000046, -7.09754640899996, 0.0 ], [ 113.137972543000046, -7.097965193999926, 0.0 ], [ 113.137991579000072, -7.098279282999954, 0.0 ], [ 113.138048686000047, -7.098659998999949, 0.0 ], [ 113.138105793000022, -7.099059745999966, 0.0 ], [ 113.137886884000068, -7.099944905999962, 0.0 ], [ 113.137772668000025, -7.100325618999932, 0.0 ], [ 113.137321682000106, -7.101744260999965, 0.0 ], [ 113.137846919000026, -7.101332008999975, 0.0 ], [ 113.138250840000069, -7.10098802899995, 0.0 ], [ 113.138916838000114, -7.100386020999963, 0.0 ], [ 113.139450677000013, -7.099865121999926, 0.0 ], [ 113.139459000000102, -7.099857001999965, 0.0 ], [ 113.140127880000023, -7.099373968999942, 0.0 ], [ 113.140653839000038, -7.098913980999953, 0.0 ], [ 113.141099881000059, -7.098494038999945, 0.0 ], [ 113.141275997000093, -7.098502953999969, 0.0 ], [ 113.141514735000101, -7.098656032999941, 0.0 ], [ 113.141581361000021, -7.098694103999946, 0.0 ], [ 113.141809789000035, -7.098865423999939, 0.0 ], [ 113.142028700000083, -7.099055779999958, 0.0 ], [ 113.142219055000055, -7.099255655999968, 0.0 ], [ 113.142409413000109, -7.099465046999967, 0.0 ], [ 113.142741744000091, -7.099740271999963, 0.0 ], [ 113.142932101000042, -7.099797378999938, 0.0 ], [ 113.14326522600004, -7.099844969999936, 0.0 ], [ 113.143579314000021, -7.099825934999956, 0.0 ], [ 113.143826778000061, -7.09985448599997, 0.0 ], [ 113.144064724000032, -7.09985448599997, 0.0 ], [ 113.14435026000001, -7.09985448599997, 0.0 ], [ 113.14481616, -7.099926029999949, 0.0 ], [ 113.144596921000016, -7.099086961999944, 0.0 ], [ 113.144500081000047, -7.09833797999994, 0.0 ], [ 113.144461921000016, -7.097687008999969, 0.0 ], [ 113.14550592, -7.097788979999962, 0.0 ], [ 113.146387919000063, -7.097706, 0.0 ], [ 113.147492041000078, -7.097517989999972, 0.0 ], [ 113.148596880000014, -7.097346989999949, 0.0 ], [ 113.149551960000053, -7.097174998999947, 0.0 ], [ 113.150412, -7.09702496999995, 0.0 ], [ 113.151111841000102, -7.096935959999939, 0.0 ], [ 113.152660920000017, -7.096715009999969, 0.0 ], [ 113.153546880000022, -7.09677, 0.0 ], [ 113.154216119000012, -7.096914, 0.0 ], [ 113.155293961000098, -7.097357969999962, 0.0 ], [ 113.156166959000075, -7.097828038999978, 0.0 ], [ 113.156956079000111, -7.098192990999962, 0.0 ], [ 113.157696960000067, -7.098485039999957, 0.0 ], [ 113.15895984000008, -7.098760979999952, 0.0 ], [ 113.159655001000033, -7.098940979999952, 0.0 ], [ 113.16034799800002, -7.099052039999947, 0.0 ], [ 113.161096081000096, -7.099306018999926, 0.0 ], [ 113.161681081000097, -7.099595998999973, 0.0 ], [ 113.1622639200001, -7.099791029999949, 0.0 ], [ 113.162955120000106, -7.099853039999971, 0.0 ], [ 113.163293159000091, -7.099829998999951, 0.0 ], [ 113.16366, -7.099712998999962, 0.0 ], [ 113.164119001000017, -7.099342019999938, 0.0 ], [ 113.164373880000085, -7.098621029999947, 0.0 ], [ 113.164695, -7.097810038999967, 0.0 ], [ 113.165048880000086, -7.097280028999933, 0.0 ], [ 113.165697960000102, -7.096314960999962, 0.0 ], [ 113.166060840000114, -7.09564598999998, 0.0 ], [ 113.166565920000039, -7.094905020999931, 0.0 ], [ 113.167059839000103, -7.094213998999976, 0.0 ], [ 113.167545120000113, -7.093648981999934, 0.0 ], [ 113.168103120000069, -7.093206001999931, 0.0 ], [ 113.168504880000114, -7.092830969999966, 0.0 ], [ 113.168607119000058, -7.092446038999981, 0.0 ], [ 113.168559960000039, -7.091702009999949, 0.0 ], [ 113.168401920000065, -7.090817041999969, 0.0 ], [ 113.168251081000108, -7.089926039999966, 0.0 ], [ 113.168202121000036, -7.089544978999925, 0.0 ], [ 113.168256841000016, -7.089281008999933, 0.0 ], [ 113.168625841000107, -7.089012989999958, 0.0 ], [ 113.169278881000082, -7.088861968999936, 0.0 ], [ 113.169880080000098, -7.088806978999969, 0.0 ], [ 113.170897078000053, -7.088859, 0.0 ], [ 113.171688, -7.088892029999954, 0.0 ], [ 113.172517079000045, -7.088918038999964, 0.0 ], [ 113.173146, -7.089005971999939, 0.0 ], [ 113.173662960000115, -7.089084989999947, 0.0 ], [ 113.173940881000021, -7.089157978999935, 0.0 ], [ 113.174150040000086, -7.089252030999944, 0.0 ], [ 113.174163001000011, -7.089257970999938, 0.0 ], [ 113.174349840000104, -7.089647041999967, 0.0 ], [ 113.174434081000072, -7.090152031999935, 0.0 ], [ 113.174516160000053, -7.091027009999948, 0.0 ], [ 113.174619840000105, -7.091994959999965, 0.0 ], [ 113.174786161000043, -7.092735029999972, 0.0 ], [ 113.175133919000018, -7.093695958999945, 0.0 ], [ 113.175452160000077, -7.094287979999933, 0.0 ], [ 113.175735838000037, -7.094773978999967, 0.0 ], [ 113.175937081000029, -7.095013019999953, 0.0 ], [ 113.176233, -7.09504802999993, 0.0 ], [ 113.176965960000075, -7.094807011999933, 0.0 ], [ 113.17771296, -7.094635021999977, 0.0 ], [ 113.178295081000101, -7.094592989999967, 0.0 ], [ 113.178597840000066, -7.094664990999945, 0.0 ], [ 113.179075921000049, -7.095126961999938, 0.0 ], [ 113.179654078000112, -7.095817979999936, 0.0 ], [ 113.180144040000073, -7.096492979999937, 0.0 ], [ 113.180852880000089, -7.097688991999973, 0.0 ], [ 113.181449040000075, -7.098647038999957, 0.0 ], [ 113.181918838000115, -7.099497989999975, 0.0 ], [ 113.182245, -7.100071019999973, 0.0 ], [ 113.182279920000042, -7.100506978999931, 0.0 ], [ 113.182307999000045, -7.100633969999933, 0.0 ], [ 113.182553160000111, -7.100934030999952, 0.0 ], [ 113.182824959000072, -7.101124019999929, 0.0 ], [ 113.18350104000001, -7.101430019999952, 0.0 ], [ 113.18395608000003, -7.101658978999978, 0.0 ], [ 113.184267841000064, -7.101892978999956, 0.0 ], [ 113.184574920000045, -7.102123021999944, 0.0 ], [ 113.18523588000005, -7.102559971999938, 0.0 ], [ 113.185197, -7.102868041999955, 0.0 ], [ 113.18519591900008, -7.103087008999978, 0.0 ], [ 113.185262878000117, -7.103282039999954, 0.0 ], [ 113.185872, -7.103835001999926, 0.0 ], [ 113.185978920000025, -7.104168, 0.0 ], [ 113.186017081000045, -7.104275998999981, 0.0 ], [ 113.186116081000023, -7.105112009999971, 0.0 ], [ 113.186054880000029, -7.106010029999936, 0.0 ], [ 113.186076840000055, -7.106535, 0.0 ], [ 113.186279160000026, -7.107230968999943, 0.0 ], [ 113.186617918000024, -7.108117019999952, 0.0 ], [ 113.186887920000117, -7.108973009999943, 0.0 ], [ 113.187018959000056, -7.109802001999981, 0.0 ], [ 113.187201840000057, -7.110911969999961, 0.0 ], [ 113.187435120000032, -7.11156897199993, 0.0 ], [ 113.187584160000029, -7.111788029999957, 0.0 ], [ 113.187659040000085, -7.111946969999963, 0.0 ], [ 113.187758039000073, -7.112212019999959, 0.0 ], [ 113.187791880000077, -7.112424961999977, 0.0 ], [ 113.18777388, -7.112925989999951, 0.0 ], [ 113.187738958000068, -7.113256020999927, 0.0 ], [ 113.187714840000012, -7.11333998899994, 0.0 ], [ 113.187654, -7.113510989999952, 0.0 ], [ 113.187441960000115, -7.114133969999955, 0.0 ], [ 113.187466080000036, -7.114763969999956, 0.0 ], [ 113.187521880000077, -7.115069969999979, 0.0 ], [ 113.187669840000012, -7.115455979999979, 0.0 ], [ 113.187771000000112, -7.115777009999931, 0.0 ], [ 113.187876119000066, -7.115994988999944, 0.0 ], [ 113.188069080000105, -7.116393958999936, 0.0 ], [ 113.188281841000048, -7.117025040999977, 0.0 ], [ 113.188330080000014, -7.117139968999936, 0.0 ], [ 113.18822496000007, -7.117315021999957, 0.0 ], [ 113.188074840000013, -7.11775800199996, 0.0 ], [ 113.187989161000019, -7.118249038999977, 0.0 ], [ 113.18803704100003, -7.118817030999935, 0.0 ], [ 113.188791958000024, -7.119779039999969, 0.0 ], [ 113.189106960000117, -7.120233000999974, 0.0 ], [ 113.1894021600001, -7.120674988999951, 0.0 ], [ 113.18945184100005, -7.12108700899995, 0.0 ], [ 113.189460121000025, -7.121574989999942, 0.0 ], [ 113.189415841000027, -7.122228029999974, 0.0 ], [ 113.189541840000061, -7.12266902999994, 0.0 ], [ 113.189754961000062, -7.123083028999929, 0.0 ], [ 113.190063840000107, -7.123367971999926, 0.0 ], [ 113.190487921000113, -7.123487039999929, 0.0 ], [ 113.190841080000041, -7.123338989999979, 0.0 ], [ 113.191142040000045, -7.123111019999953, 0.0 ], [ 113.191333920000034, -7.12292003999994, 0.0 ], [ 113.191544160000035, -7.122732028999962, 0.0 ], [ 113.191778160000013, -7.122663, 0.0 ], [ 113.193033305000085, -7.123111126999959, 0.0 ], [ 113.193053393000014, -7.12316003799998, 0.0 ], [ 113.193214331000036, -7.123551887999952, 0.0 ], [ 113.19325221500003, -7.123644125999931, 0.0 ], [ 113.193231129000083, -7.123689811999952, 0.0 ], [ 113.193152278000071, -7.123860656999966, 0.0 ], [ 113.193145888000117, -7.124081155999932, 0.0 ], [ 113.193138002000069, -7.124353204999977, 0.0 ], [ 113.193056148000096, -7.124489904999962, 0.0 ], [ 113.192984764000016, -7.124558314999945, 0.0 ], [ 113.192936727000074, -7.124551284999939, 0.0 ], [ 113.192862816000115, -7.124540468999953, 0.0 ], [ 113.192605538000066, -7.124825007999959, 0.0 ], [ 113.192449385000032, -7.125117487999944, 0.0 ], [ 113.19243153900004, -7.125343536999935, 0.0 ], [ 113.192413693000049, -7.125507124999956, 0.0 ], [ 113.19224865700005, -7.125785850999932, 0.0 ], [ 113.192309158000057, -7.127355958999942, 0.0 ], [ 113.192357040000047, -7.12786202999996, 0.0 ], [ 113.192505, -7.128465028999926, 0.0 ], [ 113.192733960000055, -7.129019969999945, 0.0 ], [ 113.192744996000101, -7.12963782099996, 0.0 ], [ 113.192754840000021, -7.130188978999968, 0.0 ], [ 113.192916838000087, -7.131223979999959, 0.0 ], [ 113.192921880000085, -7.13190095899995, 0.0 ], [ 113.192786161000072, -7.132629961999953, 0.0 ], [ 113.192412120000085, -7.134299011999929, 0.0 ], [ 113.192349120000017, -7.135136011999975, 0.0 ], [ 113.192375040000115, -7.135765019999951, 0.0 ], [ 113.192458920000036, -7.136921971999925, 0.0 ], [ 113.192525881000051, -7.136964991999946, 0.0 ], [ 113.192602920000013, -7.137233009999932, 0.0 ], [ 113.192588161000117, -7.137474028999975, 0.0 ], [ 113.19230303900008, -7.137860039999964, 0.0 ], [ 113.19226092100007, -7.137937981999926, 0.0 ], [ 113.192305920000081, -7.138072980999937, 0.0 ], [ 113.192431919000114, -7.138195018999966, 0.0 ], [ 113.192791920000104, -7.138261978999935, 0.0 ], [ 113.193214921000049, -7.138395989999935, 0.0 ], [ 113.193768960000057, -7.138522981999927, 0.0 ], [ 113.194163159000027, -7.138564018999944, 0.0 ], [ 113.19456888000002, -7.138311028999965, 0.0 ], [ 113.19498504, -7.138034008999966, 0.0 ], [ 113.19525684000007, -7.137907020999933, 0.0 ], [ 113.195490840000048, -7.138007009999967, 0.0 ], [ 113.195639879000055, -7.13808395999996, 0.0 ], [ 113.197124160000044, -7.138407959999938, 0.0 ], [ 113.197959, -7.138682009999968, 0.0 ], [ 113.198830921000081, -7.139302019999946, 0.0 ], [ 113.199164924000115, -7.140157860999977, 0.0 ], [ 113.199170040000013, -7.140170968999939, 0.0 ], [ 113.198816160000092, -7.140450959999953, 0.0 ], [ 113.198180185000069, -7.14092580199997, 0.0 ], [ 113.19702408, -7.141788989999952, 0.0 ], [ 113.196575879000079, -7.142133959999967, 0.0 ], [ 113.196385080000027, -7.142290018999972, 0.0 ], [ 113.197374, -7.142876010999942, 0.0 ], [ 113.198348160000023, -7.143570989999944, 0.0 ], [ 113.198393586000066, -7.143601094999951, 0.0 ], [ 113.198236559000065, -7.143661232999932, 0.0 ], [ 113.198194917000023, -7.14374451499998, 0.0 ], [ 113.198177071000032, -7.143899178999959, 0.0 ], [ 113.198171123000066, -7.144147833999966, 0.0 ], [ 113.198075944000038, -7.144357224999965, 0.0 ], [ 113.19799028500006, -7.144576136999945, 0.0 ], [ 113.197961730000088, -7.144737938999981, 0.0 ], [ 113.197885586000098, -7.144937813999945, 0.0 ], [ 113.197633363000023, -7.145047268999974, 0.0 ], [ 113.197456889000023, -7.145062734999954, 0.0 ], [ 113.197423575000016, -7.145105566999973, 0.0 ], [ 113.197361711000099, -7.145210261999978, 0.0 ], [ 113.197252254000091, -7.145319718999929, 0.0 ], [ 113.197209424000107, -7.145391100999973, 0.0 ], [ 113.197157076000053, -7.145510073999958, 0.0 ], [ 113.197076174000017, -7.14550531499998, 0.0 ], [ 113.196971479000013, -7.145728986999927, 0.0 ], [ 113.196776363000026, -7.14586699299997, 0.0 ], [ 113.196571728000094, -7.145871751999948, 0.0 ], [ 113.196424203000106, -7.145881270999951, 0.0 ], [ 113.19621956800006, -7.145895546999952, 0.0 ], [ 113.195948310000063, -7.14592410299997, 0.0 ], [ 113.195972103000031, -7.145819403999951, 0.0 ], [ 113.195967345000099, -7.145748021999964, 0.0 ], [ 113.195929274000036, -7.145719466999935, 0.0 ], [ 113.195753194000076, -7.14568139499994, 0.0 ], [ 113.195491454000035, -7.145643323999934, 0.0 ], [ 113.19539627600011, -7.145624287999965, 0.0 ], [ 113.195286819000103, -7.145671879999952, 0.0 ], [ 113.19524874800004, -7.145771814999932, 0.0 ], [ 113.195210677000091, -7.145881270999951, 0.0 ], [ 113.195166420000078, -7.145987869999942, 0.0 ], [ 113.195048510000106, -7.146079232999966, 0.0 ], [ 113.194984628000043, -7.146128733999944, 0.0 ], [ 113.194700878000049, -7.146144794999941, 0.0 ], [ 113.194629493000093, -7.146192385999939, 0.0 ], [ 113.194534315000055, -7.146198334999951, 0.0 ], [ 113.19445698200002, -7.146251870999947, 0.0 ], [ 113.194391548000112, -7.146347049999974, 0.0 ], [ 113.194338009000035, -7.146382740999968, 0.0 ], [ 113.19410601200002, -7.146376792999945, 0.0 ], [ 113.193903758000033, -7.146466022999959, 0.0 ], [ 113.193796682000084, -7.146537406999926, 0.0 ], [ 113.193784785000048, -7.146608790999949, 0.0 ], [ 113.193784785000048, -7.146686122999938, 0.0 ], [ 113.193766940000046, -7.146781300999976, 0.0 ], [ 113.193725297000015, -7.146858633999955, 0.0 ], [ 113.193647967000061, -7.147031144999971, 0.0 ], [ 113.193653915000027, -7.147138220999977, 0.0 ], [ 113.193657740000049, -7.14722237899997, 0.0 ], [ 113.193659863000107, -7.147269092999977, 0.0 ], [ 113.193671760000029, -7.147411857999941, 0.0 ], [ 113.193680478000033, -7.147501940999973, 0.0 ], [ 113.193689606000021, -7.147596266999926, 0.0 ], [ 113.193707452000012, -7.147739033999926, 0.0 ], [ 113.193766940000046, -7.147858006999968, 0.0 ], [ 113.193822011000066, -7.147914801999946, 0.0 ], [ 113.193957296, -7.148054312999932, 0.0 ], [ 113.19404652500009, -7.148107851999953, 0.0 ], [ 113.194058423000115, -7.148203029999934, 0.0 ], [ 113.194010833000107, -7.148250618999953, 0.0 ], [ 113.193921604000025, -7.148274412999967, 0.0 ], [ 113.193784785000048, -7.148369590999948, 0.0 ], [ 113.193487352000034, -7.148464769999975, 0.0 ], [ 113.19339217400011, -7.148536155999977, 0.0 ], [ 113.193338637000011, -7.148601588999952, 0.0 ], [ 113.193231561000061, -7.148613485999931, 0.0 ], [ 113.193100690000051, -7.148607536999975, 0.0 ], [ 113.192850846000056, -7.148607536999975, 0.0 ], [ 113.192522481000083, -7.148531394999964, 0.0 ], [ 113.192447527000013, -7.148538532999964, 0.0 ], [ 113.192390420000038, -7.148577793999948, 0.0 ], [ 113.192372574000046, -7.148609916999931, 0.0 ], [ 113.192340452000053, -7.148652746999971, 0.0 ], [ 113.19229762100008, -7.148692008999944, 0.0 ], [ 113.192272637000087, -7.148734838999928, 0.0 ], [ 113.191894303000026, -7.148713423999936, 0.0 ], [ 113.191796745000033, -7.148674164999932, 0.0 ], [ 113.191561773000103, -7.148534368999947, 0.0 ], [ 113.191389264, -7.148468933999936, 0.0 ], [ 113.191282188000059, -7.148474882999949, 0.0 ], [ 113.191192958000101, -7.148516522999955, 0.0 ], [ 113.191060898000046, -7.148646205999967, 0.0 ], [ 113.190960960000098, -7.148655721999944, 0.0 ], [ 113.19074204900005, -7.148665241999936, 0.0 ], [ 113.190185256000063, -7.148565302999941, 0.0 ], [ 113.190017773000022, -7.148537093999948, 0.0 ], [ 113.189733157000092, -7.148489160999929, 0.0 ], [ 113.189442782000015, -7.148454996999931, 0.0 ], [ 113.18940955100004, -7.14845108999998, 0.0 ], [ 113.189242988000046, -7.148384462999957, 0.0 ], [ 113.189104980000025, -7.148384462999957, 0.0 ], [ 113.188928900000064, -7.148441569999932, 0.0 ], [ 113.18880992600009, -7.148441569999932, 0.0 ], [ 113.188664697000036, -7.148422876999973, 0.0 ], [ 113.188329275000115, -7.148379703999979, 0.0 ], [ 113.188091329000031, -7.148360668999942, 0.0 ], [ 113.187926553000011, -7.148351625999965, 0.0 ], [ 113.187862306000056, -7.14840873299994, 0.0 ], [ 113.187723840000103, -7.148480040999971, 0.0 ], [ 113.187669569000036, -7.148544364999964, 0.0 ], [ 113.187658862000035, -7.148565777999977, 0.0 ], [ 113.18760889400005, -7.148672853999926, 0.0 ], [ 113.187583909000068, -7.14874780599996, 0.0 ], [ 113.187512524000113, -7.148808482999925, 0.0 ], [ 113.187416159, -7.148776359999943, 0.0 ], [ 113.187294805000079, -7.148708546999956, 0.0 ], [ 113.187198437, -7.148662145999936, 0.0 ], [ 113.187087793000046, -7.148637161999943, 0.0 ], [ 113.187012840000079, -7.148655007999935, 0.0 ], [ 113.186916470000028, -7.148657386999957, 0.0 ], [ 113.186509583000088, -7.148496773999966, 0.0 ], [ 113.186221787000022, -7.148336314999938, 0.0 ], [ 113.186124111000026, -7.148307605999946, 0.0 ], [ 113.186084849000054, -7.148321882999937, 0.0 ], [ 113.186067598000022, -7.148361143999978, 0.0 ], [ 113.185901037, -7.148480117999952, 0.0 ], [ 113.185669037000025, -7.14853960399995, 0.0 ], [ 113.185603603000118, -7.148521757999958, 0.0 ], [ 113.185508424000091, -7.148533654999937, 0.0 ], [ 113.185389451000106, -7.148587192999969, 0.0 ], [ 113.185318067000026, -7.148628833999965, 0.0 ], [ 113.185193146000074, -7.14867047599995, 0.0 ], [ 113.185169352000116, -7.148694268999975, 0.0 ], [ 113.185097967000047, -7.148801344999981, 0.0 ], [ 113.184990178000021, -7.148858451999956, 0.0 ], [ 113.184899758000029, -7.148801344999981, 0.0 ], [ 113.18479982100007, -7.14872520199998, 0.0 ], [ 113.184728437000103, -7.148672853999926, 0.0 ], [ 113.184642776000032, -7.14872520199998, 0.0 ], [ 113.184614224000029, -7.148810861999948, 0.0 ], [ 113.184623741000109, -7.148829897999974, 0.0 ], [ 113.184623741000109, -7.148891764999973, 0.0 ], [ 113.184647534000078, -7.148948870999959, 0.0 ], [ 113.184723678000069, -7.149048809999954, 0.0 ], [ 113.184723678000069, -7.149139227999967, 0.0 ], [ 113.184723678000069, -7.149310548999949, 0.0 ], [ 113.184699883, -7.149453316999939, 0.0 ], [ 113.184666571000093, -7.149619878999943, 0.0 ], [ 113.184590428000092, -7.149800717999938, 0.0 ], [ 113.184404830000062, -7.149829273999956, 0.0 ], [ 113.184333446000096, -7.149872101999961, 0.0 ], [ 113.184304894000093, -7.149967280999931, 0.0 ], [ 113.184309652000024, -7.150071976999925, 0.0 ], [ 113.184281098000042, -7.150148119999926, 0.0 ], [ 113.184195438000074, -7.150186190999932, 0.0 ], [ 113.183967008000081, -7.150195709999934, 0.0 ], [ 113.183848036000086, -7.150243297999964, 0.0 ], [ 113.183743656000047, -7.150294772999928, 0.0 ], [ 113.183696068000017, -7.150265029999957, 0.0 ], [ 113.183571148000055, -7.150187697999968, 0.0 ], [ 113.183511660000022, -7.150110366999968, 0.0 ], [ 113.183380790000115, -7.149997342999939, 0.0 ], [ 113.183261818, -7.149973545999956, 0.0 ], [ 113.18307639000011, -7.150075275999939, 0.0 ], [ 113.18294484, -7.149953969999956, 0.0 ], [ 113.182373880000114, -7.149875039999927, 0.0 ], [ 113.181905880000045, -7.149909959999945, 0.0 ], [ 113.181233041000041, -7.149951990999966, 0.0 ], [ 113.180514838000022, -7.149940021999953, 0.0 ], [ 113.179299121000099, -7.149845969999944, 0.0 ], [ 113.178009959000065, -7.149723028999972, 0.0 ], [ 113.177643840000087, -7.149933991999944, 0.0 ], [ 113.17716684100003, -7.150107959999957, 0.0 ], [ 113.176707840000063, -7.150186979999944, 0.0 ], [ 113.176475998000114, -7.150165019999974, 0.0 ], [ 113.175052918, -7.149895018999928, 0.0 ], [ 113.174886342000036, -7.149880631999963, 0.0 ], [ 113.174786161000043, -7.149871981999979, 0.0 ], [ 113.174569080000083, -7.149851998999964, 0.0 ], [ 113.174021880000055, -7.149830039999927, 0.0 ], [ 113.173605, -7.14990698899993, 0.0 ], [ 113.173296840000035, -7.149922021999942, 0.0 ], [ 113.172550920000049, -7.149825, 0.0 ], [ 113.17232196100008, -7.149869009999975, 0.0 ], [ 113.172027121000042, -7.149998968999967, 0.0 ], [ 113.171635080000101, -7.150167991999979, 0.0 ], [ 113.171451841000021, -7.150191028999927, 0.0 ], [ 113.17117896000002, -7.150212989999943, 0.0 ], [ 113.170956120000028, -7.15032395999998, 0.0 ], [ 113.170709880000118, -7.150483979999933, 0.0 ], [ 113.170533840000076, -7.150563989999966, 0.0 ], [ 113.170330080000099, -7.150584959999946, 0.0 ], [ 113.169947040000011, -7.151060971999925, 0.0 ], [ 113.169552840000051, -7.151499, 0.0 ], [ 113.169218041000022, -7.151952960999949, 0.0 ], [ 113.168081160000042, -7.152168961999962, 0.0 ], [ 113.167857960000106, -7.152418978999947, 0.0 ], [ 113.167634039000063, -7.152669, 0.0 ], [ 113.16702204, -7.152928019999933, 0.0 ], [ 113.166768960000013, -7.153275959999974, 0.0 ], [ 113.166564121000079, -7.153613009999958, 0.0 ], [ 113.166383038000049, -7.154130958999929, 0.0 ], [ 113.166408961000116, -7.154692018999981, 0.0 ], [ 113.166370080000092, -7.155191970999965, 0.0 ], [ 113.166158041000017, -7.155542970999932, 0.0 ], [ 113.165711999000109, -7.155665008999961, 0.0 ], [ 113.165232118000063, -7.155520019999926, 0.0 ], [ 113.164614, -7.155179009999927, 0.0 ], [ 113.164058161000071, -7.154624969999929, 0.0 ], [ 113.163631921000047, -7.154253, 0.0 ], [ 113.163176159000045, -7.154070028999968, 0.0 ], [ 113.162730839, -7.154017021999948, 0.0 ], [ 113.16238992000001, -7.154102971999976, 0.0 ], [ 113.16215808000004, -7.154261008999981, 0.0 ], [ 113.162002920000077, -7.154629019999959, 0.0 ], [ 113.161884840000084, -7.155543961999967, 0.0 ], [ 113.161842, -7.156611989999931, 0.0 ], [ 113.161901040000089, -7.158210030999953, 0.0 ], [ 113.16175307900005, -7.158764969999936, 0.0 ], [ 113.161182121000024, -7.160094000999948, 0.0 ], [ 113.161143961000107, -7.160185979999937, 0.0 ], [ 113.161137841000027, -7.160337, 0.0 ], [ 113.161145041000054, -7.160414039999978, 0.0 ], [ 113.161170960000049, -7.160930008999969, 0.0 ], [ 113.161123080000038, -7.160984998999936, 0.0 ], [ 113.161048920000098, -7.161049979999973, 0.0 ], [ 113.160737881000045, -7.161253021999926, 0.0 ], [ 113.160489120000079, -7.16139, 0.0 ], [ 113.160261959000081, -7.161481979999962, 0.0 ], [ 113.159724840000081, -7.16164704199997, 0.0 ], [ 113.159658959000012, -7.161713009999971, 0.0 ], [ 113.1590401200001, -7.161822988999972, 0.0 ], [ 113.158827784000096, -7.161839071999964, 0.0 ], [ 113.158757132, -7.161802327999965, 0.0 ], [ 113.158533462000037, -7.161673836999967, 0.0 ], [ 113.158391885000015, -7.161557243999937, 0.0 ], [ 113.158290758000021, -7.161491809999973, 0.0 ], [ 113.158194390000062, -7.161450167999931, 0.0 ], [ 113.158019499000034, -7.161418044999948, 0.0 ], [ 113.157831729, -7.161382241999945, 0.0 ], [ 113.157805562000021, -7.161358323999934, 0.0 ], [ 113.157664960000034, -7.161188426999956, 0.0 ], [ 113.157523383000012, -7.160961188999977, 0.0 ], [ 113.157369906000099, -7.160682791999932, 0.0 ], [ 113.15731279900001, -7.16062806399998, 0.0 ], [ 113.157208104, -7.160581664999938, 0.0 ], [ 113.157027263000032, -7.160556679999956, 0.0 ], [ 113.156826200000069, -7.160555490999968, 0.0 ], [ 113.156474781000043, -7.160485890999951, 0.0 ], [ 113.156149244000062, -7.160441275999972, 0.0 ], [ 113.156019561000107, -7.160429378999936, 0.0 ], [ 113.155891071000042, -7.160378220999974, 0.0 ], [ 113.155694766000011, -7.160278282999968, 0.0 ], [ 113.155567465000104, -7.160186673999931, 0.0 ], [ 113.155522255000051, -7.160114100999976, 0.0 ], [ 113.155512737000095, -7.16006889099998, 0.0 ], [ 113.15551868600005, -7.159997506999957, 0.0 ], [ 113.155556757000113, -7.159836892999976, 0.0 ], [ 113.155557948000023, -7.159714350999934, 0.0 ], [ 113.15554248, -7.159608465999952, 0.0 ], [ 113.155512737000095, -7.159509716999935, 0.0 ], [ 113.155447777000063, -7.159349346999932, 0.0 ], [ 113.155416438000088, -7.159251942999958, 0.0 ], [ 113.155380746000105, -7.158880748999934, 0.0 ], [ 113.155387885000096, -7.158596638999938, 0.0 ], [ 113.155385029000058, -7.15847243099995, 0.0 ], [ 113.155349338000065, -7.158365354999944, 0.0 ], [ 113.155280809000033, -7.158268272999976, 0.0 ], [ 113.155196577000083, -7.158208310999953, 0.0 ], [ 113.155093784000087, -7.158185467999942, 0.0 ], [ 113.154989563000072, -7.158201172999952, 0.0 ], [ 113.154765418000011, -7.158261134999975, 0.0 ], [ 113.15464909700006, -7.158274819999974, 0.0 ], [ 113.154619795000031, -7.158278267999947, 0.0 ], [ 113.154554122000036, -7.158261134999975, 0.0 ], [ 113.15431998300005, -7.158154058999969, 0.0 ], [ 113.154180070000052, -7.158065544999943, 0.0 ], [ 113.154064429000073, -7.157988448999959, 0.0 ], [ 113.153701799000032, -7.157641522999938, 0.0 ], [ 113.1534288470001, -7.157456232999948, 0.0 ], [ 113.153310615, -7.157375974999979, 0.0 ], [ 113.153073622000079, -7.157264616999953, 0.0 ], [ 113.152992245000064, -7.157247484999971, 0.0 ], [ 113.152826349000065, -7.157237346999977, 0.0 ], [ 113.152701961000048, -7.157189969999934, 0.0 ], [ 113.152169696000101, -7.157041209999932, 0.0 ], [ 113.152095476000113, -7.157020465999949, 0.0 ], [ 113.151948375000075, -7.156971858999952, 0.0 ], [ 113.151759208000044, -7.156933786999957, 0.0 ], [ 113.15158907600005, -7.156915940999966, 0.0 ], [ 113.151255952000042, -7.156911181999931, 0.0 ], [ 113.150828838000052, -7.156920699999944, 0.0 ], [ 113.150551629, -7.156921889999978, 0.0 ], [ 113.15027323400011, -7.156945684999926, 0.0 ], [ 113.149941591000015, -7.156976479999969, 0.0 ], [ 113.149636728000019, -7.156975429999932, 0.0 ], [ 113.149483252000095, -7.156958771999939, 0.0 ], [ 113.149335251000025, -7.15693067899997, 0.0 ], [ 113.149241976000098, -7.156882137999958, 0.0 ], [ 113.149166784000045, -7.156821225999977, 0.0 ], [ 113.149061136000114, -7.15669463699993, 0.0 ], [ 113.148935500000107, -7.156523314999959, 0.0 ], [ 113.148767880000037, -7.156269990999931, 0.0 ], [ 113.148652822000031, -7.156137842999954, 0.0 ], [ 113.148539558000039, -7.156054085999926, 0.0 ], [ 113.148266395000064, -7.155931305999957, 0.0 ], [ 113.148109352, -7.155887522999933, 0.0 ], [ 113.147772419000034, -7.155820898999934, 0.0 ], [ 113.147572545000116, -7.155814237999948, 0.0 ], [ 113.147305094000103, -7.155831367999951, 0.0 ], [ 113.147029076000081, -7.155874197999935, 0.0 ], [ 113.146827299000051, -7.155910365999944, 0.0 ], [ 113.146719746000031, -7.155937967999932, 0.0 ], [ 113.146615050000037, -7.155976990999932, 0.0 ], [ 113.146528439, -7.156016965999981, 0.0 ], [ 113.146211996000034, -7.156227091999938, 0.0 ], [ 113.146183910000104, -7.156244279999953, 0.0 ], [ 113.145909840000058, -7.156412011999976, 0.0 ], [ 113.14562993800007, -7.156657087999974, 0.0 ], [ 113.144904931000042, -7.157125319999977, 0.0 ], [ 113.144607731000065, -7.157257106999964, 0.0 ], [ 113.144509231000029, -7.157282069999951, 0.0 ], [ 113.144343840000033, -7.157323979999944, 0.0 ], [ 113.144226840000101, -7.157349, 0.0 ], [ 113.143948919000081, -7.157383018999951, 0.0 ], [ 113.143601161000106, -7.157374019999963, 0.0 ], [ 113.14351798000007, -7.157368574999964, 0.0 ], [ 113.142994224000063, -7.157339471999933, 0.0 ], [ 113.142830040000035, -7.157308537999938, 0.0 ], [ 113.142727726000089, -7.157275224999978, 0.0 ], [ 113.142618269000081, -7.157203840999955, 0.0 ], [ 113.142460179000068, -7.15707625899995, 0.0 ], [ 113.142211382000028, -7.156875475999925, 0.0 ], [ 113.141963918000101, -7.156689879999931, 0.0 ], [ 113.141602240000111, -7.156454310999948, 0.0 ], [ 113.141188213000078, -7.156249677999938, 0.0 ], [ 113.140985776000093, -7.156255132999945, 0.0 ], [ 113.140897920000043, -7.156239030999927, 0.0 ] ] ] ] } }
]
}
