{
"type": "FeatureCollection",
"name": "Kec_Tambelangan",
"crs": { "type": "name", "properties": { "name": "urn:ogc:def:crs:OGC:1.3:CRS84" } },
"features": [
{ "type": "Feature", "properties": { "OBJECTID": 9466.0, "NAMOBJ": "Banjarbillah", "FCODE": "BA03070040", "METADATA": "TASWIL1000020221227_DATA_BATAS_DESAKELURAHAN", "SRS_ID": "SRGI 2013", "KDCPUM": "35.27.08", "KDEPUM": "35.27.08.2008", "KDPKAB": "35.27", "KDPPUM": "35", "LUASWH": 0.0, "TIPADM": 1.0, "WADMKC": "Tambelangan", "WADMKD": "Banjarbillah", "WADMKK": "Sampang", "WADMPR": "Jawa Timur", "UUPP": "Hasil Delineasi Batas Desa 2019", "LUAS": 9.47599778 }, "geometry": { "type": "MultiPolygon", "coordinates": [ [ [ [ 113.168401920000065, -7.090817041999969, 0.0 ], [ 113.168559960000039, -7.091702009999949, 0.0 ], [ 113.168607119000058, -7.092446038999981, 0.0 ], [ 113.168504880000114, -7.092830969999966, 0.0 ], [ 113.168103120000069, -7.093206001999931, 0.0 ], [ 113.167545120000113, -7.093648981999934, 0.0 ], [ 113.167059839000103, -7.094213998999976, 0.0 ], [ 113.166565920000039, -7.094905020999931, 0.0 ], [ 113.166060840000114, -7.09564598999998, 0.0 ], [ 113.165697960000102, -7.096314960999962, 0.0 ], [ 113.165048880000086, -7.097280028999933, 0.0 ], [ 113.164695, -7.097810038999967, 0.0 ], [ 113.164373880000085, -7.098621029999947, 0.0 ], [ 113.164119001000017, -7.099342019999938, 0.0 ], [ 113.16366, -7.099712998999962, 0.0 ], [ 113.163293159000091, -7.099829998999951, 0.0 ], [ 113.162955120000106, -7.099853039999971, 0.0 ], [ 113.1622639200001, -7.099791029999949, 0.0 ], [ 113.161681081000097, -7.099595998999973, 0.0 ], [ 113.161096081000096, -7.099306018999926, 0.0 ], [ 113.16034799800002, -7.099052039999947, 0.0 ], [ 113.159655001000033, -7.098940979999952, 0.0 ], [ 113.15895984000008, -7.098760979999952, 0.0 ], [ 113.157696960000067, -7.098485039999957, 0.0 ], [ 113.156956079000111, -7.098192990999962, 0.0 ], [ 113.156166959000075, -7.097828038999978, 0.0 ], [ 113.155293961000098, -7.097357969999962, 0.0 ], [ 113.154216119000012, -7.096914, 0.0 ], [ 113.153546880000022, -7.09677, 0.0 ], [ 113.152660920000017, -7.096715009999969, 0.0 ], [ 113.151111841000102, -7.096935959999939, 0.0 ], [ 113.150412, -7.09702496999995, 0.0 ], [ 113.149551960000053, -7.097174998999947, 0.0 ], [ 113.148596880000014, -7.097346989999949, 0.0 ], [ 113.147492041000078, -7.097517989999972, 0.0 ], [ 113.146387919000063, -7.097706, 0.0 ], [ 113.14550592, -7.097788979999962, 0.0 ], [ 113.144461921000016, -7.097687008999969, 0.0 ], [ 113.144500081000047, -7.09833797999994, 0.0 ], [ 113.144596921000016, -7.099086961999944, 0.0 ], [ 113.14481616, -7.099926029999949, 0.0 ], [ 113.14435026000001, -7.09985448599997, 0.0 ], [ 113.144064724000032, -7.09985448599997, 0.0 ], [ 113.143826778000061, -7.09985448599997, 0.0 ], [ 113.143579314000021, -7.099825934999956, 0.0 ], [ 113.14326522600004, -7.099844969999936, 0.0 ], [ 113.142932101000042, -7.099797378999938, 0.0 ], [ 113.142741744000091, -7.099740271999963, 0.0 ], [ 113.142409413000109, -7.099465046999967, 0.0 ], [ 113.142219055000055, -7.099255655999968, 0.0 ], [ 113.142028700000083, -7.099055779999958, 0.0 ], [ 113.141809789000035, -7.098865423999939, 0.0 ], [ 113.141581361000021, -7.098694103999946, 0.0 ], [ 113.141514735000101, -7.098656032999941, 0.0 ], [ 113.141275997000093, -7.098502953999969, 0.0 ], [ 113.141099881000059, -7.098494038999945, 0.0 ], [ 113.140653839000038, -7.098913980999953, 0.0 ], [ 113.140127880000023, -7.099373968999942, 0.0 ], [ 113.139459000000102, -7.099857001999965, 0.0 ], [ 113.139450677000013, -7.099865121999926, 0.0 ], [ 113.138916838000114, -7.100386020999963, 0.0 ], [ 113.138250840000069, -7.10098802899995, 0.0 ], [ 113.137846919000026, -7.101332008999975, 0.0 ], [ 113.137321682000106, -7.101744260999965, 0.0 ], [ 113.137772668000025, -7.100325618999932, 0.0 ], [ 113.137886884000068, -7.099944905999962, 0.0 ], [ 113.138105793000022, -7.099059745999966, 0.0 ], [ 113.138048686000047, -7.098659998999949, 0.0 ], [ 113.137991579000072, -7.098279282999954, 0.0 ], [ 113.137972543000046, -7.097965193999926, 0.0 ], [ 113.137972543000046, -7.09754640899996, 0.0 ], [ 113.138039168000091, -7.097146659999964, 0.0 ], [ 113.138060583000083, -7.09690752399996, 0.0 ], [ 113.13806536200002, -7.096834247999936, 0.0 ], [ 113.138078429000075, -7.09663388499996, 0.0 ], [ 113.137965405000045, -7.096324554999967, 0.0 ], [ 113.137890154000047, -7.095789435999961, 0.0 ], [ 113.137858329000096, -7.095563127999981, 0.0 ], [ 113.13788807200001, -7.095265694999966, 0.0 ], [ 113.137941610000098, -7.095116978999954, 0.0 ], [ 113.137929713000062, -7.094908775999954, 0.0 ], [ 113.137870225000029, -7.094700573999944, 0.0 ], [ 113.137810741000067, -7.094563756999946, 0.0 ], [ 113.137709612000094, -7.094438833999959, 0.0 ], [ 113.135590702000059, -7.094476904999965, 0.0 ], [ 113.132967120000103, -7.094233981999935, 0.0 ], [ 113.133530160000078, -7.093547009999952, 0.0 ], [ 113.134820040000022, -7.092194038999935, 0.0 ], [ 113.135182920000034, -7.090667008999958, 0.0 ], [ 113.134137120000105, -7.090692029999957, 0.0 ], [ 113.13301716, -7.090774021999948, 0.0 ], [ 113.132147041000053, -7.090844039999979, 0.0 ], [ 113.131542961000036, -7.090992988999972, 0.0 ], [ 113.13081684000008, -7.091240038999956, 0.0 ], [ 113.130050040000015, -7.091412028999969, 0.0 ], [ 113.129352, -7.091532989999962, 0.0 ], [ 113.128300080000031, -7.091588969999975, 0.0 ], [ 113.127977160000114, -7.09147295899993, 0.0 ], [ 113.127575038000032, -7.091234009999937, 0.0 ], [ 113.126406840000072, -7.090121969999927, 0.0 ], [ 113.125924080000118, -7.089761969999927, 0.0 ], [ 113.125371118000089, -7.089491970999973, 0.0 ], [ 113.125350960000105, -7.08938802199998, 0.0 ], [ 113.125130999000021, -7.089168959999938, 0.0 ], [ 113.124998880000021, -7.088986980999948, 0.0 ], [ 113.124853080000094, -7.088864040999965, 0.0 ], [ 113.124363121000101, -7.088451029999931, 0.0 ], [ 113.124108960000058, -7.088290018999942, 0.0 ], [ 113.124004921000051, -7.088139989999945, 0.0 ], [ 113.124000960000103, -7.08804504099993, 0.0 ], [ 113.123904840000023, -7.087865038999951, 0.0 ], [ 113.123892959000045, -7.087848030999965, 0.0 ], [ 113.123734920000061, -7.087636978999967, 0.0 ], [ 113.123598119, -7.087229998999931, 0.0 ], [ 113.123523960000057, -7.087102019999975, 0.0 ], [ 113.123356919000116, -7.086972960999958, 0.0 ], [ 113.123090160000061, -7.08684902899995, 0.0 ], [ 113.122522081000056, -7.086664980999956, 0.0 ], [ 113.122447920000013, -7.086408031999952, 0.0 ], [ 113.12237195900002, -7.086402, 0.0 ], [ 113.122364040000093, -7.086401010999964, 0.0 ], [ 113.122024920000058, -7.086380039999938, 0.0 ], [ 113.121470160000058, -7.086546, 0.0 ], [ 113.121432001000016, -7.086558958999944, 0.0 ], [ 113.121276118000083, -7.086611969999979, 0.0 ], [ 113.121014040000091, -7.08671303899996, 0.0 ], [ 113.120857078000085, -7.086772979999978, 0.0 ], [ 113.120613001000038, -7.086878009999964, 0.0 ], [ 113.120430839000051, -7.08705396199997, 0.0 ], [ 113.120364960000074, -7.087140989999966, 0.0 ], [ 113.120286121000049, -7.087244039999973, 0.0 ], [ 113.120119080000109, -7.087127039999928, 0.0 ], [ 113.12005608000004, -7.087124968999944, 0.0 ], [ 113.119832880000104, -7.087062959999969, 0.0 ], [ 113.119134120000012, -7.086826979999955, 0.0 ], [ 113.118638040000064, -7.086735989999966, 0.0 ], [ 113.118540120000034, -7.086681, 0.0 ], [ 113.118207839000092, -7.086621960999935, 0.0 ], [ 113.117964840000013, -7.086683970999957, 0.0 ], [ 113.11770492100004, -7.086825, 0.0 ], [ 113.117609160000029, -7.087052970999935, 0.0 ], [ 113.11752888, -7.08709499899993, 0.0 ], [ 113.117496120000055, -7.087112009999942, 0.0 ], [ 113.117271839000068, -7.087102019999975, 0.0 ], [ 113.116829040000084, -7.087087978999932, 0.0 ], [ 113.116514040000084, -7.087158000999978, 0.0 ], [ 113.116398120000099, -7.087269959999958, 0.0 ], [ 113.116251961000103, -7.087578031999954, 0.0 ], [ 113.115974039000093, -7.087973039999952, 0.0 ], [ 113.115642119000086, -7.088225039999941, 0.0 ], [ 113.115425040000105, -7.088289028999952, 0.0 ], [ 113.115156840000054, -7.088392979999981, 0.0 ], [ 113.114896921000081, -7.088560018999942, 0.0 ], [ 113.11434612000005, -7.088911018999966, 0.0 ], [ 113.113735920000067, -7.089483958999949, 0.0 ], [ 113.113406158000089, -7.089893011999948, 0.0 ], [ 113.113204920000044, -7.090142039999932, 0.0 ], [ 113.113175040000101, -7.090173, 0.0 ], [ 113.113104118000024, -7.090164001999938, 0.0 ], [ 113.112951840000051, -7.090095961999964, 0.0 ], [ 113.112761041000113, -7.089951958999961, 0.0 ], [ 113.112649079000107, -7.089867, 0.0 ], [ 113.11228008, -7.089494039999977, 0.0 ], [ 113.112208080000073, -7.089323039999954, 0.0 ], [ 113.112072, -7.088771971999961, 0.0 ], [ 113.112054, -7.088375968999969, 0.0 ], [ 113.111854921000031, -7.088328991999958, 0.0 ], [ 113.111619840000117, -7.088246008999931, 0.0 ], [ 113.111516159000075, -7.088112, 0.0 ], [ 113.11136784100006, -7.08795503999994, 0.0 ], [ 113.111222041000019, -7.087898969999969, 0.0 ], [ 113.111116920000086, -7.087842989999956, 0.0 ], [ 113.111103961000026, -7.087919039999974, 0.0 ], [ 113.111070839000035, -7.088130990999957, 0.0 ], [ 113.111069040000075, -7.08814296099996, 0.0 ], [ 113.111030880000044, -7.088408010999956, 0.0 ], [ 113.110943039000063, -7.088605020999978, 0.0 ], [ 113.11091604, -7.08864497999997, 0.0 ], [ 113.110890121000011, -7.088713019999943, 0.0 ], [ 113.11086203800005, -7.08891497999997, 0.0 ], [ 113.110850670000104, -7.088996756999961, 0.0 ], [ 113.11077183000009, -7.088974601999951, 0.0 ], [ 113.110680689000105, -7.088951877999932, 0.0 ], [ 113.110671692000096, -7.088876902999971, 0.0 ], [ 113.110671683000078, -7.088876791999951, 0.0 ], [ 113.110666001000027, -7.088807064999969, 0.0 ], [ 113.110603046000051, -7.088714257999925, 0.0 ], [ 113.110576379, -7.088626438999938, 0.0 ], [ 113.110560341000109, -7.088561797999944, 0.0 ], [ 113.110559606000038, -7.088465907999932, 0.0 ], [ 113.11053572000003, -7.088398772999938, 0.0 ], [ 113.110514375000093, -7.088316080999959, 0.0 ], [ 113.110464801000035, -7.088277622999954, 0.0 ], [ 113.110441949, -7.088260227999967, 0.0 ], [ 113.110360343000025, -7.088198109999951, 0.0 ], [ 113.110310408000032, -7.088113017999945, 0.0 ], [ 113.110269020000032, -7.08802065499998, 0.0 ], [ 113.110248480000109, -7.087950702999933, 0.0 ], [ 113.110248003000038, -7.087949565999963, 0.0 ], [ 113.110202461000085, -7.087840917999927, 0.0 ], [ 113.110151775000077, -7.08777119399997, 0.0 ], [ 113.110151684000016, -7.087751128999969, 0.0 ], [ 113.110196564000034, -7.08772579999993, 0.0 ], [ 113.110281642000018, -7.087695135999979, 0.0 ], [ 113.110336362000112, -7.08763460299997, 0.0 ], [ 113.11040089200003, -7.087548989999959, 0.0 ], [ 113.110460424000053, -7.087463490999937, 0.0 ], [ 113.110494980000112, -7.087383074999934, 0.0 ], [ 113.110494317000075, -7.087303000999952, 0.0 ], [ 113.110481067000023, -7.087251730999981, 0.0 ], [ 113.110468491, -7.087203065999972, 0.0 ], [ 113.110427501000117, -7.087083225999947, 0.0 ], [ 113.110410808000097, -7.087026582999954, 0.0 ], [ 113.110406886000078, -7.087013274999947, 0.0 ], [ 113.110421296000027, -7.086933040999952, 0.0 ], [ 113.110460565000039, -7.086822597999969, 0.0 ], [ 113.110479272000021, -7.08663723199993, 0.0 ], [ 113.110462857000016, -7.086450756999966, 0.0 ], [ 113.110461410000084, -7.086434316999942, 0.0 ], [ 113.110467475000064, -7.08632393399995, 0.0 ], [ 113.110475620000102, -7.086259285999972, 0.0 ], [ 113.110480510000116, -7.086220478999962, 0.0 ], [ 113.110548868000024, -7.086123460999943, 0.0 ], [ 113.110653064000076, -7.085936530999959, 0.0 ], [ 113.110664629000098, -7.085915781999972, 0.0 ], [ 113.110650225000086, -7.085833149999928, 0.0 ], [ 113.110587699, -7.085771672999954, 0.0 ], [ 113.110587637000094, -7.085771611999974, 0.0 ], [ 113.1105286290001, -7.085734145999936, 0.0 ], [ 113.110469619000014, -7.085696679999955, 0.0 ], [ 113.110435179000092, -7.085666451999941, 0.0 ], [ 113.110274978, -7.085525839999946, 0.0 ], [ 113.110176986000056, -7.085456136999937, 0.0 ], [ 113.110174288000053, -7.085454217999938, 0.0 ], [ 113.110073598000099, -7.085382596999978, 0.0 ], [ 113.110066233000111, -7.085366388999944, 0.0 ], [ 113.110045483000022, -7.085320723999928, 0.0 ], [ 113.110078349000105, -7.085260065999933, 0.0 ], [ 113.110120445, -7.085182370999974, 0.0 ], [ 113.110136778000083, -7.085118361999946, 0.0 ], [ 113.110153948000061, -7.085051075999957, 0.0 ], [ 113.110125571000026, -7.084947898999928, 0.0 ], [ 113.110062908000032, -7.084886362999953, 0.0 ], [ 113.109924328000034, -7.084818483999925, 0.0 ], [ 113.109840828000074, -7.084736434999968, 0.0 ], [ 113.109840260000055, -7.084660606999932, 0.0 ], [ 113.109860665000042, -7.084619029999942, 0.0 ], [ 113.109928150000087, -7.084411750999948, 0.0 ], [ 113.109941079, -7.084301336999943, 0.0 ], [ 113.109864750000042, -7.084253690999958, 0.0 ], [ 113.109802130000048, -7.084185194999975, 0.0 ], [ 113.109780818000104, -7.084109552999962, 0.0 ], [ 113.109824198000069, -7.084021323999934, 0.0 ], [ 113.109855641000081, -7.083957373999965, 0.0 ], [ 113.109878744000071, -7.083921271999941, 0.0 ], [ 113.109944331000065, -7.083818777999966, 0.0 ], [ 113.109943731000044, -7.083736081999973, 0.0 ], [ 113.109942214000057, -7.08373093199998, 0.0 ], [ 113.109929559000079, -7.08368797299994, 0.0 ], [ 113.10982578900007, -7.083661148999965, 0.0 ], [ 113.109680733, -7.083662258999937, 0.0 ], [ 113.109597432000101, -7.083607775999951, 0.0 ], [ 113.109541647000015, -7.083532380999941, 0.0 ], [ 113.10952033500007, -7.083456646999934, 0.0 ], [ 113.109547406000047, -7.083387562999974, 0.0 ], [ 113.109620361000111, -7.083316915999944, 0.0 ], [ 113.109678464000012, -7.08319460599995, 0.0 ], [ 113.10967959200002, -7.083192230999941, 0.0 ], [ 113.109683483000026, -7.083184040999981, 0.0 ], [ 113.10968635800009, -7.083163694999939, 0.0 ], [ 113.10968759800005, -7.083154920999959, 0.0 ], [ 113.109712834000106, -7.082976301999963, 0.0 ], [ 113.109641202000034, -7.082862023999951, 0.0 ], [ 113.109598987000027, -7.082833654999945, 0.0 ], [ 113.109554659000082, -7.082816321999928, 0.0 ], [ 113.109502284000087, -7.082827192999957, 0.0 ], [ 113.109444251000014, -7.082839237999963, 0.0 ], [ 113.109345131000055, -7.08289960999997, 0.0 ], [ 113.109272516000033, -7.082946485999969, 0.0 ], [ 113.109166294000033, -7.082938471999967, 0.0 ], [ 113.109079782000094, -7.082899457999929, 0.0 ], [ 113.109019818000093, -7.082873338999946, 0.0 ], [ 113.108946597000113, -7.082836433999944, 0.0 ], [ 113.108836939000071, -7.082789231999925, 0.0 ], [ 113.10883564400001, -7.082788673999971, 0.0 ], [ 113.108777714000098, -7.082733893999944, 0.0 ], [ 113.108742100000086, -7.082696637999959, 0.0 ], [ 113.10870185400006, -7.082641777999982, 0.0 ], [ 113.108668375000093, -7.082597914999951, 0.0 ], [ 113.108650340000054, -7.082553890999975, 0.0 ], [ 113.108636739000076, -7.082516443999964, 0.0 ], [ 113.108623222, -7.082481255999937, 0.0 ], [ 113.108585399000049, -7.082450607999931, 0.0 ], [ 113.108532152000066, -7.082424548999938, 0.0 ], [ 113.108379889000048, -7.08236685299994, 0.0 ], [ 113.108357820000037, -7.08235893899996, 0.0 ], [ 113.108305969000071, -7.082340344999977, 0.0 ], [ 113.108283998000047, -7.082314407999945, 0.0 ], [ 113.108227720000059, -7.08224796899998, 0.0 ], [ 113.108192009000049, -7.082139853999934, 0.0 ], [ 113.108194861000015, -7.082012041999974, 0.0 ], [ 113.108189811000102, -7.08185326499995, 0.0 ], [ 113.108146195000018, -7.081729730999939, 0.0 ], [ 113.108106277000047, -7.081582861999948, 0.0 ], [ 113.108035807000078, -7.081494336999981, 0.0 ], [ 113.107918537000046, -7.081402950999973, 0.0 ], [ 113.107914110000024, -7.081315391999965, 0.0 ], [ 113.107955584000024, -7.081246422999925, 0.0 ], [ 113.107965523000075, -7.081189443999961, 0.0 ], [ 113.107977547000019, -7.081120512999973, 0.0 ], [ 113.107909476000032, -7.081086331999927, 0.0 ], [ 113.107826994000106, -7.08104491399996, 0.0 ], [ 113.107830549000028, -7.081006033999927, 0.0 ], [ 113.107871091000106, -7.08094538499995, 0.0 ], [ 113.107890159000021, -7.080888810999966, 0.0 ], [ 113.107917679000025, -7.080856644999926, 0.0 ], [ 113.107954514000085, -7.080813592999959, 0.0 ], [ 113.108024038000053, -7.08074314199996, 0.0 ], [ 113.108070025000075, -7.080649478999931, 0.0 ], [ 113.10809607200008, -7.080486132999965, 0.0 ], [ 113.108102980000012, -7.08028202099996, 0.0 ], [ 113.108156343000019, -7.080185613999959, 0.0 ], [ 113.108270031000075, -7.080112792999955, 0.0 ], [ 113.108401960000037, -7.080063750999955, 0.0 ], [ 113.108527688000095, -7.079996840999968, 0.0 ], [ 113.108575373, -7.07994845199994, 0.0 ], [ 113.108586652000099, -7.079852324999933, 0.0 ], [ 113.108597721000024, -7.079726283999946, 0.0 ], [ 113.108644902000037, -7.079599897999969, 0.0 ], [ 113.108680024000023, -7.079479621999951, 0.0 ], [ 113.108751995000034, -7.079455073999952, 0.0 ], [ 113.108884189000037, -7.079448056999979, 0.0 ], [ 113.108992356000044, -7.079441239999937, 0.0 ], [ 113.109088721000035, -7.079464482999981, 0.0 ], [ 113.109184930000083, -7.079469740999969, 0.0 ], [ 113.109269832000109, -7.079565159999959, 0.0 ], [ 113.109402127000067, -7.079564107999943, 0.0 ], [ 113.109425760000022, -7.079509953999946, 0.0 ], [ 113.109419321000018, -7.079456024999956, 0.0 ], [ 113.109394927000039, -7.079408142999966, 0.0 ], [ 113.109327797000105, -7.079282636999949, 0.0 ], [ 113.109320881000031, -7.079156676999958, 0.0 ], [ 113.109373536000021, -7.07897034399997, 0.0 ], [ 113.109486802000106, -7.078837421999935, 0.0 ], [ 113.109564163000073, -7.078734849999933, 0.0 ], [ 113.10983330900001, -7.07855277699997, 0.0 ], [ 113.109959064, -7.078491831999941, 0.0 ], [ 113.109962061000033, -7.078491809999946, 0.0 ], [ 113.110025174000043, -7.078491350999968, 0.0 ], [ 113.110151820000056, -7.078544372999943, 0.0 ], [ 113.110200042000088, -7.078658233999931, 0.0 ], [ 113.110225287000048, -7.078717841999946, 0.0 ], [ 113.110270123000078, -7.078928769999948, 0.0 ], [ 113.110350791000087, -7.078962566999962, 0.0 ], [ 113.110511358000053, -7.078926951999961, 0.0 ], [ 113.110525353000071, -7.078924513999937, 0.0 ], [ 113.110786709000081, -7.078878974999952, 0.0 ], [ 113.110913237000091, -7.078889517999926, 0.0 ], [ 113.111009275000015, -7.078983947999973, 0.0 ], [ 113.111040510000066, -7.079014659999928, 0.0 ], [ 113.111089082000035, -7.079358339999942, 0.0 ], [ 113.111250239000015, -7.079402979999941, 0.0 ], [ 113.1112978970001, -7.079103790999966, 0.0 ], [ 113.11133802300003, -7.078851889999953, 0.0 ], [ 113.111568073000058, -7.07888455799997, 0.0 ], [ 113.111541328000044, -7.079148502999942, 0.0 ], [ 113.11151458400002, -7.079412443999956, 0.0 ], [ 113.111523850000026, -7.079543951999938, 0.0 ], [ 113.111527507, -7.079595859999927, 0.0 ], [ 113.111665913000024, -7.079675127999963, 0.0 ], [ 113.111908708000101, -7.079868253999962, 0.0 ], [ 113.112318541000036, -7.079831949999971, 0.0 ], [ 113.11233349400004, -7.079830624999943, 0.0 ], [ 113.112562598000068, -7.079737124999951, 0.0 ], [ 113.11276900200005, -7.079689640999959, 0.0 ], [ 113.112881805000029, -7.079730157999961, 0.0 ], [ 113.112987920000023, -7.079768272999956, 0.0 ], [ 113.113334112000075, -7.079972134999934, 0.0 ], [ 113.113534690000051, -7.079999143999942, 0.0 ], [ 113.113575653000112, -7.080004659999929, 0.0 ], [ 113.113701443000082, -7.07993494599998, 0.0 ], [ 113.113871606000089, -7.079646942999943, 0.0 ], [ 113.113881149, -7.079383077999978, 0.0 ], [ 113.113809951, -7.079085505999956, 0.0 ], [ 113.113797207000061, -7.078925047999974, 0.0 ], [ 113.113842760000011, -7.078867358999958, 0.0 ], [ 113.1140378, -7.078831494999974, 0.0 ], [ 113.114038269000048, -7.078831627999932, 0.0 ], [ 113.114314098000023, -7.078909683999939, 0.0 ], [ 113.114682271000106, -7.078975614999933, 0.0 ], [ 113.114924043000087, -7.079042662999939, 0.0 ], [ 113.114982804000078, -7.079214208999929, 0.0 ], [ 113.11506595700007, -7.079580506999946, 0.0 ], [ 113.115135620000046, -7.079671744999928, 0.0 ], [ 113.115365774000111, -7.079727367999965, 0.0 ], [ 113.115495156000065, -7.079775206999955, 0.0 ], [ 113.115699960000029, -7.079850933999978, 0.0 ], [ 113.115700729000082, -7.079954145999977, 0.0 ], [ 113.115696065000066, -7.079960764999953, 0.0 ], [ 113.115643864000049, -7.080034842999964, 0.0 ], [ 113.1155405720001, -7.080047152999953, 0.0 ], [ 113.115035761000058, -7.080142721999948, 0.0 ], [ 113.114805426000089, -7.080064143999948, 0.0 ], [ 113.114760052000065, -7.080144788999974, 0.0 ], [ 113.114727012000117, -7.080328502999976, 0.0 ], [ 113.114659604000053, -7.080535418999943, 0.0 ], [ 113.114614483000082, -7.080639019999978, 0.0 ], [ 113.114661089000037, -7.080730363999976, 0.0 ], [ 113.114823627000078, -7.080947080999977, 0.0 ], [ 113.114938283000015, -7.080923241999926, 0.0 ], [ 113.115006639000057, -7.080842491999931, 0.0 ], [ 113.115132503000041, -7.080772687999968, 0.0 ], [ 113.115281094000011, -7.080679823999958, 0.0 ], [ 113.115417627000056, -7.080495277999944, 0.0 ], [ 113.115519666000068, -7.08032254799997, 0.0 ], [ 113.115760132000105, -7.080217516999937, 0.0 ], [ 113.115875453000058, -7.080273931999955, 0.0 ], [ 113.115969430000064, -7.08054274899996, 0.0 ], [ 113.11606340700007, -7.080811564999976, 0.0 ], [ 113.116342499000098, -7.081256684999971, 0.0 ], [ 113.116594448000114, -7.08135077999998, 0.0 ], [ 113.11688403800008, -7.081458932999965, 0.0 ], [ 113.116928875000099, -7.081309509999926, 0.0 ], [ 113.117285664000065, -7.081398627999931, 0.0 ], [ 113.117454485000053, -7.081013198999926, 0.0 ], [ 113.117526978000114, -7.080906942999945, 0.0 ], [ 113.117566119000116, -7.080703407999977, 0.0 ], [ 113.117613841000093, -7.080548549999946, 0.0 ], [ 113.117758715000036, -7.080327993999958, 0.0 ], [ 113.117846693000047, -7.080115921999948, 0.0 ], [ 113.117950901000086, -7.07989564199994, 0.0 ], [ 113.118054700000016, -7.079618423999932, 0.0 ], [ 113.118143422000117, -7.079503959999954, 0.0 ], [ 113.118206537000106, -7.079503480999961, 0.0 ], [ 113.118322576000082, -7.079502601999934, 0.0 ], [ 113.118429014000071, -7.07957496399996, 0.0 ], [ 113.118523272000061, -7.079651493999961, 0.0 ], [ 113.118617529000062, -7.079728022999973, 0.0 ], [ 113.118713160000084, -7.079895531999966, 0.0 ], [ 113.11872311500008, -7.079912968999963, 0.0 ], [ 113.118733067000107, -7.079930400999956, 0.0 ], [ 113.118848978000074, -7.080181492999941, 0.0 ], [ 113.118869982000092, -7.080268368999953, 0.0 ], [ 113.118907845000081, -7.080424980999965, 0.0 ], [ 113.11906405000002, -7.080610723999939, 0.0 ], [ 113.119219214000054, -7.080666504999954, 0.0 ], [ 113.119496339000079, -7.080696874999944, 0.0 ], [ 113.119797566000102, -7.080678329999955, 0.0 ], [ 113.120048841000084, -7.080522001999952, 0.0 ], [ 113.120438566000075, -7.080356455999947, 0.0 ], [ 113.120513850000066, -7.080273232999957, 0.0 ], [ 113.120521927000027, -7.080146573999968, 0.0 ], [ 113.120547855000041, -7.079974461999939, 0.0 ], [ 113.120601736000026, -7.07991076899998, 0.0 ], [ 113.120710097000028, -7.079864722999957, 0.0 ], [ 113.120817149000118, -7.07964686899993, 0.0 ], [ 113.120897953000053, -7.079546810999943, 0.0 ], [ 113.120924004000017, -7.079401902999962, 0.0 ], [ 113.120904838000115, -7.079257291999966, 0.0 ], [ 113.120940671000085, -7.079211847999943, 0.0 ], [ 113.121040159000017, -7.079183917999956, 0.0 ], [ 113.121165940000083, -7.079047321999951, 0.0 ], [ 113.121167467000078, -7.079040391999968, 0.0 ], [ 113.121257976000038, -7.078629615999944, 0.0 ], [ 113.121256751000033, -7.078475702999981, 0.0 ], [ 113.121229224000103, -7.078232343999957, 0.0 ], [ 113.12117021600011, -7.078072458999941, 0.0 ], [ 113.121188375000088, -7.077931292999949, 0.0 ], [ 113.1211804510001, -7.077848112999959, 0.0 ], [ 113.121139546000109, -7.077418695999938, 0.0 ], [ 113.121081173000107, -7.077348645999962, 0.0 ], [ 113.12108717600006, -7.077290865999942, 0.0 ], [ 113.121125591, -7.077271349999933, 0.0 ], [ 113.121196119000047, -7.077258013999938, 0.0 ], [ 113.121331025000018, -7.077257036999981, 0.0 ], [ 113.121388335, -7.077192424999964, 0.0 ], [ 113.121470163000026, -7.076973872999929, 0.0 ], [ 113.121500551000054, -7.076749229999962, 0.0 ], [ 113.121428577000074, -7.076576659999944, 0.0 ], [ 113.121426131000021, -7.076563373999932, 0.0 ], [ 113.121408529000064, -7.076467751999928, 0.0 ], [ 113.121408042000098, -7.076410091999946, 0.0 ], [ 113.121458877, -7.07633276599995, 0.0 ], [ 113.121457593000059, -7.076166109999974, 0.0 ], [ 113.121520815000054, -7.075843796999948, 0.0 ], [ 113.121551971000031, -7.075754539999934, 0.0 ], [ 113.12159637100001, -7.075722432999953, 0.0 ], [ 113.121627938000074, -7.075690383999927, 0.0 ], [ 113.121627174000082, -7.075588619999962, 0.0 ], [ 113.1216184970001, -7.075289770999973, 0.0 ], [ 113.12167549500009, -7.075238446999947, 0.0 ], [ 113.121757231000061, -7.075097892999963, 0.0 ], [ 113.12184946800005, -7.074950090999948, 0.0 ], [ 113.121876863000011, -7.074906192999947, 0.0 ], [ 113.121957617000021, -7.074632153999971, 0.0 ], [ 113.121963577000088, -7.074581241999965, 0.0 ], [ 113.121726335000062, -7.074476487999959, 0.0 ], [ 113.121657970000115, -7.074391300999935, 0.0 ], [ 113.121649036, -7.07435761399995, 0.0 ], [ 113.121611428000051, -7.074215812999967, 0.0 ], [ 113.121570209000083, -7.074144057999945, 0.0 ], [ 113.12149338800009, -7.074135549999937, 0.0 ], [ 113.121448069000053, -7.07411343299998, 0.0 ], [ 113.121429301000035, -7.074023318999934, 0.0 ], [ 113.12140446, -7.073730509999962, 0.0 ], [ 113.121294144000103, -7.073478849999958, 0.0 ], [ 113.121048225000095, -7.073205665999978, 0.0 ], [ 113.120966539000051, -7.073161209999967, 0.0 ], [ 113.120783644000085, -7.073176141999966, 0.0 ], [ 113.120716161000018, -7.073120865999954, 0.0 ], [ 113.120745767000017, -7.072969977999946, 0.0 ], [ 113.120775373000015, -7.072819085999981, 0.0 ], [ 113.120769197000072, -7.07274102599996, 0.0 ], [ 113.120515853000029, -7.072508546999927, 0.0 ], [ 113.120509677000086, -7.072430485999973, 0.0 ], [ 113.120520087000045, -7.072324421999951, 0.0 ], [ 113.120530422000115, -7.072218267999972, 0.0 ], [ 113.120457141000088, -7.072135180999965, 0.0 ], [ 113.120355854000081, -7.072046616999955, 0.0 ], [ 113.120290631000103, -7.071973392999951, 0.0 ], [ 113.120276878000027, -7.071957951999934, 0.0 ], [ 113.120276121000074, -7.071857541999975, 0.0 ], [ 113.120280632000117, -7.071717974999956, 0.0 ], [ 113.120324898000035, -7.071656314999927, 0.0 ], [ 113.120375012000068, -7.071633581999947, 0.0 ], [ 113.120447308000053, -7.071582819999946, 0.0 ], [ 113.120502615000078, -7.071504298999969, 0.0 ], [ 113.120518797000045, -7.071420442999965, 0.0 ], [ 113.120496211000045, -7.071392707999962, 0.0 ], [ 113.120467650000023, -7.071314838999967, 0.0 ], [ 113.120466515000089, -7.071164179999926, 0.0 ], [ 113.12044964200004, -7.071037230999934, 0.0 ], [ 113.120441171000039, -7.070973501999958, 0.0 ], [ 113.120399783000039, -7.070946396999943, 0.0 ], [ 113.120248164000031, -7.070865291999951, 0.0 ], [ 113.120206408000058, -7.070790285999976, 0.0 ], [ 113.120171087000017, -7.070653519999951, 0.0 ], [ 113.120169616000112, -7.070461738999938, 0.0 ], [ 113.120134788000087, -7.070400348999954, 0.0 ], [ 113.120161280000048, -7.070269989999929, 0.0 ], [ 113.120247806000066, -7.069920003999925, 0.0 ], [ 113.120233447000032, -7.069831044999944, 0.0 ], [ 113.120225678000111, -7.069714578999935, 0.0 ], [ 113.12018298800001, -7.06951629799994, 0.0 ], [ 113.120188149000114, -7.069290142999932, 0.0 ], [ 113.120132236000018, -7.069153559999961, 0.0 ], [ 113.120130629000073, -7.06914659399996, 0.0 ], [ 113.120032821000109, -7.068722717999947, 0.0 ], [ 113.120015841000054, -7.068353998999953, 0.0 ], [ 113.120008224000117, -7.068188589999977, 0.0 ], [ 113.120028402000116, -7.06767197299996, 0.0 ], [ 113.119876414000032, -7.067589202999955, 0.0 ], [ 113.119571507000046, -7.067423155999961, 0.0 ], [ 113.119385103000013, -7.067289968999944, 0.0 ], [ 113.11904496000011, -7.06687205999998, 0.0 ], [ 113.118951001000028, -7.066704559999948, 0.0 ], [ 113.118739736000066, -7.066420820999952, 0.0 ], [ 113.118555847000039, -7.066233394999927, 0.0 ], [ 113.118421621000039, -7.066038963999972, 0.0 ], [ 113.118344209000043, -7.065900490999979, 0.0 ], [ 113.118210824000016, -7.065808727999979, 0.0 ], [ 113.118038031000083, -7.065780229999973, 0.0 ], [ 113.117838930000062, -7.06577507999998, 0.0 ], [ 113.117616700000099, -7.06578675399993, 0.0 ], [ 113.117403792, -7.065715506999936, 0.0 ], [ 113.117171667000093, -7.065520435999929, 0.0 ], [ 113.117059428000061, -7.065336839999929, 0.0 ], [ 113.1169388510001, -7.065140989999975, 0.0 ], [ 113.116793111000106, -7.064875570999959, 0.0 ], [ 113.116714524000031, -7.064806515999976, 0.0 ], [ 113.116603087000044, -7.064733541999942, 0.0 ], [ 113.116467252, -7.064693577999947, 0.0 ], [ 113.116310489000057, -7.064596407999943, 0.0 ], [ 113.116269189000036, -7.064572101999943, 0.0 ], [ 113.11624423, -7.064531272999943, 0.0 ], [ 113.116215076000117, -7.064470036999978, 0.0 ], [ 113.11618567700009, -7.06438828499995, 0.0 ], [ 113.116139827000097, -7.064298473999941, 0.0 ], [ 113.116044265000028, -7.064155653999933, 0.0 ], [ 113.115945253000064, -7.064090848999967, 0.0 ], [ 113.115845812000089, -7.063980945999958, 0.0 ], [ 113.11579779200008, -7.063857250999945, 0.0 ], [ 113.115852834000066, -7.06375324499993, 0.0 ], [ 113.116176753000104, -7.063344788999927, 0.0 ], [ 113.116324594000048, -7.063055350999946, 0.0 ], [ 113.116355532000057, -7.062983629999962, 0.0 ], [ 113.116368926000064, -7.062860559999933, 0.0 ], [ 113.1163442940001, -7.062629116999972, 0.0 ], [ 113.116364035000061, -7.062588987999959, 0.0 ], [ 113.116392150000024, -7.062520080999946, 0.0 ], [ 113.116506056000048, -7.062430629999938, 0.0 ], [ 113.116759402000071, -7.062222778999967, 0.0 ], [ 113.117050480000103, -7.061980485999925, 0.0 ], [ 113.117078299000013, -7.061957328999938, 0.0 ], [ 113.117177546000107, -7.061827814999958, 0.0 ], [ 113.117303529000083, -7.061588637999932, 0.0 ], [ 113.117325694000101, -7.061507555999981, 0.0 ], [ 113.117312774000084, -7.061472184999957, 0.0 ], [ 113.117256492000024, -7.061401762999935, 0.0 ], [ 113.117189659000019, -7.061275803999933, 0.0 ], [ 113.117131019000112, -7.061228258999961, 0.0 ], [ 113.116533564000065, -7.061063314999956, 0.0 ], [ 113.11614006100001, -7.060969838999938, 0.0 ], [ 113.11610143300004, -7.06092581799993, 0.0 ], [ 113.11609114800001, -7.060895767999966, 0.0 ], [ 113.116060665000077, -7.060558785999945, 0.0 ], [ 113.116028107000034, -7.060290502999976, 0.0 ], [ 113.116080383000053, -7.06023468199993, 0.0 ], [ 113.116102168000111, -7.06018469299994, 0.0 ], [ 113.116101767000032, -7.060129381999957, 0.0 ], [ 113.116081290000011, -7.059991101999969, 0.0 ], [ 113.116058191000093, -7.059866661999934, 0.0 ], [ 113.116023899000083, -7.059742362999941, 0.0 ], [ 113.115920028, -7.059576984999978, 0.0 ], [ 113.115838298000085, -7.059538311999972, 0.0 ], [ 113.115695002000052, -7.059514648999937, 0.0 ], [ 113.115496879000034, -7.059510666999927, 0.0 ], [ 113.115372185000069, -7.059393556999964, 0.0 ], [ 113.115173177000088, -7.059276963999935, 0.0 ], [ 113.115010208000058, -7.059193015999938, 0.0 ], [ 113.114753748000112, -7.059109852999939, 0.0 ], [ 113.114536978000046, -7.059107491999953, 0.0 ], [ 113.114401600000065, -7.058986994999941, 0.0 ], [ 113.114298012000063, -7.058834449999949, 0.0 ], [ 113.114135603000022, -7.058528794999972, 0.0 ], [ 113.114025627000046, -7.058382604999963, 0.0 ], [ 113.113813427000082, -7.05826914499994, 0.0 ], [ 113.113691836000044, -7.058276473999967, 0.0 ], [ 113.113340233000031, -7.058355884999969, 0.0 ], [ 113.113026999000112, -7.05842219699997, 0.0 ], [ 113.112892442000089, -7.058416750999982, 0.0 ], [ 113.112782790000097, -7.058308970999974, 0.0 ], [ 113.112506733000032, -7.058215139999959, 0.0 ], [ 113.112426858000049, -7.058157144999939, 0.0 ], [ 113.112358656000083, -7.058107624999934, 0.0 ], [ 113.112325971000018, -7.058024802999967, 0.0 ], [ 113.11229942500006, -7.057897124999954, 0.0 ], [ 113.112329234000072, -7.057609216999936, 0.0 ], [ 113.112429992000102, -7.057384795999951, 0.0 ], [ 113.112505157000101, -7.05716049199998, 0.0 ], [ 113.11252335100005, -7.057026102999941, 0.0 ], [ 113.112498927000047, -7.056757690999973, 0.0 ], [ 113.112491179000017, -7.056595854999955, 0.0 ], [ 113.112524199000063, -7.056242585999939, 0.0 ], [ 113.112529523000035, -7.056083852999961, 0.0 ], [ 113.112492365000094, -7.055886629999975, 0.0 ], [ 113.112422602000038, -7.055673374999969, 0.0 ], [ 113.112372920000098, -7.05554426499998, 0.0 ], [ 113.112223088000064, -7.055461159999936, 0.0 ], [ 113.112102444000016, -7.055381085999954, 0.0 ], [ 113.11209163400008, -7.055251165999948, 0.0 ], [ 113.112034654000013, -7.055092534999972, 0.0 ], [ 113.112004684000112, -7.054818453999928, 0.0 ], [ 113.112066905, -7.054619152999976, 0.0 ], [ 113.112066687000038, -7.054587340999944, 0.0 ], [ 113.111982791000059, -7.054548222999927, 0.0 ], [ 113.111922514000071, -7.054485138999951, 0.0 ], [ 113.111914239000043, -7.05443745499997, 0.0 ], [ 113.111941686000023, -7.054385542999967, 0.0 ], [ 113.111988471000018, -7.05425400799993, 0.0 ], [ 113.11213783200003, -7.05398652699995, 0.0 ], [ 113.11231168900008, -7.053806333999944, 0.0 ], [ 113.11254245900011, -7.053473862999965, 0.0 ], [ 113.112929020000024, -7.052860774999942, 0.0 ], [ 113.112928323, -7.052772927999968, 0.0 ], [ 113.112946553000029, -7.052597145999925, 0.0 ], [ 113.112945278000097, -7.052431211999931, 0.0 ], [ 113.112983426000028, -7.052303963999975, 0.0 ], [ 113.112970226000016, -7.051992931999962, 0.0 ], [ 113.112938590000113, -7.051811860999976, 0.0 ], [ 113.112842213000022, -7.051652864999937, 0.0 ], [ 113.112577232000035, -7.051499421999949, 0.0 ], [ 113.112299229000087, -7.051337450999938, 0.0 ], [ 113.111977490000072, -7.051106807999929, 0.0 ], [ 113.111920598000097, -7.051016593999975, 0.0 ], [ 113.111815143000058, -7.050797173999968, 0.0 ], [ 113.111740079000015, -7.050599216999956, 0.0 ], [ 113.111704154000108, -7.050426751999964, 0.0 ], [ 113.111702254000079, -7.050172065999959, 0.0 ], [ 113.11168417600004, -7.05006857099994, 0.0 ], [ 113.111618457000077, -7.049956886999951, 0.0 ], [ 113.111539199000049, -7.049771782999926, 0.0 ], [ 113.11142600900007, -7.049656605999928, 0.0 ], [ 113.111367099000063, -7.049598667999931, 0.0 ], [ 113.11122703, -7.049446465999949, 0.0 ], [ 113.111214325000105, -7.049375935999933, 0.0 ], [ 113.111235174000058, -7.049234666999951, 0.0 ], [ 113.111234065000076, -7.049088705999964, 0.0 ], [ 113.111192435000021, -7.048924851999971, 0.0 ], [ 113.111098576000018, -7.048662448999949, 0.0 ], [ 113.110890034000022, -7.048268244999974, 0.0 ], [ 113.110788171000081, -7.048149491999936, 0.0 ], [ 113.110714481000059, -7.048090263999939, 0.0 ], [ 113.110626972000091, -7.047961232999967, 0.0 ], [ 113.110586201000046, -7.047855219999974, 0.0 ], [ 113.110568138000076, -7.047672640999963, 0.0 ], [ 113.110576667000032, -7.047479818999932, 0.0 ], [ 113.110562157000118, -7.047323706999975, 0.0 ], [ 113.110559261000049, -7.047226274999957, 0.0 ], [ 113.110553268000103, -7.047024675999978, 0.0 ], [ 113.110575721000032, -7.046908162999955, 0.0 ], [ 113.11061931200004, -7.046763265999971, 0.0 ], [ 113.110706628000116, -7.046569364999925, 0.0 ], [ 113.110915873000067, -7.046311556999967, 0.0 ], [ 113.111028777000115, -7.046116636999955, 0.0 ], [ 113.111044029000027, -7.045859614999927, 0.0 ], [ 113.111094290000096, -7.045705106999947, 0.0 ], [ 113.111218710000117, -7.045515738999939, 0.0 ], [ 113.111285139000074, -7.045224050999934, 0.0 ], [ 113.111522158000071, -7.044805509999946, 0.0 ], [ 113.11159593800005, -7.044736485999977, 0.0 ], [ 113.11167591800006, -7.044718771999953, 0.0 ], [ 113.111744104000081, -7.044666856999982, 0.0 ], [ 113.111959003000038, -7.044339789999981, 0.0 ], [ 113.112031174000094, -7.044113511999967, 0.0 ], [ 113.112065751000046, -7.043906111999945, 0.0 ], [ 113.11204718700003, -7.043843289999927, 0.0 ], [ 113.111933289000035, -7.043686541999932, 0.0 ], [ 113.11184692900008, -7.043597182999974, 0.0 ], [ 113.11133036800004, -7.043281374999935, 0.0 ], [ 113.111253160000047, -7.043218908999961, 0.0 ], [ 113.111211920000073, -7.043124736999971, 0.0 ], [ 113.111121246000039, -7.04307136999995, 0.0 ], [ 113.110681760000034, -7.042804560999969, 0.0 ], [ 113.110477875000015, -7.042680031999964, 0.0 ], [ 113.110377740000104, -7.042563711999946, 0.0 ], [ 113.110294833000012, -7.042330269999979, 0.0 ], [ 113.110299072000089, -7.042294187999971, 0.0 ], [ 113.110438384000076, -7.04223011299996, 0.0 ], [ 113.110539093000057, -7.041912328999956, 0.0 ], [ 113.110699289000081, -7.041467291999936, 0.0 ], [ 113.11079269600009, -7.04111863199995, 0.0 ], [ 113.1108607110001, -7.040699137999979, 0.0 ], [ 113.110951299000021, -7.040453433999971, 0.0 ], [ 113.111028289000046, -7.040285971999936, 0.0 ], [ 113.111142747000031, -7.039692463999927, 0.0 ], [ 113.111219312000117, -7.039447456999937, 0.0 ], [ 113.111338481000075, -7.039021223999953, 0.0 ], [ 113.111321679000071, -7.038737773999969, 0.0 ], [ 113.111388091000094, -7.038458648999949, 0.0 ], [ 113.111401841000088, -7.038331419999963, 0.0 ], [ 113.111406069000054, -7.038243369999975, 0.0 ], [ 113.111405448000028, -7.03815543199994, 0.0 ], [ 113.111409350000031, -7.038028248999979, 0.0 ], [ 113.111369024000055, -7.037872070999981, 0.0 ], [ 113.11141646100009, -7.037715202999948, 0.0 ], [ 113.111454961000049, -7.037587886999972, 0.0 ], [ 113.111512109000046, -7.03737234099998, 0.0 ], [ 113.111545403000036, -7.037029374999975, 0.0 ], [ 113.111541296000041, -7.036946151999928, 0.0 ], [ 113.111453036000057, -7.036749338999925, 0.0 ], [ 113.11139597600004, -7.036555637999925, 0.0 ], [ 113.111366010000097, -7.036264746999962, 0.0 ], [ 113.111311827, -7.035981013999958, 0.0 ], [ 113.111316786000089, -7.035641970999961, 0.0 ], [ 113.111387617000105, -7.035267473999966, 0.0 ], [ 113.111478633000047, -7.035116578999975, 0.0 ], [ 113.111648025000022, -7.034774986999935, 0.0 ], [ 113.11168211100005, -7.034508208999966, 0.0 ], [ 113.111700507000023, -7.034434827999974, 0.0 ], [ 113.111673952000046, -7.03415575899993, 0.0 ], [ 113.111603926000043, -7.033866223999951, 0.0 ], [ 113.111510044000056, -7.033663559999979, 0.0 ], [ 113.11140226200007, -7.033423090999975, 0.0 ], [ 113.111338544000091, -7.033258160999935, 0.0 ], [ 113.111292774000049, -7.033085648999929, 0.0 ], [ 113.111065557000074, -7.032816253999954, 0.0 ], [ 113.110822950000056, -7.032360378999954, 0.0 ], [ 113.110780911, -7.032072252999967, 0.0 ], [ 113.110690153000064, -7.031933656999968, 0.0 ], [ 113.110588651000057, -7.031695596999953, 0.0 ], [ 113.110507727000027, -7.031536981999977, 0.0 ], [ 113.110357418000035, -7.031428749999975, 0.0 ], [ 113.110256155000116, -7.031210573999942, 0.0 ], [ 113.110235368000076, -7.031101306999972, 0.0 ], [ 113.110330276000013, -7.030473813999947, 0.0 ], [ 113.110337702000038, -7.03013548399997, 0.0 ], [ 113.110497625000107, -7.029828370999951, 0.0 ], [ 113.110552648000066, -7.029505461999975, 0.0 ], [ 113.110572976000071, -7.029347564999966, 0.0 ], [ 113.11059419500009, -7.029304447999948, 0.0 ], [ 113.110623166000096, -7.029296116999944, 0.0 ], [ 113.11077332800005, -7.029252936999967, 0.0 ], [ 113.1113250840001, -7.029105387999948, 0.0 ], [ 113.111361301000102, -7.029108916999974, 0.0 ], [ 113.111461607000024, -7.02911869199994, 0.0 ], [ 113.111555351000106, -7.029175299999963, 0.0 ], [ 113.111606250000023, -7.029260932999932, 0.0 ], [ 113.111731015000032, -7.029611229999944, 0.0 ], [ 113.111854374000018, -7.029782306999948, 0.0 ], [ 113.112013137000076, -7.029895832999955, 0.0 ], [ 113.112373046000016, -7.030007728999976, 0.0 ], [ 113.112926918000085, -7.030146947999981, 0.0 ], [ 113.113200482000025, -7.030237991999968, 0.0 ], [ 113.113358912000081, -7.030294126999934, 0.0 ], [ 113.113431675000015, -7.030429822999963, 0.0 ], [ 113.113504855000087, -7.030608445999974, 0.0 ], [ 113.113534127000094, -7.030679895999981, 0.0 ], [ 113.113464954000051, -7.031024469999977, 0.0 ], [ 113.113473857000031, -7.031260955999926, 0.0 ], [ 113.113733268000033, -7.031373665999979, 0.0 ], [ 113.11407843500001, -7.031442785999957, 0.0 ], [ 113.114222638000115, -7.031520494999938, 0.0 ], [ 113.11427319400002, -7.031563107999943, 0.0 ], [ 113.114260029000093, -7.031720881999945, 0.0 ], [ 113.114232606000087, -7.03189318099993, 0.0 ], [ 113.11423315400009, -7.031964850999941, 0.0 ], [ 113.114319736000084, -7.032021489999977, 0.0 ], [ 113.114506752000011, -7.032063124999979, 0.0 ], [ 113.114908476000096, -7.03201702399997, 0.0 ], [ 113.115065499000025, -7.031894028999943, 0.0 ], [ 113.115143617000058, -7.031778711999948, 0.0 ], [ 113.115199456000028, -7.031736273999968, 0.0 ], [ 113.115229275000047, -7.031713611999976, 0.0 ], [ 113.115423011000075, -7.03169059399994, 0.0 ], [ 113.115556906000052, -7.03167844099994, 0.0 ], [ 113.115939633000039, -7.03164370199994, 0.0 ], [ 113.116039926000099, -7.031614235999939, 0.0 ], [ 113.116411863000053, -7.031630359999951, 0.0 ], [ 113.117113523000057, -7.031715941999948, 0.0 ], [ 113.117423669, -7.031795339999974, 0.0 ], [ 113.117612826000027, -7.031879975999971, 0.0 ], [ 113.117743430000019, -7.031938412999978, 0.0 ], [ 113.1177832730001, -7.032029322999961, 0.0 ], [ 113.117854557000101, -7.032191970999975, 0.0 ], [ 113.118285717000049, -7.032615893999946, 0.0 ], [ 113.118523682000045, -7.032786812999973, 0.0 ], [ 113.118715615000042, -7.032876233999957, 0.0 ], [ 113.118846694000013, -7.032955627999968, 0.0 ], [ 113.118840074000104, -7.033042423999973, 0.0 ], [ 113.118794170000115, -7.033350828999971, 0.0 ], [ 113.11881560300003, -7.033454036999956, 0.0 ], [ 113.118971613000099, -7.033535577999942, 0.0 ], [ 113.119437190000099, -7.03347002299995, 0.0 ], [ 113.120058272000051, -7.033423918999972, 0.0 ], [ 113.120442614000012, -7.033576095999933, 0.0 ], [ 113.120733219000044, -7.033656664999967, 0.0 ], [ 113.121115812000085, -7.033571056999961, 0.0 ], [ 113.121271125000021, -7.033564704999947, 0.0 ], [ 113.121426436000093, -7.033558352999933, 0.0 ], [ 113.121779358000026, -7.033659063999949, 0.0 ], [ 113.121779104000098, -7.033627876999958, 0.0 ], [ 113.121778684000105, -7.033576368999945, 0.0 ], [ 113.122795874000076, -7.033858082999927, 0.0 ], [ 113.122899983000025, -7.033929733999969, 0.0 ], [ 113.122931405000031, -7.033981198999925, 0.0 ], [ 113.122913751000056, -7.03407287999994, 0.0 ], [ 113.122891533000029, -7.03418826099994, 0.0 ], [ 113.122892254000021, -7.034281258999954, 0.0 ], [ 113.122954788000015, -7.034332491999976, 0.0 ], [ 113.122975792000034, -7.034373700999936, 0.0 ], [ 113.123162576000027, -7.034413615999938, 0.0 ], [ 113.12344276400006, -7.034483924999961, 0.0 ], [ 113.123660127000107, -7.034471912999948, 0.0 ], [ 113.123825277000037, -7.034401, 0.0 ], [ 113.123856271000022, -7.034387691999939, 0.0 ], [ 113.124135474000013, -7.034323520999976, 0.0 ], [ 113.124321801000065, -7.034311828999932, 0.0 ], [ 113.12452896100001, -7.034320559999969, 0.0 ], [ 113.124643780000042, -7.034433465999939, 0.0 ], [ 113.124751788000026, -7.034578196999973, 0.0 ], [ 113.124758861000032, -7.034587674999955, 0.0 ], [ 113.124821341000029, -7.034656750999943, 0.0 ], [ 113.124883823, -7.034725827999978, 0.0 ], [ 113.124926010000081, -7.034772466999925, 0.0 ], [ 113.125040636000108, -7.034867834999943, 0.0 ], [ 113.125155261000032, -7.034963201999972, 0.0 ], [ 113.125196980000055, -7.034997910999948, 0.0 ], [ 113.125404600000024, -7.035058335999963, 0.0 ], [ 113.125458730000105, -7.035075891999952, 0.0 ], [ 113.125591480000026, -7.035118945999955, 0.0 ], [ 113.1256872350001, -7.035146796999925, 0.0 ], [ 113.12601247300006, -7.035241396999936, 0.0 ], [ 113.126115507, -7.035281644999941, 0.0 ], [ 113.12621854300005, -7.035321893999935, 0.0 ], [ 113.126262535000023, -7.035362460999977, 0.0 ], [ 113.126384055000017, -7.035474516999955, 0.0 ], [ 113.126602792000085, -7.035862609999981, 0.0 ], [ 113.126631730000099, -7.035947135999947, 0.0 ], [ 113.12666066700001, -7.036031661999971, 0.0 ], [ 113.126718335000078, -7.036200107999946, 0.0 ], [ 113.126759781000032, -7.036240861999943, 0.0 ], [ 113.126893593000091, -7.036280832999978, 0.0 ], [ 113.126964002000022, -7.036283824999941, 0.0 ], [ 113.127099188000102, -7.036289569999951, 0.0 ], [ 113.127428681000083, -7.036389658999951, 0.0 ], [ 113.127933385, -7.036560170999962, 0.0 ], [ 113.127941831000044, -7.036560106999957, 0.0 ], [ 113.128012837000028, -7.036559567999973, 0.0 ], [ 113.128159350000033, -7.036558455999966, 0.0 ], [ 113.128200485000093, -7.036558143999969, 0.0 ], [ 113.128223709000054, -7.036528712999939, 0.0 ], [ 113.128241212000034, -7.036506531999976, 0.0 ], [ 113.128252093000015, -7.036496726999928, 0.0 ], [ 113.128333054000109, -7.036423777999971, 0.0 ], [ 113.12842725500002, -7.036370587999954, 0.0 ], [ 113.128468911000027, -7.036347066999951, 0.0 ], [ 113.128502564000087, -7.036328063999974, 0.0 ], [ 113.128508433000093, -7.036324749999949, 0.0 ], [ 113.12851717, -7.036319816999935, 0.0 ], [ 113.128549089000103, -7.036296954999955, 0.0 ], [ 113.128550229000098, -7.036296138999944, 0.0 ], [ 113.128559676, -7.036289371999942, 0.0 ], [ 113.128570838000087, -7.036281376999966, 0.0 ], [ 113.128581066000038, -7.036274050999964, 0.0 ], [ 113.128675143, -7.036206669999956, 0.0 ], [ 113.12869089600008, -7.036195386999964, 0.0 ], [ 113.128721036000115, -7.036177019999968, 0.0 ], [ 113.128727057000106, -7.036173350999945, 0.0 ], [ 113.128728147000061, -7.036172686999976, 0.0 ], [ 113.128850752000062, -7.036097970999947, 0.0 ], [ 113.128910118000022, -7.036061793999977, 0.0 ], [ 113.128997667000021, -7.036008440999979, 0.0 ], [ 113.12901656400004, -7.03599582399994, 0.0 ], [ 113.129174314000011, -7.035890497999958, 0.0 ], [ 113.129328958000087, -7.035787245999927, 0.0 ], [ 113.129386106000084, -7.035749089999968, 0.0 ], [ 113.129462453000087, -7.035659831999965, 0.0 ], [ 113.129518508000046, -7.035594298999968, 0.0 ], [ 113.129602952000027, -7.035508686999947, 0.0 ], [ 113.129854942000065, -7.035253209999951, 0.0 ], [ 113.129882412000029, -7.035258307999925, 0.0 ], [ 113.130173877000061, -7.035312402999978, 0.0 ], [ 113.130225091000057, -7.035320874999968, 0.0 ], [ 113.130291741000065, -7.03533189999996, 0.0 ], [ 113.13041049900005, -7.035351544999969, 0.0 ], [ 113.130417857000111, -7.035344090999956, 0.0 ], [ 113.130451272000073, -7.035310236999976, 0.0 ], [ 113.130532220000077, -7.035145556999964, 0.0 ], [ 113.130615836000061, -7.035071391999963, 0.0 ], [ 113.130695481000089, -7.035000748999948, 0.0 ], [ 113.13086915800011, -7.034866014999977, 0.0 ], [ 113.130939689000115, -7.034691168999927, 0.0 ], [ 113.131020637, -7.034526489999962, 0.0 ], [ 113.131214448000037, -7.034340328999974, 0.0 ], [ 113.131288029000075, -7.034211021999965, 0.0 ], [ 113.131589571000063, -7.03368110599996, 0.0 ], [ 113.13195053100003, -7.033221687999969, 0.0 ], [ 113.132055063000053, -7.033172948999947, 0.0 ], [ 113.132128790000024, -7.033093801999939, 0.0 ], [ 113.132207093000034, -7.03303641499997, 0.0 ], [ 113.132373152000014, -7.033030778999944, 0.0 ], [ 113.132468370000083, -7.033050408999941, 0.0 ], [ 113.132526090000056, -7.033011372999965, 0.0 ], [ 113.132579749000115, -7.032949127999927, 0.0 ], [ 113.132607823000058, -7.032941908999931, 0.0 ], [ 113.132687809000117, -7.032921340999962, 0.0 ], [ 113.132753002000072, -7.03287127599998, 0.0 ], [ 113.132814725000117, -7.032823875999952, 0.0 ], [ 113.132844768000041, -7.032703985999945, 0.0 ], [ 113.132824561, -7.032592186999977, 0.0 ], [ 113.132808628000021, -7.032534325999961, 0.0 ], [ 113.132800171000099, -7.032485871999938, 0.0 ], [ 113.132796523000025, -7.032464969999978, 0.0 ], [ 113.132788385000026, -7.032414845999938, 0.0 ], [ 113.132803723000052, -7.032391547999964, 0.0 ], [ 113.13288839900008, -7.03234072999993, 0.0 ], [ 113.132926720000114, -7.032301872999938, 0.0 ], [ 113.132911025000112, -7.032263352999962, 0.0 ], [ 113.132875770000055, -7.032205669999939, 0.0 ], [ 113.132879377000108, -7.032178629999976, 0.0 ], [ 113.132956530000115, -7.032147187999954, 0.0 ], [ 113.133060132000082, -7.032042145999981, 0.0 ], [ 113.133079276000103, -7.032018831999949, 0.0 ], [ 113.133109931000035, -7.031983895999929, 0.0 ], [ 113.13318713700005, -7.031964021999954, 0.0 ], [ 113.133291046000068, -7.031893684999943, 0.0 ], [ 113.133384063000108, -7.031676258999937, 0.0 ], [ 113.133448569000052, -7.03142371399997, 0.0 ], [ 113.13355307900008, -7.031190781999953, 0.0 ], [ 113.133770215000027, -7.030917296999974, 0.0 ], [ 113.133887975000107, -7.030677614999945, 0.0 ], [ 113.134005676000015, -7.030424737999965, 0.0 ], [ 113.134076489000108, -7.030132397999978, 0.0 ], [ 113.134095100000081, -7.029959777999977, 0.0 ], [ 113.134014599000011, -7.02919236799994, 0.0 ], [ 113.13402458500002, -7.029124355999954, 0.0 ], [ 113.134008479000045, -7.029077432999941, 0.0 ], [ 113.13399249500003, -7.029040900999973, 0.0 ], [ 113.134012878000021, -7.028962268999976, 0.0 ], [ 113.134033308000085, -7.028894118999972, 0.0 ], [ 113.134037997000064, -7.028826132999939, 0.0 ], [ 113.134006369000076, -7.028795005999939, 0.0 ], [ 113.133822402000078, -7.028717935999964, 0.0 ], [ 113.13333878800006, -7.028507202999947, 0.0 ], [ 113.133043781000083, -7.028294978999952, 0.0 ], [ 113.13298042800011, -7.028227481999977, 0.0 ], [ 113.132963886000084, -7.028117745999964, 0.0 ], [ 113.132904299000074, -7.027861970999936, 0.0 ], [ 113.132804760000113, -7.027614602999961, 0.0 ], [ 113.132628315000034, -7.027223427999957, 0.0 ], [ 113.132574283000054, -7.026958408999974, 0.0 ], [ 113.132474971000079, -7.026826362999941, 0.0 ], [ 113.132439328000032, -7.026699722999979, 0.0 ], [ 113.132479532000048, -7.026664743999959, 0.0 ], [ 113.132520071000044, -7.026670252999963, 0.0 ], [ 113.132624073000102, -7.026669417999926, 0.0 ], [ 113.132681354000056, -7.026599744999942, 0.0 ], [ 113.132868620000067, -7.026377443999934, 0.0 ], [ 113.132875380000087, -7.02636941999998, 0.0 ], [ 113.132885063000117, -7.026357925999946, 0.0 ], [ 113.132916297000065, -7.026320847999955, 0.0 ], [ 113.132928094000022, -7.026265947999946, 0.0 ], [ 113.132931133000056, -7.02625180299998, 0.0 ], [ 113.132932340000025, -7.026246184999934, 0.0 ], [ 113.13294983000003, -7.026164789999939, 0.0 ], [ 113.132971313000098, -7.025951033999945, 0.0 ], [ 113.133096694000074, -7.025713486999962, 0.0 ], [ 113.133347533, -7.025411146999943, 0.0 ], [ 113.133400327000118, -7.025347512999929, 0.0 ], [ 113.133632528000021, -7.025007259999938, 0.0 ], [ 113.133784368000079, -7.024796796999965, 0.0 ], [ 113.133951861000014, -7.024632175999955, 0.0 ], [ 113.133955640000067, -7.024625597999943, 0.0 ], [ 113.134022552000033, -7.024509117999969, 0.0 ], [ 113.134122877000095, -7.024258217999943, 0.0 ], [ 113.134121944000071, -7.024135667999929, 0.0 ], [ 113.13412103600001, -7.024018267999963, 0.0 ], [ 113.134128988000043, -7.023716995999962, 0.0 ], [ 113.134233650000056, -7.023353734999944, 0.0 ], [ 113.134311817000025, -7.023108277999938, 0.0 ], [ 113.134389983, -7.022862822999969, 0.0 ], [ 113.134481533000098, -7.022575339999946, 0.0 ], [ 113.134478960000024, -7.022072470999944, 0.0 ], [ 113.134598063000112, -7.022099048999962, 0.0 ], [ 113.134852077, -7.022141545999943, 0.0 ], [ 113.135168779000082, -7.022236900999928, 0.0 ], [ 113.135374399000057, -7.022350836999976, 0.0 ], [ 113.135405619000039, -7.022349159999976, 0.0 ], [ 113.135565650000103, -7.022340565999968, 0.0 ], [ 113.135889760000055, -7.022172212999976, 0.0 ], [ 113.136040247000096, -7.02209404499996, 0.0 ], [ 113.136135859000092, -7.022044380999944, 0.0 ], [ 113.136190735000014, -7.022015876999944, 0.0 ], [ 113.13624121600003, -7.022006848999979, 0.0 ], [ 113.136271675000103, -7.022001401999944, 0.0 ], [ 113.136346317000061, -7.021988053999962, 0.0 ], [ 113.136381396000047, -7.021925531999955, 0.0 ], [ 113.136384938000106, -7.021915059999969, 0.0 ], [ 113.136393233000035, -7.021890538999969, 0.0 ], [ 113.136420559000044, -7.021809757999961, 0.0 ], [ 113.136411133000024, -7.021738761999927, 0.0 ], [ 113.136407786000063, -7.021730591999926, 0.0 ], [ 113.13638494700001, -7.021674842999971, 0.0 ], [ 113.13637484100002, -7.021650174999934, 0.0 ], [ 113.136374449000073, -7.021596851999959, 0.0 ], [ 113.136396228000081, -7.021530052999935, 0.0 ], [ 113.136364454000045, -7.021450301999948, 0.0 ], [ 113.136341280000011, -7.021326044999967, 0.0 ], [ 113.136392287000035, -7.021173250999936, 0.0 ], [ 113.136364210000011, -7.021102701999951, 0.0 ], [ 113.136299367000106, -7.020855628999925, 0.0 ], [ 113.136325786000043, -7.020710086999941, 0.0 ], [ 113.136395004000065, -7.020493401999943, 0.0 ], [ 113.136398283000062, -7.020410870999967, 0.0 ], [ 113.136366453000051, -7.020367814999929, 0.0 ], [ 113.136334604000012, -7.020320961999971, 0.0 ], [ 113.136373268000057, -7.020226338999976, 0.0 ], [ 113.136384419000024, -7.020135817999972, 0.0 ], [ 113.136320430000069, -7.020010571999933, 0.0 ], [ 113.136267867000015, -7.019822369999929, 0.0 ], [ 113.13626699200006, -7.019712290999962, 0.0 ], [ 113.136345101000074, -7.019629237999936, 0.0 ], [ 113.136481592000109, -7.019292855999936, 0.0 ], [ 113.136573290000115, -7.019064861999937, 0.0 ], [ 113.136717175000058, -7.018795687999955, 0.0 ], [ 113.1367390260001, -7.018597385999954, 0.0 ], [ 113.136788184000011, -7.018154029999948, 0.0 ], [ 113.13679172500008, -7.017850969999927, 0.0 ], [ 113.1368014520001, -7.01780935499994, 0.0 ], [ 113.136831315000109, -7.017681598999957, 0.0 ], [ 113.136969796000017, -7.017470744999969, 0.0 ], [ 113.136996896000028, -7.017196680999973, 0.0 ], [ 113.137092205000044, -7.01676260499994, 0.0 ], [ 113.137173044000065, -7.016574788999947, 0.0 ], [ 113.137350246000096, -7.016510986999947, 0.0 ], [ 113.137791223000022, -7.016520818999936, 0.0 ], [ 113.137952446000099, -7.016519541999969, 0.0 ], [ 113.138063890000012, -7.016466161999972, 0.0 ], [ 113.138132975000076, -7.016465665999931, 0.0 ], [ 113.1384491230001, -7.016505889999962, 0.0 ], [ 113.13905872600003, -7.016616266999961, 0.0 ], [ 113.139167337000117, -7.016628515999969, 0.0 ], [ 113.139267707000045, -7.016502791999926, 0.0 ], [ 113.139490941000076, -7.01612859599993, 0.0 ], [ 113.139731262000055, -7.015771314999938, 0.0 ], [ 113.139821022000092, -7.015674650999927, 0.0 ], [ 113.139967460000094, -7.015605836999953, 0.0 ], [ 113.140034007000054, -7.015441675999966, 0.0 ], [ 113.140146119000065, -7.015322314999935, 0.0 ], [ 113.140229269000088, -7.015101681999965, 0.0 ], [ 113.140357224000013, -7.014841075999925, 0.0 ], [ 113.140446983000061, -7.014744502999974, 0.0 ], [ 113.140582312000106, -7.01470963099996, 0.0 ], [ 113.140610332000051, -7.014669916999935, 0.0 ], [ 113.140621190000047, -7.014613380999947, 0.0 ], [ 113.140654602000041, -7.014545443999964, 0.0 ], [ 113.140699253000093, -7.014471670999967, 0.0 ], [ 113.140749449000054, -7.01438666599995, 0.0 ], [ 113.140754611000034, -7.014324551999948, 0.0 ], [ 113.140709172000015, -7.014291047999961, 0.0 ], [ 113.140691855000114, -7.014240423999979, 0.0 ], [ 113.140696536000064, -7.014121914999976, 0.0 ], [ 113.140740959000027, -7.01401434099995, 0.0 ], [ 113.140791128000046, -7.013923641999952, 0.0 ], [ 113.140818870000089, -7.013855730999978, 0.0 ], [ 113.14089548100003, -7.013722704999964, 0.0 ], [ 113.14100507, -7.013622787999964, 0.0 ], [ 113.14108150900006, -7.01351750799995, 0.0 ], [ 113.141075613000112, -7.013468007999961, 0.0 ], [ 113.141020305000097, -7.013446386999931, 0.0 ], [ 113.141025300000024, -7.013380296999969, 0.0 ], [ 113.140902415000028, -7.013182926999946, 0.0 ], [ 113.140834213000062, -7.012919057999966, 0.0 ], [ 113.140839408000033, -7.012880442999972, 0.0 ], [ 113.140910477000034, -7.012791817999926, 0.0 ], [ 113.140997957000081, -7.012686488999975, 0.0 ], [ 113.141123959000083, -7.012569866999968, 0.0 ], [ 113.14114569100002, -7.012525661999973, 0.0 ], [ 113.141211840000096, -7.012519666999935, 0.0 ], [ 113.141338742000016, -7.012518635999925, 0.0 ], [ 113.141487077000079, -7.012440412999979, 0.0 ], [ 113.141578010000103, -7.012339677999933, 0.0 ], [ 113.141593150000062, -7.012273179999966, 0.0 ], [ 113.141682813000102, -7.012237341999935, 0.0 ], [ 113.141760910000016, -7.012217282999927, 0.0 ], [ 113.141811516000075, -7.012189576999958, 0.0 ], [ 113.141830536000043, -7.012123060999954, 0.0 ], [ 113.141833781000059, -7.012033208999981, 0.0 ], [ 113.14186866700004, -7.011993915999938, 0.0 ], [ 113.141946634000078, -7.011962017999963, 0.0 ], [ 113.141993290000073, -7.011918783999931, 0.0 ], [ 113.142035810000039, -7.011852069999975, 0.0 ], [ 113.142051085000048, -7.011802365999927, 0.0 ], [ 113.142058673000065, -7.011777673999973, 0.0 ], [ 113.142062153000097, -7.011722978999956, 0.0 ], [ 113.142081664000102, -7.01171502699998, 0.0 ], [ 113.142124565000017, -7.01169910599998, 0.0 ], [ 113.142151745000092, -7.011671505999971, 0.0 ], [ 113.142174971000031, -7.011644014999945, 0.0 ], [ 113.142174554, -7.011585450999974, 0.0 ], [ 113.142189712000118, -7.011522928999966, 0.0 ], [ 113.142286973000068, -7.011451898999951, 0.0 ], [ 113.142325666000033, -7.011396862999959, 0.0 ], [ 113.142288355, -7.01132979099998, 0.0 ], [ 113.142205425000043, -7.01125534099998, 0.0 ], [ 113.142128189, -7.011186003999967, 0.0 ], [ 113.142054444000109, -7.011048421999931, 0.0 ], [ 113.142053688000033, -7.010948284999927, 0.0 ], [ 113.142070394000029, -7.010865240999976, 0.0 ], [ 113.142117733000077, -7.010726743999953, 0.0 ], [ 113.142178981000029, -7.010595052999975, 0.0 ], [ 113.142185163000022, -7.010494883999968, 0.0 ], [ 113.142177791000108, -7.010432736999974, 0.0 ], [ 113.142149743, -7.010384601999931, 0.0 ], [ 113.142083616000036, -7.010329861999935, 0.0 ], [ 113.142051966000054, -7.010261047999961, 0.0 ], [ 113.142027180000014, -7.010192109999934, 0.0 ], [ 113.141981914000098, -7.010147578999977, 0.0 ], [ 113.141906377000055, -7.010107251999955, 0.0 ], [ 113.141822408000053, -7.010082780999937, 0.0 ], [ 113.14168845800009, -7.010108878999972, 0.0 ], [ 113.141588459000104, -7.010184982999931, 0.0 ], [ 113.141545817000065, -7.010217411999975, 0.0 ], [ 113.14135507900005, -7.010362467999926, 0.0 ], [ 113.141162832000077, -7.01043085799995, 0.0 ], [ 113.141155433000108, -7.010429158999955, 0.0 ], [ 113.140986499000064, -7.010390358999928, 0.0 ], [ 113.140751114000068, -7.010308552999959, 0.0 ], [ 113.140456900000117, -7.010201980999966, 0.0 ], [ 113.140171724000083, -7.010179058999938, 0.0 ], [ 113.140011838000078, -7.010096547999979, 0.0 ], [ 113.13974182000004, -7.009864326999946, 0.0 ], [ 113.139420383000015, -7.009481768999933, 0.0 ], [ 113.139386168000101, -7.009390007999968, 0.0 ], [ 113.139402353000037, -7.009351538999965, 0.0 ], [ 113.139410893000104, -7.009331239999938, 0.0 ], [ 113.13958005500001, -7.009174021999968, 0.0 ], [ 113.139686022000092, -7.009048634999942, 0.0 ], [ 113.139773840000089, -7.008870005999938, 0.0 ], [ 113.139785153000048, -7.008798734999971, 0.0 ], [ 113.139850506000016, -7.008798256999967, 0.0 ], [ 113.139892318000079, -7.008821655999952, 0.0 ], [ 113.140024176000111, -7.008974880999972, 0.0 ], [ 113.140081452000118, -7.009020341999928, 0.0 ], [ 113.140179623000108, -7.009098263999931, 0.0 ], [ 113.140221278000013, -7.009103857999946, 0.0 ], [ 113.140268592000098, -7.009073907999948, 0.0 ], [ 113.140315931000032, -7.009049741999945, 0.0 ], [ 113.140333314000031, -7.008984408999936, 0.0 ], [ 113.140380741000058, -7.00894029899996, 0.0 ], [ 113.140404114000034, -7.008918560999973, 0.0 ], [ 113.140426243000093, -7.00891157999996, 0.0 ], [ 113.14048114600007, -7.008894258999931, 0.0 ], [ 113.140540138, -7.008840394999936, 0.0 ], [ 113.140616093000062, -7.008661819999929, 0.0 ], [ 113.140644844, -7.008537055999966, 0.0 ], [ 113.140626621000024, -7.008483814999977, 0.0 ], [ 113.140578814000037, -7.008454478999965, 0.0 ], [ 113.140465965000089, -7.008461318999935, 0.0 ], [ 113.140417346000049, -7.008481953999933, 0.0 ], [ 113.140394928000092, -7.008491468999978, 0.0 ], [ 113.14032368800008, -7.008509868999965, 0.0 ], [ 113.14025244100003, -7.008510374999958, 0.0 ], [ 113.140198611000073, -7.008469225999931, 0.0 ], [ 113.140202568000063, -7.008208191999927, 0.0 ], [ 113.140200047, -7.008176348999939, 0.0 ], [ 113.140195158000097, -7.008114597999963, 0.0 ], [ 113.140190270000062, -7.008052845999941, 0.0 ], [ 113.140176283000073, -7.007876166999949, 0.0 ], [ 113.140157355000042, -7.007733904999952, 0.0 ], [ 113.1401986730001, -7.007698016999939, 0.0 ], [ 113.140258186000096, -7.007709404999957, 0.0 ], [ 113.140331292000042, -7.007748005999929, 0.0 ], [ 113.140335740000069, -7.007750354999928, 0.0 ], [ 113.140401458000042, -7.007797323999966, 0.0 ], [ 113.140455105000115, -7.007814702999951, 0.0 ], [ 113.140496552000059, -7.007790653999962, 0.0 ], [ 113.140495691000069, -7.007683920999966, 0.0 ], [ 113.14048312500006, -7.007594953999956, 0.0 ], [ 113.14043287100003, -7.00754171899996, 0.0 ], [ 113.140405307000037, -7.007512519999977, 0.0 ], [ 113.140333308000095, -7.00743006099998, 0.0 ], [ 113.140311183000108, -7.00733258799994, 0.0 ], [ 113.140290291000042, -7.007240549999949, 0.0 ], [ 113.1403075180001, -7.007157321999955, 0.0 ], [ 113.140307051000036, -7.007103909999955, 0.0 ], [ 113.140229599, -7.007068923999952, 0.0 ], [ 113.140092640000034, -7.007040264999944, 0.0 ], [ 113.139961751000101, -7.007017542999961, 0.0 ], [ 113.139884171000062, -7.00697071899998, 0.0 ], [ 113.139841783000065, -7.006870137999954, 0.0 ], [ 113.139840788000015, -7.006733759999975, 0.0 ], [ 113.1398637530001, -7.006632701999933, 0.0 ], [ 113.139884835000089, -7.006623508999951, 0.0 ], [ 113.13990522600011, -7.006614616999968, 0.0 ], [ 113.13997060600002, -7.006620013999964, 0.0 ], [ 113.1399781450001, -7.006623507999961, 0.0 ], [ 113.140083949000086, -7.006672549999962, 0.0 ], [ 113.14018890300008, -7.006715713999938, 0.0 ], [ 113.140197190000094, -7.006719121999936, 0.0 ], [ 113.140268566000032, -7.006730455999957, 0.0 ], [ 113.140279852000049, -7.006653220999965, 0.0 ], [ 113.140266199000052, -7.006623507999961, 0.0 ], [ 113.140225520000058, -7.006534979999969, 0.0 ], [ 113.14017732100001, -7.006452321999973, 0.0 ], [ 113.14006405300006, -7.006399784999928, 0.0 ], [ 113.139795814000081, -7.006295080999962, 0.0 ], [ 113.139561991000051, -7.006147615999964, 0.0 ], [ 113.1395355840001, -7.006130961999929, 0.0 ], [ 113.139460828000097, -7.006098042999952, 0.0 ], [ 113.139393600000062, -7.006080001999976, 0.0 ], [ 113.13930413300011, -7.00607688499997, 0.0 ], [ 113.139132996000058, -7.00611173599998, 0.0 ], [ 113.139111079000031, -7.006117880999966, 0.0 ], [ 113.139005030000021, -7.006147615999964, 0.0 ], [ 113.138928538000073, -7.006169063999948, 0.0 ], [ 113.138761421000027, -7.006147615999964, 0.0 ], [ 113.138682342000038, -7.006137466999974, 0.0 ], [ 113.138547801000072, -7.006082676999938, 0.0 ], [ 113.138450067, -7.005968157999973, 0.0 ], [ 113.138449647000016, -7.005908599999941, 0.0 ], [ 113.138542399000016, -7.005863258999966, 0.0 ], [ 113.138642527000115, -7.005799266999929, 0.0 ], [ 113.138679334000017, -7.005739447999929, 0.0 ], [ 113.138671453000029, -7.005680014999939, 0.0 ], [ 113.138648861000092, -7.005650381999942, 0.0 ], [ 113.138596520000078, -7.005624771999976, 0.0 ], [ 113.138506365000012, -7.005536157999927, 0.0 ], [ 113.138510432000089, -7.005364508999946, 0.0 ], [ 113.138515530000063, -7.005271755999956, 0.0 ], [ 113.138544138000043, -7.005213692999973, 0.0 ], [ 113.138764517000027, -7.00521196699998, 0.0 ], [ 113.138938439000071, -7.005199064999942, 0.0 ], [ 113.139048423000077, -7.005169280999951, 0.0 ], [ 113.139210166000112, -7.005086931999926, 0.0 ], [ 113.139278663000027, -7.004941650999967, 0.0 ], [ 113.139358285000071, -7.004732601999933, 0.0 ], [ 113.139438175, -7.00452589799994, 0.0 ], [ 113.139443597000081, -7.004511867999952, 0.0 ], [ 113.139485470000068, -7.004348122999943, 0.0 ], [ 113.139499964000038, -7.004291445999968, 0.0 ], [ 113.139484640000092, -7.004232203999948, 0.0 ], [ 113.139452119000111, -7.004106476999937, 0.0 ], [ 113.139421885000047, -7.003938778999952, 0.0 ], [ 113.139427703000024, -7.003787286999966, 0.0 ], [ 113.139429949000032, -7.003728813999942, 0.0 ], [ 113.139434244000086, -7.003616975999932, 0.0 ], [ 113.139437173000033, -7.003540717999954, 0.0 ], [ 113.139442225000039, -7.003409151999961, 0.0 ], [ 113.139486944000055, -7.003219332999947, 0.0 ], [ 113.139506933, -7.003152631999967, 0.0 ], [ 113.139583610000045, -7.003116130999956, 0.0 ], [ 113.139804067000114, -7.003099130999942, 0.0 ], [ 113.139890826000055, -7.003031854999961, 0.0 ], [ 113.139997810000068, -7.002933757999926, 0.0 ], [ 113.140063596, -7.002815421999969, 0.0 ], [ 113.140165732000014, -7.002685969999959, 0.0 ], [ 113.140246516000047, -7.002583578999975, 0.0 ], [ 113.140267643000016, -7.002543375999949, 0.0 ], [ 113.140288770000097, -7.002503173999969, 0.0 ], [ 113.140403245000016, -7.002285335999943, 0.0 ], [ 113.140589614000078, -7.001828070999977, 0.0 ], [ 113.140665525000031, -7.001689172999932, 0.0 ], [ 113.140981307000061, -7.00138966399993, 0.0 ], [ 113.14099069800011, -7.00127312199993, 0.0 ], [ 113.140990370000054, -7.001233897999953, 0.0 ], [ 113.140978902000029, -7.001205933999927, 0.0 ], [ 113.140889080000079, -7.001206613999955, 0.0 ], [ 113.140861306000033, -7.001214235999953, 0.0 ], [ 113.140805031000014, -7.001229680999927, 0.0 ], [ 113.140687083000103, -7.00123057899998, 0.0 ], [ 113.140641845, -7.001191650999942, 0.0 ], [ 113.140607794000061, -7.001135860999966, 0.0 ], [ 113.140634884000065, -7.001006675999975, 0.0 ], [ 113.140678531000049, -7.000843793999934, 0.0 ], [ 113.140720130000091, -7.000743320999959, 0.0 ], [ 113.140783317000114, -7.000590705999969, 0.0 ], [ 113.140933974000063, -7.000466199999948, 0.0 ], [ 113.141044911000108, -7.000285930999951, 0.0 ], [ 113.141033139000115, -7.000207533999969, 0.0 ], [ 113.140971242000091, -7.000196789999961, 0.0 ], [ 113.140859192000107, -7.000231281999959, 0.0 ], [ 113.140764055000091, -7.000276904999964, 0.0 ], [ 113.1407345, -7.000277125999958, 0.0 ], [ 113.140702284000099, -7.000277366999967, 0.0 ], [ 113.140685144000031, -7.000232616999938, 0.0 ], [ 113.140684588000113, -7.00015977399994, 0.0 ], [ 113.140739375000067, -6.999985543999969, 0.0 ], [ 113.140760792000037, -6.999839573999964, 0.0 ], [ 113.140788161000046, -6.999755214999936, 0.0 ], [ 113.140838590000044, -6.999738083999944, 0.0 ], [ 113.14097899300009, -6.999736992999942, 0.0 ], [ 113.141097484000056, -6.999757331999945, 0.0 ], [ 113.141145969000036, -6.999510284999928, 0.0 ], [ 113.141214016000049, -6.999429807999945, 0.0 ], [ 113.141408421000051, -6.999410033999936, 0.0 ], [ 113.141647033000027, -6.999497248999944, 0.0 ], [ 113.141775442000039, -6.999532905999956, 0.0 ], [ 113.141862270000047, -6.999513892999971, 0.0 ], [ 113.141947811000023, -6.999376396999935, 0.0 ], [ 113.142059126000049, -6.999246556999935, 0.0 ], [ 113.142182466, -6.999217615999953, 0.0 ], [ 113.142244439000024, -6.999245170999927, 0.0 ], [ 113.142272843000114, -6.99928977999997, 0.0 ], [ 113.142312918000016, -6.999390369999958, 0.0 ], [ 113.142364662000091, -6.999547032999942, 0.0 ], [ 113.142488634000074, -6.999607745999981, 0.0 ], [ 113.14252827200005, -6.999579817999972, 0.0 ], [ 113.142599884000106, -6.999528970999961, 0.0 ], [ 113.14268107700002, -6.999468407999927, 0.0 ], [ 113.142737901000032, -6.99936493499996, 0.0 ], [ 113.142776093000066, -6.999331049999967, 0.0 ], [ 113.142842942000016, -6.999282572999959, 0.0 ], [ 113.142868811000085, -6.999212862999968, 0.0 ], [ 113.142873217000101, -6.999164850999932, 0.0 ], [ 113.142892052000093, -6.999107193999976, 0.0 ], [ 113.142937418000088, -6.999075715999936, 0.0 ], [ 113.142999849000034, -6.999072810999962, 0.0 ], [ 113.143066969000074, -6.999067533999948, 0.0 ], [ 113.143155820000061, -6.999066857999935, 0.0 ], [ 113.143187068000088, -6.999064184999952, 0.0 ], [ 113.143234799000084, -6.999027905999981, 0.0 ], [ 113.143246626000064, -6.999003810999966, 0.0 ], [ 113.143318627000099, -6.999005652999926, 0.0 ], [ 113.143385800000033, -6.998995585999978, 0.0 ], [ 113.143411982000089, -6.99896184499994, 0.0 ], [ 113.143435691000036, -6.998925675999942, 0.0 ], [ 113.143470988000104, -6.998829531999945, 0.0 ], [ 113.143484974000103, -6.998771895999937, 0.0 ], [ 113.14352081200002, -6.998745251999935, 0.0 ], [ 113.143563974000017, -6.998737734999963, 0.0 ], [ 113.143583342000056, -6.998763946999929, 0.0 ], [ 113.143627012000024, -6.99881869799998, 0.0 ], [ 113.143704069000023, -6.998849256999961, 0.0 ], [ 113.143759253000098, -6.998844124999948, 0.0 ], [ 113.143814263000081, -6.998817302999953, 0.0 ], [ 113.143835552000041, -6.998774003999927, 0.0 ], [ 113.14389850900011, -6.998706654999978, 0.0 ], [ 113.143996798000103, -6.998583291999978, 0.0 ], [ 113.144100257000105, -6.998514041999954, 0.0 ], [ 113.144184993000067, -6.998478045999946, 0.0 ], [ 113.144281601000102, -6.998444254999981, 0.0 ], [ 113.144376090000037, -6.998436503999926, 0.0 ], [ 113.144482591000042, -6.99846159599997, 0.0 ], [ 113.144589220000057, -6.998498526999981, 0.0 ], [ 113.144707691, -6.998547152999947, 0.0 ], [ 113.144799803000069, -6.998541762999935, 0.0 ], [ 113.144870536000099, -6.998527069999966, 0.0 ], [ 113.144924546000084, -6.998477114999957, 0.0 ], [ 113.144924182000068, -6.998429938999948, 0.0 ], [ 113.144902555000044, -6.998382948999961, 0.0 ], [ 113.144880790000116, -6.998321770999951, 0.0 ], [ 113.144880521, -6.998279294999975, 0.0 ], [ 113.144882651000103, -6.998255695999944, 0.0 ], [ 113.144896782000046, -6.998246140999981, 0.0 ], [ 113.14494159700007, -6.998241055999927, 0.0 ], [ 113.145017469000095, -6.998273517999962, 0.0 ], [ 113.145088480000027, -6.998287112999947, 0.0 ], [ 113.145147437000105, -6.998274913999978, 0.0 ], [ 113.145156879000069, -6.998267730999942, 0.0 ], [ 113.145180239000069, -6.99823689599998, 0.0 ], [ 113.145210449000047, -6.99817059999998, 0.0 ], [ 113.145293781000078, -6.998039711999979, 0.0 ], [ 113.14532443500002, -6.997956151999972, 0.0 ], [ 113.145425076000038, -6.997825184999954, 0.0 ], [ 113.145458862000055, -6.997806774999958, 0.0 ], [ 113.14553967900008, -6.997811376999948, 0.0 ], [ 113.145654575000094, -6.997828657999946, 0.0 ], [ 113.145722400000068, -6.997830788999977, 0.0 ], [ 113.145800536000024, -6.997819767999943, 0.0 ], [ 113.145891556000038, -6.997787809999977, 0.0 ], [ 113.145985418, -6.997789731999944, 0.0 ], [ 113.1460798600001, -6.997869648999938, 0.0 ], [ 113.14612429400006, -6.997906646999979, 0.0 ], [ 113.14614808400006, -6.997926456999949, 0.0 ], [ 113.14617948800003, -6.99794185899998, 0.0 ], [ 113.146218579000106, -6.997941499999968, 0.0 ], [ 113.146239251000111, -6.997910133999937, 0.0 ], [ 113.146251833000065, -6.997855397999956, 0.0 ], [ 113.146250212000041, -6.997797137999953, 0.0 ], [ 113.146247548000019, -6.997701409999934, 0.0 ], [ 113.146242919000088, -6.997635183999932, 0.0 ], [ 113.146236088000023, -6.997560741999962, 0.0 ], [ 113.146215632, -6.997411781999972, 0.0 ], [ 113.146177976000104, -6.997137579999958, 0.0 ], [ 113.146184762000075, -6.997087750999981, 0.0 ], [ 113.146198699000024, -6.997052167999925, 0.0 ], [ 113.146220035000056, -6.99705198099997, 0.0 ], [ 113.146355691000053, -6.997090043999947, 0.0 ], [ 113.146401863000051, -6.997071937999976, 0.0 ], [ 113.146404960000041, -6.997014984999964, 0.0 ], [ 113.146418439000058, -6.996911800999953, 0.0 ], [ 113.146442948000072, -6.996854749999954, 0.0 ], [ 113.146495674000107, -6.996769010999969, 0.0 ], [ 113.146466816000043, -6.996722957999964, 0.0 ], [ 113.146424052000043, -6.996719718999941, 0.0 ], [ 113.146335176000093, -6.996731060999934, 0.0 ], [ 113.146274112000015, -6.996723700999951, 0.0 ], [ 113.146224626000048, -6.996717736999926, 0.0 ], [ 113.146235041000068, -6.99667855499996, 0.0 ], [ 113.146319625000046, -6.99656058599993, 0.0 ], [ 113.146412760000089, -6.996492122999939, 0.0 ], [ 113.146422309000059, -6.996485102999941, 0.0 ], [ 113.146514309000054, -6.996406233999949, 0.0 ], [ 113.14654595200011, -6.996359724999934, 0.0 ], [ 113.146524035000084, -6.996281646999932, 0.0 ], [ 113.146480827, -6.996254292999936, 0.0 ], [ 113.146207947000107, -6.996081535999963, 0.0 ], [ 113.146030218000078, -6.995969017999926, 0.0 ], [ 113.14594932600005, -6.995866444999933, 0.0 ], [ 113.145970226000031, -6.995721651999929, 0.0 ], [ 113.14579036300006, -6.995672250999974, 0.0 ], [ 113.145780866000109, -6.995669642999928, 0.0 ], [ 113.145784176, -6.99565146599997, 0.0 ], [ 113.145814126, -6.99548701599997, 0.0 ], [ 113.145917871000051, -6.995464218999928, 0.0 ], [ 113.146011472000055, -6.99534394899996, 0.0 ], [ 113.145902960000058, -6.995156093999981, 0.0 ], [ 113.145954271000051, -6.994858421999936, 0.0 ], [ 113.145823236000069, -6.994877097999961, 0.0 ], [ 113.145810156000039, -6.994878961999973, 0.0 ], [ 113.145843299000035, -6.994621862999963, 0.0 ], [ 113.145888606000085, -6.994430774999955, 0.0 ], [ 113.145954472000085, -6.994379681999931, 0.0 ], [ 113.14610928400009, -6.994234458999927, 0.0 ], [ 113.14613569900007, -6.994121455999959, 0.0 ], [ 113.146268430000077, -6.994139919999952, 0.0 ], [ 113.146311347000051, -6.99398083799997, 0.0 ], [ 113.14647285, -6.993920414999934, 0.0 ], [ 113.146479359000068, -6.993917979999935, 0.0 ], [ 113.146488090000048, -6.993914712999981, 0.0 ], [ 113.146493294000038, -6.993912765999937, 0.0 ], [ 113.146494401000041, -6.993910513999936, 0.0 ], [ 113.146500587000105, -6.993897928999957, 0.0 ], [ 113.146502487000021, -6.99389406399996, 0.0 ], [ 113.146507843000109, -6.993883166999979, 0.0 ], [ 113.146508550000021, -6.993881727999963, 0.0 ], [ 113.14651367700003, -6.993871296999941, 0.0 ], [ 113.146545922000087, -6.993805696999971, 0.0 ], [ 113.146562499000083, -6.993645650999952, 0.0 ], [ 113.14654771700009, -6.993463603999942, 0.0 ], [ 113.146485978000101, -6.993412239999941, 0.0 ], [ 113.146424237000019, -6.993360873999961, 0.0 ], [ 113.146314888, -6.993269897999937, 0.0 ], [ 113.14633647800008, -6.993228165999938, 0.0 ], [ 113.146366346000036, -6.993170433999978, 0.0 ], [ 113.146446448, -6.993015603999936, 0.0 ], [ 113.146561802000065, -6.992970248999939, 0.0 ], [ 113.146616823000045, -6.992913330999954, 0.0 ], [ 113.146660191000024, -6.992869389999953, 0.0 ], [ 113.146652766000102, -6.992713790999971, 0.0 ], [ 113.146681529000034, -6.992395976999944, 0.0 ], [ 113.146679566000103, -6.99214015299998, 0.0 ], [ 113.146678948000044, -6.992059686999937, 0.0 ], [ 113.146690089000117, -6.991885203999971, 0.0 ], [ 113.146832100000097, -6.991583683999977, 0.0 ], [ 113.147033486000055, -6.990904469999975, 0.0 ], [ 113.147222558000067, -6.99053467899995, 0.0 ], [ 113.147392309000111, -6.990214143999935, 0.0 ], [ 113.147454793000065, -6.990027044999977, 0.0 ], [ 113.147625221000112, -6.990079451999975, 0.0 ], [ 113.148041627000111, -6.990115143999958, 0.0 ], [ 113.148715014000118, -6.990162732999977, 0.0 ], [ 113.149074313000028, -6.990165111999943, 0.0 ], [ 113.149507374000109, -6.99013655899995, 0.0 ], [ 113.149697077000042, -6.990111653999975, 0.0 ], [ 113.150184867, -6.990028372999973, 0.0 ], [ 113.150443436000046, -6.989926372999946, 0.0 ], [ 113.150662345000114, -6.989893060999975, 0.0 ], [ 113.150781318000099, -6.989928753999948, 0.0 ], [ 113.150817009000093, -6.989983480999967, 0.0 ], [ 113.150840806000019, -6.990104833999965, 0.0 ], [ 113.150812251000048, -6.990411783999946, 0.0 ], [ 113.150786077000021, -6.990759186999981, 0.0 ], [ 113.15071707300001, -6.990978094999946, 0.0 ], [ 113.150650448000079, -6.991251733999945, 0.0 ], [ 113.150579064000112, -6.991784731999928, 0.0 ], [ 113.150555269000051, -6.992022677999955, 0.0 ], [ 113.150567167000077, -6.992051233999973, 0.0 ], [ 113.151149760000067, -6.992123763999928, 0.0 ], [ 113.151748471000019, -6.992070546999969, 0.0 ], [ 113.152538015, -6.991945017999967, 0.0 ], [ 113.152987693000114, -6.991873527999928, 0.0 ], [ 113.156166654000117, -6.991074027999957, 0.0 ], [ 113.158051188000059, -6.990517232999935, 0.0 ], [ 113.159264711000105, -6.990031822999981, 0.0 ], [ 113.160791515000028, -6.989807706999954, 0.0 ], [ 113.160820879000084, -6.989803394999967, 0.0 ], [ 113.160913851000032, -6.989801688999933, 0.0 ], [ 113.16299079700002, -6.989763579999931, 0.0 ], [ 113.163933214000053, -6.989746287999935, 0.0 ], [ 113.165089633000093, -6.989674904999958, 0.0 ], [ 113.165774917000022, -6.989689179999971, 0.0 ], [ 113.167031272000031, -6.990160314999969, 0.0 ], [ 113.167366949000098, -6.990248229999963, 0.0 ], [ 113.168230520000066, -6.990474404999929, 0.0 ], [ 113.168465869000102, -6.990467047999971, 0.0 ], [ 113.169601091000118, -6.990431572999967, 0.0 ], [ 113.170629018000113, -6.990146036999931, 0.0 ], [ 113.171813989000043, -6.989603519999946, 0.0 ], [ 113.172899023000014, -6.988746913999933, 0.0 ], [ 113.173123188000091, -6.988707097999963, 0.0 ], [ 113.173559186000034, -6.98863954899997, 0.0 ], [ 113.173550328000033, -6.988967866999928, 0.0 ], [ 113.173863284000049, -6.989019545999952, 0.0 ], [ 113.174069050000071, -6.989053525999964, 0.0 ], [ 113.175225469000111, -6.989277195999932, 0.0 ], [ 113.176166544000012, -6.98929123399995, 0.0 ], [ 113.176690025000084, -6.989136568999925, 0.0 ], [ 113.177075150000064, -6.988787652999974, 0.0 ], [ 113.177386018000107, -6.988506012999949, 0.0 ], [ 113.177695419000088, -6.988180107999938, 0.0 ], [ 113.177803588000074, -6.988174098999934, 0.0 ], [ 113.177984427000069, -6.98821216999994, 0.0 ], [ 113.178155749000098, -6.988345421999952, 0.0 ], [ 113.178327069000034, -6.988412044999961, 0.0 ], [ 113.178479355000036, -6.988412044999961, 0.0 ], [ 113.179364514000099, -6.988431079999941, 0.0 ], [ 113.179963817000043, -6.988396506999948, 0.0 ], [ 113.180354371000021, -6.988373972999966, 0.0 ], [ 113.181600724000077, -6.988229836999949, 0.0 ], [ 113.181837316000042, -6.988295350999977, 0.0 ], [ 113.182005395000033, -6.988341892999927, 0.0 ], [ 113.183480571000018, -6.988750383999957, 0.0 ], [ 113.184325279000063, -6.989131095999937, 0.0 ], [ 113.184551329000101, -6.989333349999981, 0.0 ], [ 113.184765481000113, -6.989517758999966, 0.0 ], [ 113.184943940000039, -6.989571295999951, 0.0 ], [ 113.185588862000031, -6.989667609999969, 0.0 ], [ 113.185756526000091, -6.989692648999949, 0.0 ], [ 113.186479882000071, -6.989959150999937, 0.0 ], [ 113.186793972000032, -6.989968665999982, 0.0 ], [ 113.187069988000076, -6.989949630999945, 0.0 ], [ 113.187326970000072, -6.989987701999951, 0.0 ], [ 113.18761250700004, -6.990225647999978, 0.0 ], [ 113.187907559000109, -6.990416004999929, 0.0 ], [ 113.188306822000072, -6.99054909299997, 0.0 ], [ 113.189163914, -6.990834789999951, 0.0 ], [ 113.190357300000073, -6.991013797999926, 0.0 ], [ 113.191067482000108, -6.99112032599993, 0.0 ], [ 113.191751312000065, -6.991193968999937, 0.0 ], [ 113.19229633100008, -6.991252663999944, 0.0 ], [ 113.19230480300007, -6.991253575999963, 0.0 ], [ 113.19306509, -6.991369475999932, 0.0 ], [ 113.193550500000015, -6.991207671999973, 0.0 ], [ 113.194730713000013, -6.990931653999951, 0.0 ], [ 113.195872854000072, -6.990807923999967, 0.0 ], [ 113.197214870000039, -6.990960207999933, 0.0 ], [ 113.198357011000098, -6.991340921999949, 0.0 ], [ 113.2001273300001, -6.99206427799993, 0.0 ], [ 113.200945865000108, -6.992159455999968, 0.0 ], [ 113.201850061000073, -6.992016687999978, 0.0 ], [ 113.203125451, -6.991607420999969, 0.0 ], [ 113.203934468000057, -6.991607420999969, 0.0 ], [ 113.204762520000031, -6.99182633199996, 0.0 ], [ 113.206637535000027, -6.99245450899997, 0.0 ], [ 113.207560766000029, -6.99305413299993, 0.0 ], [ 113.208265088000076, -6.993463400999929, 0.0 ], [ 113.208760015000053, -6.993425328999933, 0.0 ], [ 113.209645175000105, -6.993254007999951, 0.0 ], [ 113.210577924000063, -6.992863776999968, 0.0 ], [ 113.210968156000035, -6.992778115999954, 0.0 ], [ 113.211510538000084, -6.992836089999969, 0.0 ], [ 113.211496080000074, -6.993309960999966, 0.0 ], [ 113.211438120000025, -6.993961018999926, 0.0 ], [ 113.21129987900008, -6.994816018999927, 0.0 ], [ 113.211160920000111, -6.995590019999952, 0.0 ], [ 113.210818918000086, -6.996690000999934, 0.0 ], [ 113.210557920000042, -6.997424040999931, 0.0 ], [ 113.210255880000091, -6.998198039999977, 0.0 ], [ 113.209832160000019, -6.999094979999938, 0.0 ], [ 113.209407, -6.999999029999969, 0.0 ], [ 113.209405920000108, -7.000003619999973, 0.0 ], [ 113.209377839000013, -7.000131960999965, 0.0 ], [ 113.20934904, -7.000233029999947, 0.0 ], [ 113.209306920000017, -7.000376039999935, 0.0 ], [ 113.209151038000073, -7.000792020999938, 0.0 ], [ 113.209094879000077, -7.001020979999964, 0.0 ], [ 113.208895080000048, -7.001350017999926, 0.0 ], [ 113.20816607900008, -7.001951039999938, 0.0 ], [ 113.207605920000105, -7.00228403999995, 0.0 ], [ 113.207111998000073, -7.002728009999942, 0.0 ], [ 113.207074918000103, -7.003033020999965, 0.0 ], [ 113.20707599900004, -7.00326296999998, 0.0 ], [ 113.20707599900004, -7.003290960999948, 0.0 ], [ 113.207126040000048, -7.003546019999931, 0.0 ], [ 113.207247, -7.003995029999942, 0.0 ], [ 113.207360040000026, -7.004432969999925, 0.0 ], [ 113.20733916000006, -7.004664, 0.0 ], [ 113.207322960000056, -7.004829959999938, 0.0 ], [ 113.207245920000105, -7.00507700999998, 0.0 ], [ 113.207022, -7.005985019999969, 0.0 ], [ 113.207004, -7.006804019999947, 0.0 ], [ 113.207041080000067, -7.007295959999965, 0.0 ], [ 113.207093998, -7.007360038999934, 0.0 ], [ 113.207126040000048, -7.007489009999972, 0.0 ], [ 113.207230079000055, -7.007912009999927, 0.0 ], [ 113.207380920000105, -7.008248970999944, 0.0 ], [ 113.207565960000011, -7.008552, 0.0 ], [ 113.207583960000079, -7.008581970999956, 0.0 ], [ 113.208099840000045, -7.009338960999969, 0.0 ], [ 113.208590880000088, -7.009954019999952, 0.0 ], [ 113.208855120000067, -7.010028990999956, 0.0 ], [ 113.209233120000022, -7.010183969999957, 0.0 ], [ 113.209719840000048, -7.010384037999927, 0.0 ], [ 113.209755119000079, -7.010480969999946, 0.0 ], [ 113.20974, -7.010648998999955, 0.0 ], [ 113.209741080000072, -7.010955, 0.0 ], [ 113.209837920000041, -7.011138959999926, 0.0 ], [ 113.209949880000067, -7.011208978999946, 0.0 ], [ 113.21021483800007, -7.011279989999935, 0.0 ], [ 113.210646120000092, -7.011318959999926, 0.0 ], [ 113.211034919000099, -7.011376018999954, 0.0 ], [ 113.211271080000074, -7.011471959999938, 0.0 ], [ 113.21160516000009, -7.011718019999932, 0.0 ], [ 113.21170488000007, -7.01188703899993, 0.0 ], [ 113.211783, -7.012154969999926, 0.0 ], [ 113.211860039000044, -7.012647, 0.0 ], [ 113.212632960000064, -7.013037958999973, 0.0 ], [ 113.21305596000002, -7.013381039999956, 0.0 ], [ 113.213221920000024, -7.013518018999946, 0.0 ], [ 113.2136168400001, -7.013660037999955, 0.0 ], [ 113.213904120000052, -7.013773979999939, 0.0 ], [ 113.214090960000021, -7.013903040999935, 0.0 ], [ 113.214224879000085, -7.014081959999942, 0.0 ], [ 113.214291120000098, -7.01424800999996, 0.0 ], [ 113.21428103900007, -7.014302010999927, 0.0 ], [ 113.213999880000074, -7.01463401999996, 0.0 ], [ 113.213765160000094, -7.014787018999925, 0.0 ], [ 113.213381040000058, -7.015055039999936, 0.0 ], [ 113.213166120000096, -7.015226040999949, 0.0 ], [ 113.212860120000073, -7.015361039999959, 0.0 ], [ 113.21226, -7.015475968999965, 0.0 ], [ 113.211804959, -7.01551502999996, 0.0 ], [ 113.211144000000104, -7.015392000999952, 0.0 ], [ 113.210028001000069, -7.014916979999953, 0.0 ], [ 113.209603920000063, -7.014759031999972, 0.0 ], [ 113.209340040000029, -7.014706019999949, 0.0 ], [ 113.209044838000068, -7.014708, 0.0 ], [ 113.208697081000082, -7.014788009999961, 0.0 ], [ 113.20821396000008, -7.015048021999974, 0.0 ], [ 113.207423041000084, -7.015382009999939, 0.0 ], [ 113.207357160000015, -7.015401, 0.0 ], [ 113.207106960000033, -7.015471018999961, 0.0 ], [ 113.206829040000116, -7.015545990999954, 0.0 ], [ 113.206550040000025, -7.015710958999932, 0.0 ], [ 113.206191121000074, -7.015959001999931, 0.0 ], [ 113.20570907900003, -7.016165998999952, 0.0 ], [ 113.205386160000103, -7.016266981999934, 0.0 ], [ 113.205243960000075, -7.016295958999933, 0.0 ], [ 113.20476984000004, -7.016321970999968, 0.0 ], [ 113.204039040000112, -7.016418988999931, 0.0 ], [ 113.203225080000038, -7.01646803899996, 0.0 ], [ 113.20209216, -7.016312969999944, 0.0 ], [ 113.201340840000057, -7.016135039999938, 0.0 ], [ 113.20068312, -7.015934969999932, 0.0 ], [ 113.200174080000011, -7.015673968999977, 0.0 ], [ 113.199897960000044, -7.015463009999962, 0.0 ], [ 113.199470999000027, -7.014798988999928, 0.0 ], [ 113.19909408, -7.014328019999937, 0.0 ], [ 113.198132160000114, -7.014033, 0.0 ], [ 113.197713120000117, -7.01395703999998, 0.0 ], [ 113.197686120000071, -7.013988000999973, 0.0 ], [ 113.1974211590001, -7.014056040999947, 0.0 ], [ 113.19706295900005, -7.014222000999951, 0.0 ], [ 113.196848040000077, -7.014264028999946, 0.0 ], [ 113.196683160000021, -7.01424, 0.0 ], [ 113.196350160000065, -7.014156029999981, 0.0 ], [ 113.19588216000011, -7.014167010999927, 0.0 ], [ 113.195594161000031, -7.014252961999944, 0.0 ], [ 113.19507000100009, -7.014466978999963, 0.0 ], [ 113.194743120000112, -7.014630959999977, 0.0 ], [ 113.19456888000002, -7.014821039999958, 0.0 ], [ 113.194429920000061, -7.01510597999993, 0.0 ], [ 113.194236960000012, -7.015463009999962, 0.0 ], [ 113.194002960000034, -7.015435020999973, 0.0 ], [ 113.193758161, -7.015437, 0.0 ], [ 113.193563040000072, -7.015440960999968, 0.0 ], [ 113.193169918000081, -7.015232969999943, 0.0 ], [ 113.192736840000066, -7.015032, 0.0 ], [ 113.192602920000013, -7.015032, 0.0 ], [ 113.192492040000047, -7.015121010999962, 0.0 ], [ 113.192285040000115, -7.015392000999952, 0.0 ], [ 113.192244, -7.015560029999961, 0.0 ], [ 113.19216012000004, -7.015889969999932, 0.0 ], [ 113.192034840000019, -7.015983029999973, 0.0 ], [ 113.191832880000106, -7.016151959999945, 0.0 ], [ 113.191777080000065, -7.016282009999941, 0.0 ], [ 113.191628040000069, -7.016614019999963, 0.0 ], [ 113.191457040000046, -7.016775029999962, 0.0 ], [ 113.191283880000015, -7.016830019999929, 0.0 ], [ 113.191121881000072, -7.01683100899993, 0.0 ], [ 113.190635880000059, -7.016810039999939, 0.0 ], [ 113.190357961000018, -7.016862959999969, 0.0 ], [ 113.190208920000032, -7.01693900999993, 0.0 ], [ 113.190040080000017, -7.017087959999969, 0.0 ], [ 113.189887080000062, -7.017168959999935, 0.0 ], [ 113.189697, -7.017183990999968, 0.0 ], [ 113.18926103900003, -7.017128009999965, 0.0 ], [ 113.189033881000114, -7.017042961999948, 0.0 ], [ 113.188704838000035, -7.016839020999953, 0.0 ], [ 113.188579920000052, -7.016945041999975, 0.0 ], [ 113.188424040000086, -7.01721, 0.0 ], [ 113.187867120000078, -7.018446961999928, 0.0 ], [ 113.187720959000103, -7.018522019999978, 0.0 ], [ 113.187471121000044, -7.018567019999978, 0.0 ], [ 113.187161881000065, -7.018679970999926, 0.0 ], [ 113.186930040000107, -7.018824959999961, 0.0 ], [ 113.186833919000037, -7.018949968999948, 0.0 ], [ 113.186818081000069, -7.019082989999958, 0.0 ], [ 113.186896921000084, -7.019180011999936, 0.0 ], [ 113.187191038000037, -7.019420041999979, 0.0 ], [ 113.187237121000067, -7.019534968999949, 0.0 ], [ 113.187192841000069, -7.019650979999938, 0.0 ], [ 113.187020040000107, -7.019838991999961, 0.0 ], [ 113.186611080000034, -7.020288989999926, 0.0 ], [ 113.186576158000094, -7.020426958999963, 0.0 ], [ 113.186495880000052, -7.020600028999979, 0.0 ], [ 113.186358, -7.02065799199994, 0.0 ], [ 113.186085840000032, -7.020648988999938, 0.0 ], [ 113.185769039000093, -7.020546029999934, 0.0 ], [ 113.185611001000098, -7.02041300999997, 0.0 ], [ 113.185401840000054, -7.020172979999927, 0.0 ], [ 113.18518116100006, -7.020037979999927, 0.0 ], [ 113.185032121000063, -7.019990008999969, 0.0 ], [ 113.184972, -7.020109981999951, 0.0 ], [ 113.18495616000007, -7.020339029999946, 0.0 ], [ 113.185014121000108, -7.020537029999957, 0.0 ], [ 113.185058040000058, -7.020596969999929, 0.0 ], [ 113.18514984, -7.020720989999973, 0.0 ], [ 113.185409040000081, -7.02109295899993, 0.0 ], [ 113.185406881000063, -7.021248029999981, 0.0 ], [ 113.185248840000099, -7.021963979999953, 0.0 ], [ 113.185307160000093, -7.022436028999948, 0.0 ], [ 113.185380959000099, -7.022802959999979, 0.0 ], [ 113.185608120000097, -7.023723028999939, 0.0 ], [ 113.185564918000068, -7.024176, 0.0 ], [ 113.185478160000116, -7.02497096999997, 0.0 ], [ 113.185523881000108, -7.025209021999956, 0.0 ], [ 113.185527839000088, -7.025968979999959, 0.0 ], [ 113.185504078, -7.026287039999943, 0.0 ], [ 113.18546592000007, -7.026415020999934, 0.0 ], [ 113.185821960000112, -7.027594019999981, 0.0 ], [ 113.185962001, -7.028084969999952, 0.0 ], [ 113.186126160000072, -7.028757, 0.0 ], [ 113.186373119000109, -7.029501031999928, 0.0 ], [ 113.186541960000113, -7.029916019999973, 0.0 ], [ 113.186840038000014, -7.03044, 0.0 ], [ 113.186934001000054, -7.030737, 0.0 ], [ 113.186936161000062, -7.030738979999967, 0.0 ], [ 113.187085918000093, -7.030887031999953, 0.0 ], [ 113.187191038000037, -7.031114011999932, 0.0 ], [ 113.187338998000087, -7.031291038999939, 0.0 ], [ 113.18745888, -7.03135998099998, 0.0 ], [ 113.187624840000012, -7.031563020999954, 0.0 ], [ 113.188218839000115, -7.03237895999996, 0.0 ], [ 113.188611960000117, -7.032931021999957, 0.0 ], [ 113.188974840000014, -7.033352039999954, 0.0 ], [ 113.18977188000008, -7.034225039999967, 0.0 ], [ 113.190396840000062, -7.035014969999963, 0.0 ], [ 113.191014958000096, -7.035771959999977, 0.0 ], [ 113.191017840000086, -7.035783029999948, 0.0 ], [ 113.191157160000103, -7.035957, 0.0 ], [ 113.191382880000106, -7.036209, 0.0 ], [ 113.191404119000026, -7.036232041999938, 0.0 ], [ 113.191584121, -7.03643201899996, 0.0 ], [ 113.191588080000088, -7.036443989999952, 0.0 ], [ 113.191619038000113, -7.03667897899993, 0.0 ], [ 113.191597081000054, -7.036992988999941, 0.0 ], [ 113.191584121, -7.037271, 0.0 ], [ 113.191656841000054, -7.03754000999993, 0.0 ], [ 113.191809840000019, -7.037757990999978, 0.0 ], [ 113.192016121000051, -7.038093959999969, 0.0 ], [ 113.192325, -7.038910979999969, 0.0 ], [ 113.192330040000115, -7.038925019999965, 0.0 ], [ 113.192430839000053, -7.039163969999947, 0.0 ], [ 113.19246, -7.039727008999932, 0.0 ], [ 113.19248196, -7.040246040999932, 0.0 ], [ 113.192520840000043, -7.041152969999928, 0.0 ], [ 113.192704080000112, -7.043321969999965, 0.0 ], [ 113.192749080000112, -7.043824979999954, 0.0 ], [ 113.192951041000015, -7.044219989999931, 0.0 ], [ 113.192969040000094, -7.044363, 0.0 ], [ 113.192741880000085, -7.044734970999968, 0.0 ], [ 113.192667, -7.044911009999964, 0.0 ], [ 113.192658, -7.04493395999998, 0.0 ], [ 113.192669161000026, -7.045441019999942, 0.0 ], [ 113.192659080000112, -7.045658009999954, 0.0 ], [ 113.192457119000096, -7.046142029999942, 0.0 ], [ 113.192448838000018, -7.046154, 0.0 ], [ 113.19213384000011, -7.046657011999969, 0.0 ], [ 113.19192, -7.047075961999951, 0.0 ], [ 113.19185303800009, -7.047239039999965, 0.0 ], [ 113.191701121000051, -7.048254959999952, 0.0 ], [ 113.191329960000076, -7.049052991999929, 0.0 ], [ 113.191360920000079, -7.04925800999996, 0.0 ], [ 113.191371000000117, -7.049387969999941, 0.0 ], [ 113.191381081000031, -7.049537008999948, 0.0 ], [ 113.191423921000023, -7.049977019999972, 0.0 ], [ 113.191625160000058, -7.050414959999955, 0.0 ], [ 113.191783920000034, -7.050762989999953, 0.0 ], [ 113.191889040000092, -7.050997980999966, 0.0 ], [ 113.191901998000048, -7.051184009999929, 0.0 ], [ 113.191868161000116, -7.051311, 0.0 ], [ 113.191738920000034, -7.051445998999952, 0.0 ], [ 113.191301880000083, -7.052081039999962, 0.0 ], [ 113.191066080000041, -7.052465969999957, 0.0 ], [ 113.19093, -7.053208019999943, 0.0 ], [ 113.19080292000001, -7.05360203999993, 0.0 ], [ 113.19066612000006, -7.053849000999946, 0.0 ], [ 113.190555961000086, -7.054228978999959, 0.0 ], [ 113.190546958000027, -7.05426695999995, 0.0 ], [ 113.190537960000029, -7.054305030999956, 0.0 ], [ 113.190710041000102, -7.054903979999949, 0.0 ], [ 113.190836040000022, -7.05528800899998, 0.0 ], [ 113.190941160000079, -7.055606969999928, 0.0 ], [ 113.191074, -7.055946, 0.0 ], [ 113.190707160000102, -7.056845009999961, 0.0 ], [ 113.190572881000094, -7.057218959999943, 0.0 ], [ 113.19053292000001, -7.057460969999966, 0.0 ], [ 113.190495121000026, -7.057578958999954, 0.0 ], [ 113.190253921000021, -7.05799898999993, 0.0 ], [ 113.190081840000062, -7.058374018999928, 0.0 ], [ 113.189889961000063, -7.058671020999952, 0.0 ], [ 113.189887080000062, -7.058820959999935, 0.0 ], [ 113.18990111800008, -7.059128039999962, 0.0 ], [ 113.189893918000053, -7.059320009999965, 0.0 ], [ 113.189914079, -7.059375, 0.0 ], [ 113.189869080000108, -7.059447989999967, 0.0 ], [ 113.189609160000032, -7.059821038999928, 0.0 ], [ 113.189306041, -7.060061969999936, 0.0 ], [ 113.18890895800007, -7.060262039999941, 0.0 ], [ 113.18862599800002, -7.060304969999947, 0.0 ], [ 113.187939840000013, -7.060382009999955, 0.0 ], [ 113.187821041, -7.060526009999933, 0.0 ], [ 113.187674880000031, -7.060706998999933, 0.0 ], [ 113.187354121000112, -7.060940998999968, 0.0 ], [ 113.187350160000051, -7.06095000199997, 0.0 ], [ 113.187220920000073, -7.061219008999956, 0.0 ], [ 113.187161158000094, -7.061501968999949, 0.0 ], [ 113.187161158000094, -7.061502959999927, 0.0 ], [ 113.187101041, -7.061661988999958, 0.0 ], [ 113.18708016000005, -7.061832989999971, 0.0 ], [ 113.18703912, -7.062091019999968, 0.0 ], [ 113.186901959000011, -7.062402961999965, 0.0 ], [ 113.186913840000102, -7.062562980999928, 0.0 ], [ 113.186971080000035, -7.062657029999968, 0.0 ], [ 113.187214080000103, -7.062812998999959, 0.0 ], [ 113.1876331200001, -7.063175969999975, 0.0 ], [ 113.187641039000027, -7.063200988999938, 0.0 ], [ 113.187708, -7.06342202999997, 0.0 ], [ 113.187578040000062, -7.063711019999971, 0.0 ], [ 113.187480120000032, -7.064061029999948, 0.0 ], [ 113.187434041000074, -7.064220959999943, 0.0 ], [ 113.187231000000111, -7.064469, 0.0 ], [ 113.18706, -7.064708039999971, 0.0 ], [ 113.1870510010001, -7.064755020999939, 0.0 ], [ 113.186661840000056, -7.065336959999968, 0.0 ], [ 113.186680920000072, -7.06557302899995, 0.0 ], [ 113.186625841000023, -7.066092959999935, 0.0 ], [ 113.18649912, -7.066917001999968, 0.0 ], [ 113.186301121000042, -7.067862988999934, 0.0 ], [ 113.186211840000055, -7.06865400199996, 0.0 ], [ 113.186168999000074, -7.06953896999994, 0.0 ], [ 113.186118960000044, -7.070398019999971, 0.0 ], [ 113.186027160000094, -7.071128009999939, 0.0 ], [ 113.186008080000079, -7.071247979999953, 0.0 ], [ 113.185915918000092, -7.071813989999953, 0.0 ], [ 113.185752840000077, -7.072463969999944, 0.0 ], [ 113.185571040000013, -7.073089019999941, 0.0 ], [ 113.185364041000071, -7.073721991999946, 0.0 ], [ 113.185064880000027, -7.074432, 0.0 ], [ 113.184716039000023, -7.07495597999997, 0.0 ], [ 113.18432508, -7.075305, 0.0 ], [ 113.183867159000101, -7.075726019999934, 0.0 ], [ 113.183232841000063, -7.076107979999961, 0.0 ], [ 113.182314841000107, -7.076644019999947, 0.0 ], [ 113.182281000000103, -7.076693968999962, 0.0 ], [ 113.182007039000041, -7.077004021999926, 0.0 ], [ 113.181332040000029, -7.077567958999964, 0.0 ], [ 113.180963040000051, -7.07776101099995, 0.0 ], [ 113.180627881000078, -7.077915000999951, 0.0 ], [ 113.180271840000046, -7.078176, 0.0 ], [ 113.18016888000011, -7.078250969999942, 0.0 ], [ 113.180032081000036, -7.07837498899994, 0.0 ], [ 113.179943881000099, -7.078454998999973, 0.0 ], [ 113.179932, -7.078464989999929, 0.0 ], [ 113.17988304000005, -7.078496039999948, 0.0 ], [ 113.179614840000113, -7.078704031999962, 0.0 ], [ 113.179452120000064, -7.078858021999963, 0.0 ], [ 113.179381918000104, -7.078937040999961, 0.0 ], [ 113.179289040000072, -7.079092021999941, 0.0 ], [ 113.179002119000074, -7.079802029999939, 0.0 ], [ 113.178634920000036, -7.080733978999945, 0.0 ], [ 113.178309120000108, -7.081376040999942, 0.0 ], [ 113.177892959000019, -7.082177041999955, 0.0 ], [ 113.177510999000106, -7.083034019999957, 0.0 ], [ 113.177257919000112, -7.083818009999959, 0.0 ], [ 113.177019961000042, -7.084701991999964, 0.0 ], [ 113.176676880000059, -7.085406958999954, 0.0 ], [ 113.176144078000107, -7.086249989999942, 0.0 ], [ 113.175655920000054, -7.086922018999928, 0.0 ], [ 113.175060120000012, -7.087565969999957, 0.0 ], [ 113.17450392, -7.088464979999969, 0.0 ], [ 113.174150040000086, -7.089252030999944, 0.0 ], [ 113.173940881000021, -7.089157978999935, 0.0 ], [ 113.173662960000115, -7.089084989999947, 0.0 ], [ 113.173146, -7.089005971999939, 0.0 ], [ 113.172517079000045, -7.088918038999964, 0.0 ], [ 113.171688, -7.088892029999954, 0.0 ], [ 113.170897078000053, -7.088859, 0.0 ], [ 113.169880080000098, -7.088806978999969, 0.0 ], [ 113.169278881000082, -7.088861968999936, 0.0 ], [ 113.168625841000107, -7.089012989999958, 0.0 ], [ 113.168256841000016, -7.089281008999933, 0.0 ], [ 113.168202121000036, -7.089544978999925, 0.0 ], [ 113.168251081000108, -7.089926039999966, 0.0 ], [ 113.168401920000065, -7.090817041999969, 0.0 ] ] ] ] } }
]
}
