{
"type": "FeatureCollection",
"name": "Kec_Robatal",
"crs": { "type": "name", "properties": { "name": "urn:ogc:def:crs:OGC:1.3:CRS84" } },
"features": [
{ "type": "Feature", "properties": { "OBJECTID": 9563.0, "NAMOBJ": "Bapelle", "FCODE": "BA03070040", "METADATA": "TASWIL1000020221227_DATA_BATAS_DESAKELURAHAN", "SRS_ID": "SRGI 2013", "KDCPUM": "35.27.10", "KDEPUM": "35.27.10.2009", "KDPKAB": "35.27", "KDPPUM": "35", "LUASWH": 0.0, "TIPADM": 1.0, "WADMKC": "Robatal", "WADMKD": "Bapelle", "WADMKK": "Sampang", "WADMPR": "Jawa Timur", "UUPP": "Hasil Delineasi Batas Desa 2019", "LUAS": 11.14117107 }, "geometry": { "type": "MultiPolygon", "coordinates": [ [ [ [ 113.330404079, -7.038392039999962, 0.0 ], [ 113.33052396000005, -7.038512009999977, 0.0 ], [ 113.330747160000101, -7.03863395999997, 0.0 ], [ 113.331049920000055, -7.038728009999943, 0.0 ], [ 113.331220920000078, -7.038675, 0.0 ], [ 113.331499920000056, -7.038587968999934, 0.0 ], [ 113.331603959000063, -7.038650970999981, 0.0 ], [ 113.33175588000006, -7.038809998999966, 0.0 ], [ 113.331980158000079, -7.039276019999932, 0.0 ], [ 113.332194, -7.039397969999925, 0.0 ], [ 113.332389121, -7.039567979999958, 0.0 ], [ 113.332717080000066, -7.039807018999966, 0.0 ], [ 113.332961880000084, -7.040010959999961, 0.0 ], [ 113.333042161000094, -7.040170979999971, 0.0 ], [ 113.332772878000014, -7.040383019999979, 0.0 ], [ 113.332764960000077, -7.040590019999968, 0.0 ], [ 113.332794120000017, -7.040837971999963, 0.0 ], [ 113.332726080000043, -7.041086009999958, 0.0 ], [ 113.332572, -7.041191039999944, 0.0 ], [ 113.332133160000012, -7.041141989999971, 0.0 ], [ 113.331513960000052, -7.041196979999938, 0.0 ], [ 113.330468161000113, -7.041504959999941, 0.0 ], [ 113.328011161000063, -7.041474989999926, 0.0 ], [ 113.328006839000068, -7.041475978999927, 0.0 ], [ 113.327539920000049, -7.04158100899997, 0.0 ], [ 113.32739988000003, -7.041627, 0.0 ], [ 113.32716012100002, -7.041570030999935, 0.0 ], [ 113.326940160000049, -7.041448979999927, 0.0 ], [ 113.326814880000029, -7.041409019999946, 0.0 ], [ 113.326356959, -7.041358978999938, 0.0 ], [ 113.325917040000036, -7.041305971999975, 0.0 ], [ 113.325586919000102, -7.041335038999932, 0.0 ], [ 113.325071039000022, -7.041467969999928, 0.0 ], [ 113.324577120000072, -7.041744, 0.0 ], [ 113.324122078000073, -7.041857039999968, 0.0 ], [ 113.323848121000083, -7.041931019999936, 0.0 ], [ 113.323727160000089, -7.04198699899996, 0.0 ], [ 113.323503960000039, -7.042068, 0.0 ], [ 113.323247999000046, -7.042118040999981, 0.0 ], [ 113.322870925000075, -7.042013548999932, 0.0 ], [ 113.322501000000102, -7.041911039999945, 0.0 ], [ 113.322342960000015, -7.041873959999975, 0.0 ], [ 113.322212999000044, -7.041917969999929, 0.0 ], [ 113.322094918000062, -7.042224959999942, 0.0 ], [ 113.322034080000094, -7.042403969999953, 0.0 ], [ 113.32192104, -7.042532039999969, 0.0 ], [ 113.321603881000101, -7.042269958999952, 0.0 ], [ 113.321441878000087, -7.042103009999948, 0.0 ], [ 113.321329920000039, -7.042095, 0.0 ], [ 113.32109016000004, -7.042199041999936, 0.0 ], [ 113.320923840000091, -7.042220998999937, 0.0 ], [ 113.320820160000039, -7.04218697999994, 0.0 ], [ 113.320743840000091, -7.042086990999962, 0.0 ], [ 113.320762920000107, -7.041764968999928, 0.0 ], [ 113.320631159000072, -7.041506039999945, 0.0 ], [ 113.320521001000088, -7.041319019999946, 0.0 ], [ 113.320427038000048, -7.041255028999956, 0.0 ], [ 113.320220041000084, -7.041153959999974, 0.0 ], [ 113.320105918000081, -7.041075029999945, 0.0 ], [ 113.31988884000009, -7.041066031999947, 0.0 ], [ 113.319614881, -7.041177, 0.0 ], [ 113.319312120000063, -7.041327029999934, 0.0 ], [ 113.319138960000032, -7.041381029999968, 0.0 ], [ 113.319047160000082, -7.04136995999994, 0.0 ], [ 113.318946, -7.041222988999948, 0.0 ], [ 113.318940960000077, -7.040971979999938, 0.0 ], [ 113.318996040000115, -7.040655989999948, 0.0 ], [ 113.318966160000059, -7.040374018999955, 0.0 ], [ 113.318894158000035, -7.040295991999926, 0.0 ], [ 113.318750160000036, -7.040564998999969, 0.0 ], [ 113.318645040000092, -7.04069297999996, 0.0 ], [ 113.318503920000012, -7.040751030999957, 0.0 ], [ 113.317959961000042, -7.040761019999934, 0.0 ], [ 113.317736038000021, -7.040724029999978, 0.0 ], [ 113.317548840000086, -7.040607029999933, 0.0 ], [ 113.317448040000045, -7.040285009999934, 0.0 ], [ 113.31738684000004, -7.040066038999953, 0.0 ], [ 113.317238881000094, -7.039861019999933, 0.0 ], [ 113.31719892000001, -7.039826008999967, 0.0 ], [ 113.317158961000018, -7.039799009999967, 0.0 ], [ 113.317079041000056, -7.039765981999949, 0.0 ], [ 113.316963840000085, -7.039746990999959, 0.0 ], [ 113.316716880000058, -7.039772010999968, 0.0 ], [ 113.316495121000116, -7.039872989999935, 0.0 ], [ 113.316280920000054, -7.040089978999958, 0.0 ], [ 113.316162840000061, -7.040273039999931, 0.0 ], [ 113.3161581600001, -7.040574989999925, 0.0 ], [ 113.316167159000088, -7.04096100199996, 0.0 ], [ 113.316166079000027, -7.041096000999971, 0.0 ], [ 113.316095161000021, -7.041183031999935, 0.0 ], [ 113.315992919000109, -7.04123900999997, 0.0 ], [ 113.315569921000019, -7.041291028999979, 0.0 ], [ 113.315329079000094, -7.041314969999974, 0.0 ], [ 113.315212079000048, -7.04139398999996, 0.0 ], [ 113.315033158, -7.041988981999964, 0.0 ], [ 113.314974121000091, -7.042208039999934, 0.0 ], [ 113.314821838000057, -7.04239002199995, 0.0 ], [ 113.314662000000112, -7.042482989999939, 0.0 ], [ 113.3144909990001, -7.042517008999937, 0.0 ], [ 113.31433512000001, -7.042476959999931, 0.0 ], [ 113.314240081000094, -7.042379039999958, 0.0 ], [ 113.314145040000085, -7.042101029999969, 0.0 ], [ 113.314092840000058, -7.041764968999928, 0.0 ], [ 113.314016880000054, -7.041548969999951, 0.0 ], [ 113.313938041000029, -7.041471029999968, 0.0 ], [ 113.313471840000034, -7.041466979999939, 0.0 ], [ 113.313106079000022, -7.041359969999974, 0.0 ], [ 113.312873880000097, -7.041135959999963, 0.0 ], [ 113.312734918000046, -7.04097, 0.0 ], [ 113.312529, -7.040859029999979, 0.0 ], [ 113.312202121000041, -7.040811960999974, 0.0 ], [ 113.312122920000093, -7.040840039999978, 0.0 ], [ 113.31208692000007, -7.040936969999962, 0.0 ], [ 113.312072880000073, -7.041096000999971, 0.0 ], [ 113.312075040000082, -7.041251969999962, 0.0 ], [ 113.31199692000007, -7.041404969999974, 0.0 ], [ 113.311436038000011, -7.041651031999947, 0.0 ], [ 113.311302840000053, -7.041723028999968, 0.0 ], [ 113.31121212000005, -7.042002031999971, 0.0 ], [ 113.311090080000099, -7.041893039999934, 0.0 ], [ 113.31100007900011, -7.041728969999951, 0.0 ], [ 113.310839881000106, -7.041616019999935, 0.0 ], [ 113.310708120000072, -7.041593969999951, 0.0 ], [ 113.31012996000004, -7.041837959999953, 0.0 ], [ 113.309875081000087, -7.041951, 0.0 ], [ 113.309348040000032, -7.041785039999979, 0.0 ], [ 113.309085961000051, -7.041732029999935, 0.0 ], [ 113.308848, -7.041749040999946, 0.0 ], [ 113.308481158000063, -7.04189402999998, 0.0 ], [ 113.308201080000117, -7.042042978999973, 0.0 ], [ 113.307488999000043, -7.042083029999958, 0.0 ], [ 113.307265080000093, -7.042106969999963, 0.0 ], [ 113.307035041000063, -7.042394970999965, 0.0 ], [ 113.30686404000005, -7.042679011999951, 0.0 ], [ 113.30674704, -7.042797, 0.0 ], [ 113.306569920000015, -7.042854958999953, 0.0 ], [ 113.306072040000117, -7.042754969999976, 0.0 ], [ 113.305880878000039, -7.042703040999982, 0.0 ], [ 113.305578838000088, -7.042797, 0.0 ], [ 113.30527716000006, -7.042947029999937, 0.0 ], [ 113.305038841000055, -7.043186969999965, 0.0 ], [ 113.304877919000091, -7.043345009999939, 0.0 ], [ 113.304638881000074, -7.043410980999965, 0.0 ], [ 113.304422160000058, -7.043444009999973, 0.0 ], [ 113.304269158000011, -7.043552009999928, 0.0 ], [ 113.30418996100002, -7.043673958999932, 0.0 ], [ 113.304206880000038, -7.04376998999993, 0.0 ], [ 113.304484078000087, -7.043906969999966, 0.0 ], [ 113.304881880000039, -7.044095969999944, 0.0 ], [ 113.305020841000101, -7.044197039999972, 0.0 ], [ 113.305088158000103, -7.04431601999994, 0.0 ], [ 113.305029121000075, -7.044600959999968, 0.0 ], [ 113.305015080000089, -7.044634978999966, 0.0 ], [ 113.304858839000076, -7.044856019999941, 0.0 ], [ 113.304769920000012, -7.044919018999963, 0.0 ], [ 113.304476879000049, -7.044956009999964, 0.0 ], [ 113.304243959000019, -7.044918028999973, 0.0 ], [ 113.304017159000068, -7.044833971999935, 0.0 ], [ 113.303864161000092, -7.044711030999963, 0.0 ], [ 113.303786040000091, -7.044578009999952, 0.0 ], [ 113.303910959000063, -7.044176969999967, 0.0 ], [ 113.303963880000083, -7.044013979999932, 0.0 ], [ 113.303930039000079, -7.043884018999961, 0.0 ], [ 113.303783880000083, -7.043766029999972, 0.0 ], [ 113.30310492000001, -7.043600969999943, 0.0 ], [ 113.302874880000104, -7.043567039999971, 0.0 ], [ 113.302825920000032, -7.04356802999996, 0.0 ], [ 113.302806840000017, -7.043627969999932, 0.0 ], [ 113.302829880000104, -7.04390400099993, 0.0 ], [ 113.302807918000099, -7.044085979999977, 0.0 ], [ 113.302675080000085, -7.044345988999964, 0.0 ], [ 113.302559880000103, -7.044487018999973, 0.0 ], [ 113.3023341600001, -7.04461103899996, 0.0 ], [ 113.302101961000062, -7.044693031999941, 0.0 ], [ 113.301955081000074, -7.044807959999957, 0.0 ], [ 113.301846, -7.045000020999964, 0.0 ], [ 113.301941039000098, -7.045368028999974, 0.0 ], [ 113.301996120000013, -7.045575029999952, 0.0 ], [ 113.301969838000105, -7.045739010999966, 0.0 ], [ 113.301875161000112, -7.045830990999946, 0.0 ], [ 113.301426960000072, -7.045903978999945, 0.0 ], [ 113.301122039, -7.045902988999956, 0.0 ], [ 113.300754121000068, -7.045812990999934, 0.0 ], [ 113.300147160000051, -7.045602028999951, 0.0 ], [ 113.300016121000112, -7.04558402899994, 0.0 ], [ 113.29989984000008, -7.045659000999933, 0.0 ], [ 113.299778160000074, -7.045865998999943, 0.0 ], [ 113.299687078000034, -7.046287020999955, 0.0 ], [ 113.299646041000074, -7.046510041999966, 0.0 ], [ 113.299549920000118, -7.04670398899998, 0.0 ], [ 113.299395838, -7.046829000999935, 0.0 ], [ 113.299181999000098, -7.046895959999972, 0.0 ], [ 113.298698880000074, -7.046739989999935, 0.0 ], [ 113.298521040000082, -7.04667698999998, 0.0 ], [ 113.298455160000117, -7.04663199099997, 0.0 ], [ 113.298428880000074, -7.046675010999934, 0.0 ], [ 113.297871961000055, -7.046992978999981, 0.0 ], [ 113.297604120000074, -7.047172979999971, 0.0 ], [ 113.297357878000071, -7.047316979999948, 0.0 ], [ 113.29690283900004, -7.047439020999946, 0.0 ], [ 113.296285080000075, -7.04737898999997, 0.0 ], [ 113.296061159000033, -7.047368009999957, 0.0 ], [ 113.295819960000017, -7.047415979999926, 0.0 ], [ 113.295656880000024, -7.04751497999996, 0.0 ], [ 113.295434041000021, -7.04776400999998, 0.0 ], [ 113.295332880000046, -7.047964979999961, 0.0 ], [ 113.295333960000107, -7.048103039999944, 0.0 ], [ 113.295417120000025, -7.048357021999948, 0.0 ], [ 113.295425040000055, -7.048459979999961, 0.0 ], [ 113.29527095800006, -7.048607038999933, 0.0 ], [ 113.295018959000117, -7.048680029999957, 0.0 ], [ 113.294777040000099, -7.048683989999972, 0.0 ], [ 113.294631960000061, -7.048647989999949, 0.0 ], [ 113.294418840000048, -7.048558980999928, 0.0 ], [ 113.294261160000019, -7.048485991999939, 0.0 ], [ 113.294055960000037, -7.048503, 0.0 ], [ 113.293814041000019, -7.048619008999935, 0.0 ], [ 113.293540080000071, -7.04885300899997, 0.0 ], [ 113.29340688100001, -7.049021039999957, 0.0 ], [ 113.293362960000081, -7.049313989999973, 0.0 ], [ 113.293095840000092, -7.049906008999926, 0.0 ], [ 113.292987841000013, -7.049907, 0.0 ], [ 113.292717840000023, -7.049864970999977, 0.0 ], [ 113.292555120000088, -7.049745988999973, 0.0 ], [ 113.292435960000034, -7.049511, 0.0 ], [ 113.292204840000068, -7.049153969999963, 0.0 ], [ 113.291937, -7.048917001999939, 0.0 ], [ 113.291708041000106, -7.048827, 0.0 ], [ 113.291328960000101, -7.048773989999972, 0.0 ], [ 113.29047395900011, -7.04871701999997, 0.0 ], [ 113.289760078000086, -7.048818000999972, 0.0 ], [ 113.289492960000075, -7.048896028999934, 0.0 ], [ 113.288668918000099, -7.049193029999969, 0.0 ], [ 113.288623920000077, -7.049439, 0.0 ], [ 113.288376960000051, -7.049835989999963, 0.0 ], [ 113.288205960000028, -7.049927969999942, 0.0 ], [ 113.287938840000038, -7.049986018999959, 0.0 ], [ 113.287316040000064, -7.050067018999925, 0.0 ], [ 113.287181040000064, -7.050221008999927, 0.0 ], [ 113.286834000000113, -7.050628981999978, 0.0 ], [ 113.28616116, -7.050897988999964, 0.0 ], [ 113.285477161000017, -7.051186978999965, 0.0 ], [ 113.285247119000019, -7.051388039999949, 0.0 ], [ 113.284287001000052, -7.052439959999958, 0.0 ], [ 113.283975960000021, -7.052955028999975, 0.0 ], [ 113.283870120000074, -7.053146008999931, 0.0 ], [ 113.283849961000101, -7.053348958999948, 0.0 ], [ 113.283784080000032, -7.05354497899998, 0.0 ], [ 113.28365807900002, -7.053955021999968, 0.0 ], [ 113.283759960000111, -7.054332029999955, 0.0 ], [ 113.28395688, -7.054750979999937, 0.0 ], [ 113.284266120000098, -7.05544802999998, 0.0 ], [ 113.28425892000007, -7.05571595999993, 0.0 ], [ 113.284226161000106, -7.05578498999995, 0.0 ], [ 113.28403212, -7.056110969999963, 0.0 ], [ 113.283797040000081, -7.056322019999925, 0.0 ], [ 113.283554040000013, -7.056519029999947, 0.0 ], [ 113.283534960000111, -7.056534959999965, 0.0 ], [ 113.283140038000056, -7.056740968999975, 0.0 ], [ 113.282442, -7.056907019999926, 0.0 ], [ 113.282123040000101, -7.056879030999937, 0.0 ], [ 113.281958881000037, -7.056880021999973, 0.0 ], [ 113.281814878000091, -7.057052011999929, 0.0 ], [ 113.281638841000017, -7.057314988999963, 0.0 ], [ 113.281547041000067, -7.057452959999978, 0.0 ], [ 113.281233840000027, -7.058271959999956, 0.0 ], [ 113.281157160000021, -7.05886100999993, 0.0 ], [ 113.281152840000118, -7.058934989999955, 0.0 ], [ 113.281125839000083, -7.059464008999953, 0.0 ], [ 113.281106040000054, -7.059876028999952, 0.0 ], [ 113.281089841000039, -7.060318019999954, 0.0 ], [ 113.280786, -7.060915979999947, 0.0 ], [ 113.280482880000022, -7.061294971999928, 0.0 ], [ 113.280392879000033, -7.061596020999957, 0.0 ], [ 113.280185881000079, -7.061727959999928, 0.0 ], [ 113.279853961000072, -7.061847028999978, 0.0 ], [ 113.279569921000075, -7.061868001999926, 0.0 ], [ 113.279355001000113, -7.061887979999938, 0.0 ], [ 113.279002921000028, -7.061900039999955, 0.0 ], [ 113.278552920000038, -7.061892030999957, 0.0 ], [ 113.278223880000041, -7.061895988999936, 0.0 ], [ 113.278043880000041, -7.061929021999958, 0.0 ], [ 113.277647160000015, -7.061985989999926, 0.0 ], [ 113.27722884100001, -7.061978969999927, 0.0 ], [ 113.276792159000024, -7.061913988999947, 0.0 ], [ 113.276500918000011, -7.06178996999995, 0.0 ], [ 113.27550515900009, -7.061240969999972, 0.0 ], [ 113.275464121000027, -7.06099796999996, 0.0 ], [ 113.275517039000079, -7.060886008999944, 0.0 ], [ 113.275640881000072, -7.060780978999958, 0.0 ], [ 113.2757830810001, -7.060760009999967, 0.0 ], [ 113.276070000000118, -7.060737958999937, 0.0 ], [ 113.276477881, -7.060716989999946, 0.0 ], [ 113.276535840000065, -7.060713029999931, 0.0 ], [ 113.277069, -7.060689989999958, 0.0 ], [ 113.277345841000056, -7.060640038999964, 0.0 ], [ 113.277497040000071, -7.060542028999976, 0.0 ], [ 113.277642119, -7.060352040999931, 0.0 ], [ 113.277683160000038, -7.06020695999996, 0.0 ], [ 113.277650040000026, -7.059747959999982, 0.0 ], [ 113.277624120000041, -7.059665969999969, 0.0 ], [ 113.277472920000037, -7.059479039999928, 0.0 ], [ 113.277324960000101, -7.059400019999941, 0.0 ], [ 113.277174119000051, -7.059383998999976, 0.0 ], [ 113.276997, -7.059357989999967, 0.0 ], [ 113.276852999000084, -7.059237029999963, 0.0 ], [ 113.276792159000024, -7.059085019999941, 0.0 ], [ 113.276675159000092, -7.058826989999943, 0.0 ], [ 113.276503080000111, -7.058564998999941, 0.0 ], [ 113.276126881000096, -7.058176019999962, 0.0 ], [ 113.275797840000109, -7.057836, 0.0 ], [ 113.275609921000068, -7.057721969999932, 0.0 ], [ 113.275436038000066, -7.05761702999996, 0.0 ], [ 113.27482512000006, -7.057171979999964, 0.0 ], [ 113.274664920000077, -7.056956968999941, 0.0 ], [ 113.274591120000082, -7.056759958999976, 0.0 ], [ 113.27460011900007, -7.056594989999951, 0.0 ], [ 113.27470596, -7.056345959999931, 0.0 ], [ 113.274816120000082, -7.056248039999957, 0.0 ], [ 113.275085038000043, -7.056173969999975, 0.0 ], [ 113.275541881000095, -7.056199978999928, 0.0 ], [ 113.275702079000098, -7.056207991999941, 0.0 ], [ 113.275974960000099, -7.056066959999953, 0.0 ], [ 113.276050920000102, -7.055930971999942, 0.0 ], [ 113.276061, -7.055787959999975, 0.0 ], [ 113.275996920000011, -7.055557019999981, 0.0 ], [ 113.275923118000037, -7.055399969999939, 0.0 ], [ 113.275863001000062, -7.055273969999973, 0.0 ], [ 113.275635120000061, -7.054979039999978, 0.0 ], [ 113.275563840000018, -7.05481100999998, 0.0 ], [ 113.275617840000109, -7.054719029999944, 0.0 ], [ 113.2757830810001, -7.054611028999943, 0.0 ], [ 113.276405160000081, -7.054233029999978, 0.0 ], [ 113.276747160000014, -7.053983008999978, 0.0 ], [ 113.276985121000052, -7.053938009999968, 0.0 ], [ 113.277318840000021, -7.053953039999953, 0.0 ], [ 113.277476880000108, -7.054005959999927, 0.0 ], [ 113.277480120000064, -7.054008028999931, 0.0 ], [ 113.277589920000082, -7.053983008999978, 0.0 ], [ 113.277656880000109, -7.05394997999997, 0.0 ], [ 113.277720959000021, -7.053918031999956, 0.0 ], [ 113.277777119, -7.053851969999926, 0.0 ], [ 113.277776040000049, -7.053848008999978, 0.0 ], [ 113.27786388100003, -7.053643978999958, 0.0 ], [ 113.278005, -7.053468031999955, 0.0 ], [ 113.278138918000082, -7.053441028999941, 0.0 ], [ 113.278398841000012, -7.053471988999945, 0.0 ], [ 113.278724999000019, -7.053614008999944, 0.0 ], [ 113.279031, -7.053695010999945, 0.0 ], [ 113.279261039000062, -7.053650998999956, 0.0 ], [ 113.279406838000114, -7.053528960999927, 0.0 ], [ 113.279421961000025, -7.053419969999936, 0.0 ], [ 113.279366881000101, -7.053301981999937, 0.0 ], [ 113.279281920000017, -7.05306699099998, 0.0 ], [ 113.2793190000001, -7.052813008999976, 0.0 ], [ 113.279403961000071, -7.052726968999934, 0.0 ], [ 113.279591878000019, -7.052653979999945, 0.0 ], [ 113.280003, -7.052504039999974, 0.0 ], [ 113.280208920000064, -7.052301, 0.0 ], [ 113.280293878000066, -7.052077979999979, 0.0 ], [ 113.280275160000087, -7.051943968999979, 0.0 ], [ 113.279972040000075, -7.050855960999968, 0.0 ], [ 113.279770080000048, -7.050670018999938, 0.0 ], [ 113.279555880000089, -7.050567959999967, 0.0 ], [ 113.279391, -7.050582, 0.0 ], [ 113.27926608000007, -7.050654989999941, 0.0 ], [ 113.279128920000062, -7.050843990999965, 0.0 ], [ 113.278993920000062, -7.051142969999944, 0.0 ], [ 113.278956840000092, -7.051313969999967, 0.0 ], [ 113.278863960000081, -7.051736970999968, 0.0 ], [ 113.278795920000107, -7.052001029999929, 0.0 ], [ 113.278717080000092, -7.052022989999955, 0.0 ], [ 113.278542840000114, -7.051985009999953, 0.0 ], [ 113.278079881000053, -7.051841009999976, 0.0 ], [ 113.277913921000049, -7.051917959999969, 0.0 ], [ 113.277904918000104, -7.051923, 0.0 ], [ 113.277364921000071, -7.052235029999963, 0.0 ], [ 113.277103920000059, -7.052232959999969, 0.0 ], [ 113.276882879000027, -7.052165998999953, 0.0 ], [ 113.276833919000069, -7.052057010999931, 0.0 ], [ 113.276757960000054, -7.05166595999998, 0.0 ], [ 113.276769840000043, -7.051368959999934, 0.0 ], [ 113.276854080000021, -7.051167989999954, 0.0 ], [ 113.277126960000032, -7.050692969999943, 0.0 ], [ 113.277303, -7.050589019999961, 0.0 ], [ 113.27773212000011, -7.050457979999976, 0.0 ], [ 113.27798916100005, -7.050474, 0.0 ], [ 113.278320001000111, -7.050592979999976, 0.0 ], [ 113.278772160000017, -7.05077198999993, 0.0 ], [ 113.278872960000058, -7.050695038999947, 0.0 ], [ 113.278893840000023, -7.050680009999951, 0.0 ], [ 113.278933080000115, -7.050573991999954, 0.0 ], [ 113.278896, -7.05043502999996, 0.0 ], [ 113.278785120000066, -7.050274019999961, 0.0 ], [ 113.278685040000028, -7.05009500999995, 0.0 ], [ 113.278524121000032, -7.049646, 0.0 ], [ 113.278349881000054, -7.049523958999941, 0.0 ], [ 113.278185001000111, -7.04950703999998, 0.0 ], [ 113.277812040000072, -7.04946203999998, 0.0 ], [ 113.277720959000021, -7.049356019999948, 0.0 ], [ 113.277618001000064, -7.049107981999953, 0.0 ], [ 113.277634920000082, -7.049005019999981, 0.0 ], [ 113.277682080000091, -7.048742038999933, 0.0 ], [ 113.27760000100011, -7.04844602999998, 0.0 ], [ 113.277465, -7.048315979999927, 0.0 ], [ 113.277337920000036, -7.048308959999929, 0.0 ], [ 113.276890079000054, -7.048365029999957, 0.0 ], [ 113.276636998000072, -7.048396978999961, 0.0 ], [ 113.275568880000037, -7.048530989999961, 0.0 ], [ 113.274711001000014, -7.04839598999996, 0.0 ], [ 113.274599039, -7.04828196099993, 0.0 ], [ 113.274585000000116, -7.048139038999977, 0.0 ], [ 113.274645840000062, -7.047927, 0.0 ], [ 113.274758880000036, -7.047730979999926, 0.0 ], [ 113.275164958, -7.047304021999935, 0.0 ], [ 113.275393920000056, -7.047226978999959, 0.0 ], [ 113.276228040000092, -7.047093961999963, 0.0 ], [ 113.276323078000019, -7.046991, 0.0 ], [ 113.276309040000115, -7.046895959999972, 0.0 ], [ 113.276193840000019, -7.046658, 0.0 ], [ 113.276005920000102, -7.046447039999975, 0.0 ], [ 113.275571040000045, -7.046018009999955, 0.0 ], [ 113.275497959000063, -7.045839, 0.0 ], [ 113.27546988000006, -7.045415009999942, 0.0 ], [ 113.275542961000042, -7.04509496999998, 0.0 ], [ 113.275567080000087, -7.044948988999977, 0.0 ], [ 113.275599840000041, -7.044743969999956, 0.0 ], [ 113.275499040000113, -7.044622019999963, 0.0 ], [ 113.275068840000017, -7.044184978999965, 0.0 ], [ 113.274948960000074, -7.043796, 0.0 ], [ 113.275006921000113, -7.043555969999943, 0.0 ], [ 113.275134, -7.043019029999925, 0.0 ], [ 113.275067039000078, -7.04293496899993, 0.0 ], [ 113.274956881000094, -7.042908959999977, 0.0 ], [ 113.27469300100006, -7.042922998999927, 0.0 ], [ 113.274133920000054, -7.042935959999966, 0.0 ], [ 113.273827920000031, -7.042831018999948, 0.0 ], [ 113.273579880000057, -7.042626, 0.0 ], [ 113.273349118000056, -7.042500989999951, 0.0 ], [ 113.273039160000053, -7.042353031999937, 0.0 ], [ 113.272574040000109, -7.042344028999935, 0.0 ], [ 113.272077960000047, -7.042510978999928, 0.0 ], [ 113.271521040000039, -7.042683959999977, 0.0 ], [ 113.27124996100008, -7.042748039999935, 0.0 ], [ 113.270999041000096, -7.042767029999936, 0.0 ], [ 113.27078412100002, -7.042426020999926, 0.0 ], [ 113.270720039000025, -7.042181039999946, 0.0 ], [ 113.270687998000085, -7.042060978999928, 0.0 ], [ 113.270650919000104, -7.041474, 0.0 ], [ 113.270708880000029, -7.04110203099998, 0.0 ], [ 113.270758920000048, -7.040775961999941, 0.0 ], [ 113.270862961000034, -7.04037698999997, 0.0 ], [ 113.27073912000003, -7.040304, 0.0 ], [ 113.270595840000055, -7.040167021999935, 0.0 ], [ 113.270321880000097, -7.039841039999942, 0.0 ], [ 113.270213879000039, -7.039631969999959, 0.0 ], [ 113.270031001, -7.03885202999993, 0.0 ], [ 113.2701278400001, -7.03853603999994, 0.0 ], [ 113.270201999000051, -7.038275039999974, 0.0 ], [ 113.270027040000059, -7.037687968999933, 0.0 ], [ 113.269956841000067, -7.037467018999962, 0.0 ], [ 113.269997878000027, -7.037294039999949, 0.0 ], [ 113.270050081000022, -7.036958969999944, 0.0 ], [ 113.270009040000105, -7.036604998999962, 0.0 ], [ 113.269894921000059, -7.036410959999955, 0.0 ], [ 113.26961699900005, -7.036093978999929, 0.0 ], [ 113.269424040000104, -7.035922980999942, 0.0 ], [ 113.26934988000005, -7.035857009999972, 0.0 ], [ 113.269199040000103, -7.035805980999953, 0.0 ], [ 113.26902804100007, -7.035837030999971, 0.0 ], [ 113.2681759190001, -7.036082008999927, 0.0 ], [ 113.268009959000096, -7.036056988999974, 0.0 ], [ 113.267756879000103, -7.035929010999951, 0.0 ], [ 113.267597038000076, -7.035785009999927, 0.0 ], [ 113.267531880000092, -7.035625978999974, 0.0 ], [ 113.2673990400001, -7.035156989999962, 0.0 ], [ 113.267176920000111, -7.034859, 0.0 ], [ 113.267171879000102, -7.034857019999947, 0.0 ], [ 113.266699921000054, -7.034669009999959, 0.0 ], [ 113.26654692000011, -7.034635980999951, 0.0 ], [ 113.266415160000065, -7.034652, 0.0 ], [ 113.266221120000068, -7.034695019999958, 0.0 ], [ 113.266176120000068, -7.034705009999925, 0.0 ], [ 113.26603392100003, -7.03484702999998, 0.0 ], [ 113.265829080000117, -7.034991028999968, 0.0 ], [ 113.265667080000071, -7.035012989999927, 0.0 ], [ 113.265429841000014, -7.034938020999959, 0.0 ], [ 113.265109080000116, -7.03475801899998, 0.0 ], [ 113.264916120000066, -7.034574961999965, 0.0 ], [ 113.264803080000092, -7.034362019999946, 0.0 ], [ 113.264660158000083, -7.034135039999967, 0.0 ], [ 113.264529839000033, -7.033902028999933, 0.0 ], [ 113.26451004, -7.033592968999926, 0.0 ], [ 113.264493841000103, -7.033128031999979, 0.0 ], [ 113.264285040000118, -7.032890968999936, 0.0 ], [ 113.264024040000095, -7.032708, 0.0 ], [ 113.264003880000018, -7.032699, 0.0 ], [ 113.263800840000044, -7.032609990999958, 0.0 ], [ 113.263652161000095, -7.032574979999936, 0.0 ], [ 113.263540921000072, -7.032560039999964, 0.0 ], [ 113.26321512100003, -7.032573991999925, 0.0 ], [ 113.262897958000053, -7.03264895999996, 0.0 ], [ 113.262518159000024, -7.032727981999926, 0.0 ], [ 113.262464880000039, -7.032740041999944, 0.0 ], [ 113.262302159000114, -7.032629969999959, 0.0 ], [ 113.262234841, -7.032489029999965, 0.0 ], [ 113.262122880000106, -7.032239008999966, 0.0 ], [ 113.261985, -7.032123991999981, 0.0 ], [ 113.261952960000031, -7.032114988999979, 0.0 ], [ 113.261810041000103, -7.032076019999977, 0.0 ], [ 113.261643, -7.032125969999981, 0.0 ], [ 113.261088960000052, -7.032311009999944, 0.0 ], [ 113.260970880000059, -7.032349978999946, 0.0 ], [ 113.260669920000055, -7.032475979999958, 0.0 ], [ 113.26047696, -7.032662009999967, 0.0 ], [ 113.260059, -7.032988979999971, 0.0 ], [ 113.259864960000073, -7.033046038999942, 0.0 ], [ 113.259584879000045, -7.033052970999961, 0.0 ], [ 113.25928212000008, -7.03296801099998, 0.0 ], [ 113.259205080000015, -7.032815009999979, 0.0 ], [ 113.258904840000014, -7.032353039999975, 0.0 ], [ 113.258436840000059, -7.031610988999944, 0.0 ], [ 113.258410920000074, -7.031584979999934, 0.0 ], [ 113.258350080000014, -7.031343959999958, 0.0 ], [ 113.258346839000069, -7.031072969999968, 0.0 ], [ 113.258418840000104, -7.030812959999935, 0.0 ], [ 113.258727, -7.029972, 0.0 ], [ 113.258867040000041, -7.029671038999936, 0.0 ], [ 113.25896388000001, -7.029507959999933, 0.0 ], [ 113.259102840000082, -7.028783009999927, 0.0 ], [ 113.259099960000071, -7.028784989999963, 0.0 ], [ 113.258757960000025, -7.028935019999949, 0.0 ], [ 113.258517840000081, -7.02895598899994, 0.0 ], [ 113.258040118000054, -7.028936009999939, 0.0 ], [ 113.257872, -7.028916030999937, 0.0 ], [ 113.257751039000027, -7.028915039999958, 0.0 ], [ 113.257483920000027, -7.02895203099996, 0.0 ], [ 113.256749160000027, -7.02913499899995, 0.0 ], [ 113.25656195900001, -7.029074970999943, 0.0 ], [ 113.255769960000066, -7.028840970999966, 0.0 ], [ 113.254921080000031, -7.028512019999937, 0.0 ], [ 113.254902, -7.028504009999949, 0.0 ], [ 113.253432839000084, -7.027659000999961, 0.0 ], [ 113.25318984, -7.027640009999971, 0.0 ], [ 113.251731120000045, -7.02757601999997, 0.0 ], [ 113.251357080000048, -7.027597980999928, 0.0 ], [ 113.250786118000065, -7.027640009999971, 0.0 ], [ 113.250939120000112, -7.023346019999963, 0.0 ], [ 113.251233960000036, -7.023006, 0.0 ], [ 113.251403880000112, -7.022684969999943, 0.0 ], [ 113.251563, -7.022260979999942, 0.0 ], [ 113.251830120000022, -7.02183698999994, 0.0 ], [ 113.252644080000096, -7.020595980999929, 0.0 ], [ 113.252687998000056, -7.020558, 0.0 ], [ 113.253633, -7.01977796999995, 0.0 ], [ 113.253816960000108, -7.019709030999934, 0.0 ], [ 113.253918838000118, -7.019667, 0.0 ], [ 113.254250040000102, -7.019530019999934, 0.0 ], [ 113.254284960000064, -7.018991009999979, 0.0 ], [ 113.25430008, -7.018458029999977, 0.0 ], [ 113.254293960000041, -7.017942959999971, 0.0 ], [ 113.254256880000071, -7.017820019999931, 0.0 ], [ 113.25407508, -7.017785009999955, 0.0 ], [ 113.25390984, -7.017797968999957, 0.0 ], [ 113.253816960000108, -7.017805980999981, 0.0 ], [ 113.25371508, -7.017783029999975, 0.0 ], [ 113.253587999000047, -7.017380008999965, 0.0 ], [ 113.25347604000001, -7.017082019999975, 0.0 ], [ 113.253391079000039, -7.017076978999967, 0.0 ], [ 113.253174, -7.017399990999934, 0.0 ], [ 113.253059880000023, -7.017546960999937, 0.0 ], [ 113.25293892000002, -7.017604020999954, 0.0 ], [ 113.252657040000031, -7.017591959999947, 0.0 ], [ 113.252469120000114, -7.017528960999925, 0.0 ], [ 113.252226120000046, -7.017028018999952, 0.0 ], [ 113.252131080000026, -7.016906970999969, 0.0 ], [ 113.251800958000103, -7.016855039999939, 0.0 ], [ 113.251658040000052, -7.01678997099998, 0.0 ], [ 113.251457160000086, -7.016516998999975, 0.0 ], [ 113.251334039000085, -7.01622396099998, 0.0 ], [ 113.251299840000115, -7.015984020999952, 0.0 ], [ 113.251559040000075, -7.015741018999961, 0.0 ], [ 113.251614120000113, -7.015638960999979, 0.0 ], [ 113.251598999000066, -7.015470028999971, 0.0 ], [ 113.251475160000041, -7.015228019999938, 0.0 ], [ 113.251370040000097, -7.015131, 0.0 ], [ 113.251344120000113, -7.015122000999952, 0.0 ], [ 113.251262040000029, -7.015094009999927, 0.0 ], [ 113.251096080000025, -7.015142969999943, 0.0 ], [ 113.250825, -7.015433039999948, 0.0 ], [ 113.250755880000042, -7.015500988999975, 0.0 ], [ 113.250633120000089, -7.015807979999977, 0.0 ], [ 113.250561840000046, -7.015917959999967, 0.0 ], [ 113.250278160000107, -7.015854959999956, 0.0 ], [ 113.250078, -7.015813019999939, 0.0 ], [ 113.249999520000074, -7.015827958999978, 0.0 ], [ 113.249999160000016, -7.015827958999978, 0.0 ], [ 113.249849040000072, -7.01585702999995, 0.0 ], [ 113.249174040000071, -7.016031989999931, 0.0 ], [ 113.248943998000072, -7.016061958999956, 0.0 ], [ 113.248473120000085, -7.016016959999945, 0.0 ], [ 113.248116, -7.015809959999956, 0.0 ], [ 113.248031040000114, -7.015647959999967, 0.0 ], [ 113.247943920000012, -7.015443029999972, 0.0 ], [ 113.247717839000074, -7.015233959999932, 0.0 ], [ 113.247515880000037, -7.015096980999942, 0.0 ], [ 113.247335878000058, -7.014816988999939, 0.0 ], [ 113.24722392000001, -7.014594959999954, 0.0 ], [ 113.246884080000086, -7.014696029999925, 0.0 ], [ 113.246718840000085, -7.014737968999952, 0.0 ], [ 113.24644416000001, -7.014714029999936, 0.0 ], [ 113.24565288000008, -7.01451998999994, 0.0 ], [ 113.245116120000034, -7.014351960999932, 0.0 ], [ 113.2451128780001, -7.014386968999929, 0.0 ], [ 113.244989040000064, -7.014747959999966, 0.0 ], [ 113.244833160000098, -7.01496998999994, 0.0 ], [ 113.24464416, -7.015389029999938, 0.0 ], [ 113.244590880000032, -7.015778008999973, 0.0 ], [ 113.244581880000055, -7.016058989999976, 0.0 ], [ 113.244383160000098, -7.016659018999974, 0.0 ], [ 113.244275879000043, -7.016901030999975, 0.0 ], [ 113.243573160000096, -7.017471, 0.0 ], [ 113.243258160000096, -7.017614008999942, 0.0 ], [ 113.242631040000106, -7.017929010999978, 0.0 ], [ 113.242365, -7.018065989999968, 0.0 ], [ 113.2420748400001, -7.01812997899998, 0.0 ], [ 113.241902040000014, -7.018107029999953, 0.0 ], [ 113.241543119000085, -7.017894989999945, 0.0 ], [ 113.241318840000076, -7.017764040999964, 0.0 ], [ 113.241195, -7.017743970999959, 0.0 ], [ 113.241000960000065, -7.017931979999958, 0.0 ], [ 113.240852999000026, -7.018049968999946, 0.0 ], [ 113.240742840000053, -7.018081018999965, 0.0 ], [ 113.240408040000034, -7.017830009999955, 0.0 ], [ 113.240338920000113, -7.017771959999948, 0.0 ], [ 113.240230920000045, -7.017680968999969, 0.0 ], [ 113.239833840000074, -7.017519959999959, 0.0 ], [ 113.239649160000113, -7.017473970999959, 0.0 ], [ 113.239314, -7.017815968999969, 0.0 ], [ 113.23915704, -7.017920009999955, 0.0 ], [ 113.238970920000042, -7.01796896999997, 0.0 ], [ 113.238722160000066, -7.017908039999952, 0.0 ], [ 113.238493919, -7.017716969999981, 0.0 ], [ 113.238408960000015, -7.017638038999962, 0.0 ], [ 113.237907120000045, -7.01751797999998, 0.0 ], [ 113.236809840000092, -7.017786989999934, 0.0 ], [ 113.236377840000046, -7.017890039999941, 0.0 ], [ 113.236377120000043, -7.017891028999941, 0.0 ], [ 113.235945840000113, -7.017876, 0.0 ], [ 113.2355498390001, -7.017823979999946, 0.0 ], [ 113.235216838000042, -7.017888959999937, 0.0 ], [ 113.235171120000018, -7.017901019999954, 0.0 ], [ 113.23513008000009, -7.017717958999981, 0.0 ], [ 113.235119999000062, -7.017560010999944, 0.0 ], [ 113.234933878000106, -7.017276960999936, 0.0 ], [ 113.234774040000048, -7.017071039999962, 0.0 ], [ 113.234734080000067, -7.016775029999962, 0.0 ], [ 113.234703120000063, -7.016661000999932, 0.0 ], [ 113.231959601000085, -7.015793830999939, 0.0 ], [ 113.229913264000061, -7.015341732999957, 0.0 ], [ 113.226954118000094, -7.013764978999973, 0.0 ], [ 113.22683784000003, -7.013685960999965, 0.0 ], [ 113.226724080000054, -7.013502989999949, 0.0 ], [ 113.226617160000046, -7.013109959999952, 0.0 ], [ 113.226576838000028, -7.012532968999949, 0.0 ], [ 113.226558839000063, -7.012164960999939, 0.0 ], [ 113.226444, -7.011909989999936, 0.0 ], [ 113.226217920000067, -7.01196201099998, 0.0 ], [ 113.225870160000113, -7.012056959999938, 0.0 ], [ 113.225608080000029, -7.012062989999947, 0.0 ], [ 113.22542304000001, -7.012010970999938, 0.0 ], [ 113.22533412000007, -7.011925020999968, 0.0 ], [ 113.225235840000096, -7.011666, 0.0 ], [ 113.225227920000066, -7.011277018999976, 0.0 ], [ 113.225412960000085, -7.011048958999936, 0.0 ], [ 113.22548388000007, -7.010892, 0.0 ], [ 113.225546880000024, -7.010775989999956, 0.0 ], [ 113.225582159000055, -7.010654039999963, 0.0 ], [ 113.225689080000052, -7.010271989999978, 0.0 ], [ 113.225729039000043, -7.009783020999976, 0.0 ], [ 113.225717159000055, -7.00960202899995, 0.0 ], [ 113.225780880000116, -7.009182988999953, 0.0 ], [ 113.225717880000047, -7.008651, 0.0 ], [ 113.225673960000108, -7.008431039999948, 0.0 ], [ 113.22569807900004, -7.008206040999937, 0.0 ], [ 113.225666040000078, -7.007995980999965, 0.0 ], [ 113.225592959000096, -7.007893019999926, 0.0 ], [ 113.225561998000103, -7.007031989999973, 0.0 ], [ 113.225337, -7.006370039999979, 0.0 ], [ 113.225173919000099, -7.00596, 0.0 ], [ 113.225148000000104, -7.005911039999944, 0.0 ], [ 113.225163119000058, -7.005780989999948, 0.0 ], [ 113.225121, -7.005705029999945, 0.0 ], [ 113.224980960000039, -7.005454020999935, 0.0 ], [ 113.224887, -7.005249990999971, 0.0 ], [ 113.224822919000076, -7.004943989999958, 0.0 ], [ 113.224772878000067, -7.004705039999976, 0.0 ], [ 113.22474912000007, -7.004568959999972, 0.0 ], [ 113.224728960000107, -7.004387970999971, 0.0 ], [ 113.224951080000096, -7.00330895999997, 0.0 ], [ 113.22500184, -7.003058040999974, 0.0 ], [ 113.225042880000046, -7.002857968999933, 0.0 ], [ 113.225029920000111, -7.002605967999955, 0.0 ], [ 113.225028120000047, -7.002603, 0.0 ], [ 113.224834080000051, -7.002029970999956, 0.0 ], [ 113.224726080000096, -7.001712988999941, 0.0 ], [ 113.224683960000107, -7.001496, 0.0 ], [ 113.224673879000079, -7.00126298999993, 0.0 ], [ 113.224692959000095, -7.001177039999959, 0.0 ], [ 113.224772160000043, -7.001092980999942, 0.0 ], [ 113.224861079000107, -7.000998029999948, 0.0 ], [ 113.225111998000102, -7.00072001999996, 0.0 ], [ 113.225244840000073, -7.000473959999965, 0.0 ], [ 113.225329079000062, -7.000198018999981, 0.0 ], [ 113.225304600000072, -7.000002629999926, 0.0 ], [ 113.22530388000007, -6.999999029999969, 0.0 ], [ 113.225258160000067, -6.999622020999936, 0.0 ], [ 113.225217120000025, -6.999440039999968, 0.0 ], [ 113.225090040000055, -6.999285959999952, 0.0 ], [ 113.225403960000108, -6.998355, 0.0 ], [ 113.225844958000039, -6.997728958999971, 0.0 ], [ 113.226341040000079, -6.997020029999931, 0.0 ], [ 113.227058880000072, -6.996198959999958, 0.0 ], [ 113.227527960000089, -6.995754000999966, 0.0 ], [ 113.228205840000101, -6.995154958999933, 0.0 ], [ 113.228786160000027, -6.994681018999927, 0.0 ], [ 113.229353160000073, -6.994221030999938, 0.0 ], [ 113.229892079000024, -6.993761039999981, 0.0 ], [ 113.230457999, -6.993376018999925, 0.0 ], [ 113.230559160000098, -6.993199979999929, 0.0 ], [ 113.230725120000102, -6.993015029999981, 0.0 ], [ 113.231037960000094, -6.992819009999948, 0.0 ], [ 113.231379960000027, -6.992712990999962, 0.0 ], [ 113.231453040000019, -6.992690039999957, 0.0 ], [ 113.231811958000094, -6.992646029999946, 0.0 ], [ 113.232072960000096, -6.992669969999952, 0.0 ], [ 113.23222308000004, -6.992694989999961, 0.0 ], [ 113.232498840000062, -6.992334988999971, 0.0 ], [ 113.232683160000079, -6.992215019999946, 0.0 ], [ 113.232818880000082, -6.992154, 0.0 ], [ 113.23290203900001, -6.992117009999959, 0.0 ], [ 113.232970079000097, -6.992055, 0.0 ], [ 113.233003920000101, -6.992024039999933, 0.0 ], [ 113.233997160000058, -6.991376040999967, 0.0 ], [ 113.234481, -6.990858, 0.0 ], [ 113.234591159000047, -6.990759, 0.0 ], [ 113.234928840000066, -6.990728038999976, 0.0 ], [ 113.235167878000084, -6.990696988999957, 0.0 ], [ 113.235293159000094, -6.990626969999937, 0.0 ], [ 113.235377040000117, -6.990489989999958, 0.0 ], [ 113.235242040000117, -6.98952204099993, 0.0 ], [ 113.235222960000101, -6.989090038999962, 0.0 ], [ 113.235402959000112, -6.988534019999975, 0.0 ], [ 113.235481080000113, -6.988363018999962, 0.0 ], [ 113.236073999000041, -6.987834990999943, 0.0 ], [ 113.236202879000075, -6.987744989999953, 0.0 ], [ 113.237169840000092, -6.986547, 0.0 ], [ 113.237479079000082, -6.98617700899996, 0.0 ], [ 113.238060120000114, -6.985365029999969, 0.0 ], [ 113.238693, -6.984561959999951, 0.0 ], [ 113.239231919000076, -6.983875980999926, 0.0 ], [ 113.239982879000081, -6.982954019999966, 0.0 ], [ 113.240593080000053, -6.982291979999957, 0.0 ], [ 113.2414300800001, -6.981695010999942, 0.0 ], [ 113.242295880000029, -6.981247979999978, 0.0 ], [ 113.24304, -6.981031979999955, 0.0 ], [ 113.243888160000097, -6.980862959999968, 0.0 ], [ 113.245067160000076, -6.980740019999928, 0.0 ], [ 113.246741159000067, -6.980590977999952, 0.0 ], [ 113.248180080000111, -6.980513040999938, 0.0 ], [ 113.249999160000016, -6.980321970999967, 0.0 ], [ 113.250223080000069, -6.980292000999953, 0.0 ], [ 113.250567960000012, -6.980273010999952, 0.0 ], [ 113.251185, -6.980214958999966, 0.0 ], [ 113.251638960000037, -6.980139989999941, 0.0 ], [ 113.252056920000086, -6.980138010999951, 0.0 ], [ 113.252148, -6.980047019999972, 0.0 ], [ 113.25212604, -6.979248988999927, 0.0 ], [ 113.252104079000105, -6.978542039999979, 0.0 ], [ 113.252064120000114, -6.977853000999971, 0.0 ], [ 113.25204288000009, -6.977090969999949, 0.0 ], [ 113.252004, -6.976619008999933, 0.0 ], [ 113.251983120000091, -6.976112039999975, 0.0 ], [ 113.251980960000083, -6.97574402999993, 0.0 ], [ 113.25198816000011, -6.97559597999998, 0.0 ], [ 113.251967999000044, -6.975321029999975, 0.0 ], [ 113.251745879000055, -6.974663040999928, 0.0 ], [ 113.251745160000041, -6.97429601999994, 0.0 ], [ 113.251788, -6.974009009999975, 0.0 ], [ 113.251970880000044, -6.973442008999939, 0.0 ], [ 113.252077080000049, -6.972991019999938, 0.0 ], [ 113.252167080000049, -6.972663959999977, 0.0 ], [ 113.252346000000102, -6.972191998999961, 0.0 ], [ 113.252526000000103, -6.971810038999934, 0.0 ], [ 113.25276, -6.971372998999925, 0.0 ], [ 113.252958, -6.971010028999956, 0.0 ], [ 113.253137999000046, -6.970645978999926, 0.0 ], [ 113.253371999000024, -6.970173029999955, 0.0 ], [ 113.253587999000047, -6.969790979999971, 0.0 ], [ 113.253786000000105, -6.969391019999932, 0.0 ], [ 113.25402108000003, -6.968990970999926, 0.0 ], [ 113.254219080000098, -6.968627009999977, 0.0 ], [ 113.254453080000076, -6.968300038999928, 0.0 ], [ 113.254670160000046, -6.967953989999955, 0.0 ], [ 113.254976880000072, -6.967553039999927, 0.0 ], [ 113.255265960000088, -6.967188989999954, 0.0 ], [ 113.25551796000002, -6.966843030999939, 0.0 ], [ 113.255735040000104, -6.966569969999966, 0.0 ], [ 113.2559888400001, -6.966351, 0.0 ], [ 113.256295920000071, -6.96600504099996, 0.0 ], [ 113.256639, -6.965622990999975, 0.0 ], [ 113.25696516000005, -6.965295028999947, 0.0 ], [ 113.257271880000076, -6.964911989999962, 0.0 ], [ 113.25761495900008, -6.964439038999956, 0.0 ], [ 113.257884960000069, -6.964074988999926, 0.0 ], [ 113.258120039, -6.963675027999955, 0.0 ], [ 113.25819204000004, -6.963317009999969, 0.0 ], [ 113.25842388, -6.963257970999962, 0.0 ], [ 113.258819880000033, -6.963168959999962, 0.0 ], [ 113.2592518780001, -6.963067980999938, 0.0 ], [ 113.259548880000011, -6.963017039999954, 0.0 ], [ 113.25982104000002, -6.962966998999946, 0.0 ], [ 113.260056840000061, -6.962966009999946, 0.0 ], [ 113.260353120000104, -6.962939009999957, 0.0 ], [ 113.260637879000114, -6.962913000999947, 0.0 ], [ 113.260947119000093, -6.962875018999966, 0.0 ], [ 113.261306040000022, -6.962823989999947, 0.0 ], [ 113.261577840000086, -6.962785020999945, 0.0 ], [ 113.26185, -6.962733989999947, 0.0 ], [ 113.262333119, -6.962645968999936, 0.0 ], [ 113.262683038000091, -6.962577029999977, 0.0 ], [ 113.263431120000064, -6.962370028999942, 0.0 ], [ 113.263648918000058, -6.962346, 0.0 ], [ 113.264109, -6.96229496899997, 0.0 ], [ 113.264786160000085, -6.962129008999966, 0.0 ], [ 113.26581504, -6.961814009999955, 0.0 ], [ 113.265921959000025, -6.96177296999997, 0.0 ], [ 113.26638816000002, -6.961575959999948, 0.0 ], [ 113.266893960000061, -6.96128903999994, 0.0 ], [ 113.267288879000034, -6.961077, 0.0 ], [ 113.267697120000093, -6.960877019999941, 0.0 ], [ 113.268017880000116, -6.960740040999951, 0.0 ], [ 113.268290040000011, -6.960652018999951, 0.0 ], [ 113.268538080000098, -6.960614039999939, 0.0 ], [ 113.268797999000071, -6.960636989999955, 0.0 ], [ 113.269367160000115, -6.960696029999951, 0.0 ], [ 113.269849918000091, -6.960731039999928, 0.0 ], [ 113.270370840000055, -6.960789989999967, 0.0 ], [ 113.270766840000078, -6.960861989999955, 0.0 ], [ 113.27133708000008, -6.960970978999967, 0.0 ], [ 113.271857998000087, -6.961104, 0.0 ], [ 113.272291080000059, -6.961201020999965, 0.0 ], [ 113.27278716, -6.961346998999943, 0.0 ], [ 113.27319612000008, -6.961481009999943, 0.0 ], [ 113.273804160000054, -6.961725000999934, 0.0 ], [ 113.2742509200001, -6.96193298999998, 0.0 ], [ 113.274847080000086, -6.962239978999946, 0.0 ], [ 113.275168920000056, -6.962436, 0.0 ], [ 113.275368, -6.962497019999944, 0.0 ], [ 113.275801080000065, -6.96251898099996, 0.0 ], [ 113.27641992000008, -6.962479019999932, 0.0 ], [ 113.27677884000002, -6.962416019999978, 0.0 ], [ 113.277395880000086, -6.962322959999938, 0.0 ], [ 113.279398920000062, -6.961832009999966, 0.0 ], [ 113.280644160000065, -6.961445009999977, 0.0 ], [ 113.282107920000044, -6.960734010999943, 0.0 ], [ 113.2838020800001, -6.959759038999948, 0.0 ], [ 113.284217160000026, -6.959628, 0.0 ], [ 113.284661038000081, -6.959439990999954, 0.0 ], [ 113.285192040000084, -6.959178, 0.0 ], [ 113.28584688, -6.958841038999935, 0.0 ], [ 113.286327840000013, -6.958617029999971, 0.0 ], [ 113.2865753210001, -6.959159861999979, 0.0 ], [ 113.286610558, -6.959451821999949, 0.0 ], [ 113.286474804000022, -6.959836457999927, 0.0 ], [ 113.286474805000012, -6.959977313999957, 0.0 ], [ 113.286474804000022, -6.960442377999925, 0.0 ], [ 113.28648733600005, -6.960538454999948, 0.0 ], [ 113.286639421000018, -6.960755718999962, 0.0 ], [ 113.286766618000115, -6.96079588799995, 0.0 ], [ 113.2873019970001, -6.960914859999946, 0.0 ], [ 113.287400175000016, -6.960941634999926, 0.0 ], [ 113.287545562000105, -6.960966701999951, 0.0 ], [ 113.287783508000075, -6.961026188999938, 0.0 ], [ 113.288318887000059, -6.961055931999965, 0.0 ], [ 113.288505064000105, -6.961083513999938, 0.0 ], [ 113.28905090100011, -6.960974345999944, 0.0 ], [ 113.28965766400006, -6.960950551999929, 0.0 ], [ 113.289858242000037, -6.961031737999974, 0.0 ], [ 113.290157351000062, -6.961152805999973, 0.0 ], [ 113.290597551000019, -6.961295572999973, 0.0 ], [ 113.291109135000056, -6.961640595999938, 0.0 ], [ 113.291448119000052, -6.961851, 0.0 ], [ 113.291750880000109, -6.962111008999955, 0.0 ], [ 113.291927056000077, -6.962257027999954, 0.0 ], [ 113.292123158000095, -6.962498383999957, 0.0 ], [ 113.292165960000034, -6.96258, 0.0 ], [ 113.292172080000114, -6.963003, 0.0 ], [ 113.292174960000011, -6.963181019999979, 0.0 ], [ 113.292306, -6.963438959999962, 0.0 ], [ 113.292363960000102, -6.963553980999961, 0.0 ], [ 113.292406080000092, -6.963600958999962, 0.0 ], [ 113.292504, -6.963710039999967, 0.0 ], [ 113.292681221000066, -6.963808040999936, 0.0 ], [ 113.292757080000115, -6.963849990999961, 0.0 ], [ 113.292919078000068, -6.963956009999947, 0.0 ], [ 113.293023840000046, -6.964023959999963, 0.0 ], [ 113.293269, -6.96429, 0.0 ], [ 113.293289590000086, -6.964356162999934, 0.0 ], [ 113.294059336000032, -6.964863068999932, 0.0 ], [ 113.294581824000034, -6.965148061999969, 0.0 ], [ 113.294821094000099, -6.965221683999971, 0.0 ], [ 113.295285089000117, -6.96536445299995, 0.0 ], [ 113.295906029000093, -6.965654102999963, 0.0 ], [ 113.295943529000056, -6.965679696999928, 0.0 ], [ 113.296528027000022, -6.965933826999958, 0.0 ], [ 113.296944433000021, -6.966231259999972, 0.0 ], [ 113.297212122000019, -6.966023057999962, 0.0 ], [ 113.298312623000015, -6.96608254299997, 0.0 ], [ 113.298312623000015, -6.965547163999929, 0.0 ], [ 113.299829529000021, -6.965219987999944, 0.0 ], [ 113.300364908, -6.965011785999934, 0.0 ], [ 113.30066234100002, -6.96426820399995, 0.0 ], [ 113.302022120000061, -6.961352100999932, 0.0 ], [ 113.302289880000103, -6.961375979999957, 0.0 ], [ 113.302595880000013, -6.961331969999947, 0.0 ], [ 113.302775880000013, -6.961326029999952, 0.0 ], [ 113.302914118000103, -6.961269959999981, 0.0 ], [ 113.303055960000052, -6.961032988999932, 0.0 ], [ 113.303171160000034, -6.960799979999933, 0.0 ], [ 113.303444040000045, -6.960791969999946, 0.0 ], [ 113.303619, -6.960792958999946, 0.0 ], [ 113.303823120000061, -6.96068397099998, 0.0 ], [ 113.303957040000114, -6.960592979999944, 0.0 ], [ 113.304407040000115, -6.960556979999978, 0.0 ], [ 113.304597120000039, -6.960579029999963, 0.0 ], [ 113.304731040000092, -6.960661019999975, 0.0 ], [ 113.304782880000062, -6.960840029999929, 0.0 ], [ 113.304812040000115, -6.96117401999993, 0.0 ], [ 113.304877919000091, -6.961343040999964, 0.0 ], [ 113.305322880000062, -6.961365988999944, 0.0 ], [ 113.305370040000071, -6.961363019999965, 0.0 ], [ 113.305689, -6.96126401999993, 0.0 ], [ 113.305880160000015, -6.961211009999943, 0.0 ], [ 113.306065919000048, -6.961221989999956, 0.0 ], [ 113.306238, -6.961299029999964, 0.0 ], [ 113.306451840000022, -6.961524029999964, 0.0 ], [ 113.307075, -6.961749029999964, 0.0 ], [ 113.307756120000022, -6.961823010999979, 0.0 ], [ 113.308107840000048, -6.961830030999977, 0.0 ], [ 113.308565040000076, -6.961673968999946, 0.0 ], [ 113.308795079000106, -6.961561019999976, 0.0 ], [ 113.30889516000002, -6.96145697999998, 0.0 ], [ 113.308980119000012, -6.961327019999942, 0.0 ], [ 113.309116920000065, -6.96124998099998, 0.0 ], [ 113.30955108, -6.961258979999968, 0.0 ], [ 113.309700118000023, -6.961295969999981, 0.0 ], [ 113.309889120000093, -6.961466969999947, 0.0 ], [ 113.309902080000029, -6.961491000999956, 0.0 ], [ 113.31000108, -6.961664969999958, 0.0 ], [ 113.309976959000096, -6.961955039999964, 0.0 ], [ 113.309966880000047, -6.962103, 0.0 ], [ 113.310074160000113, -6.962235029999931, 0.0 ], [ 113.310280080000098, -6.962343029999943, 0.0 ], [ 113.310599039000067, -6.962346990999947, 0.0 ], [ 113.311038960000019, -6.962452020999933, 0.0 ], [ 113.311173960000019, -6.962487028999931, 0.0 ], [ 113.311240920000046, -6.962460029999932, 0.0 ], [ 113.311278, -6.962434019999932, 0.0 ], [ 113.311198080000054, -6.962149980999925, 0.0 ], [ 113.311176839000041, -6.961962958999948, 0.0 ], [ 113.311217880000072, -6.961872960999926, 0.0 ], [ 113.311382040000012, -6.961778008999943, 0.0 ], [ 113.311491840000031, -6.961761990999946, 0.0 ], [ 113.31164483900011, -6.961839029999965, 0.0 ], [ 113.311767960000111, -6.961892040999942, 0.0 ], [ 113.311799999000073, -6.961895008999932, 0.0 ], [ 113.31276696000009, -6.962238989999946, 0.0 ], [ 113.313108960000022, -6.962346990999947, 0.0 ], [ 113.313384, -6.962392979999947, 0.0 ], [ 113.3136241200001, -6.962495040999954, 0.0 ], [ 113.313951, -6.96269996999996, 0.0 ], [ 113.314043160000097, -6.962812019999944, 0.0 ], [ 113.31412488, -6.962975010999969, 0.0 ], [ 113.3142238800001, -6.963009029999967, 0.0 ], [ 113.314345920000051, -6.962958, 0.0 ], [ 113.314514040000063, -6.962712029999977, 0.0 ], [ 113.314579920000028, -6.962604028999976, 0.0 ], [ 113.314718160000098, -6.962553, 0.0 ], [ 113.315095079000116, -6.962659018999943, 0.0 ], [ 113.31533916, -6.962742989999981, 0.0 ], [ 113.315529960000049, -6.962712029999977, 0.0 ], [ 113.31593892, -6.962792039999954, 0.0 ], [ 113.316157080000039, -6.96286196899996, 0.0 ], [ 113.316908040000044, -6.963102989999925, 0.0 ], [ 113.317716958, -6.963260039999966, 0.0 ], [ 113.318336880000061, -6.963284969999961, 0.0 ], [ 113.318573040000047, -6.963329968999972, 0.0 ], [ 113.318717040000024, -6.963411960999963, 0.0 ], [ 113.318929080000089, -6.963804989999971, 0.0 ], [ 113.319099, -6.964120980999951, 0.0 ], [ 113.319119160000014, -6.964157969999974, 0.0 ], [ 113.319250919000069, -6.964313039999979, 0.0 ], [ 113.319547920000105, -6.964396018999935, 0.0 ], [ 113.320234080000091, -6.964401958999929, 0.0 ], [ 113.320460880000041, -6.964426979999928, 0.0 ], [ 113.320712880000087, -6.964583040999969, 0.0 ], [ 113.320851840000046, -6.964680960999942, 0.0 ], [ 113.321208959000046, -6.964592039999957, 0.0 ], [ 113.321441878000087, -6.964586008999959, 0.0 ], [ 113.321577958000034, -6.964594019999936, 0.0 ], [ 113.321652120000067, -6.964565039999968, 0.0 ], [ 113.321805120000022, -6.964452990999973, 0.0 ], [ 113.321904840000116, -6.96437801999997, 0.0 ], [ 113.322107160000087, -6.964352998999971, 0.0 ], [ 113.32254816000011, -6.964521030999947, 0.0 ], [ 113.322864958000082, -6.964674029999969, 0.0 ], [ 113.323161960000107, -6.964751968999963, 0.0 ], [ 113.323592880000092, -6.964882018999958, 0.0 ], [ 113.324154120000117, -6.965037990999974, 0.0 ], [ 113.324483160000113, -6.965130959999954, 0.0 ], [ 113.324529960000064, -6.965148960999954, 0.0 ], [ 113.324437080000052, -6.965269019999937, 0.0 ], [ 113.324374080000098, -6.965451989999963, 0.0 ], [ 113.324339160000022, -6.965675997999938, 0.0 ], [ 113.324171038000031, -6.965624969999965, 0.0 ], [ 113.32409508, -6.965542980999942, 0.0 ], [ 113.323987079000062, -6.965485018999971, 0.0 ], [ 113.323812120000071, -6.965660969999931, 0.0 ], [ 113.323532040000032, -6.965946987999928, 0.0 ], [ 113.32340712000007, -6.96595599099993, 0.0 ], [ 113.3232800400001, -6.965865989999941, 0.0 ], [ 113.323043879000011, -6.96571002099995, 0.0 ], [ 113.322984120000115, -6.965753040999971, 0.0 ], [ 113.322881160000065, -6.96591701899996, 0.0 ], [ 113.322875040000099, -6.966063987999974, 0.0 ], [ 113.322965040000099, -6.966378988999963, 0.0 ], [ 113.323016160000066, -6.966513988999964, 0.0 ], [ 113.322981958000014, -6.966564029999972, 0.0 ], [ 113.322746160000065, -6.966831959999979, 0.0 ], [ 113.32250604, -6.96711303099994, 0.0 ], [ 113.322501000000102, -6.967251989999966, 0.0 ], [ 113.322565080000118, -6.967467, 0.0 ], [ 113.322634920000041, -6.967783980999968, 0.0 ], [ 113.322538080000072, -6.967974960999925, 0.0 ], [ 113.322359879000032, -6.968348009999943, 0.0 ], [ 113.322368159, -6.968512979999957, 0.0 ], [ 113.322368159, -6.968526029999964, 0.0 ], [ 113.322339, -6.968835988999956, 0.0 ], [ 113.322251159000075, -6.96952196999996, 0.0 ], [ 113.322351960000105, -6.969822029999932, 0.0 ], [ 113.32232999900009, -6.969893039999931, 0.0 ], [ 113.322295080000117, -6.970010039999977, 0.0 ], [ 113.322156839000058, -6.970141979999937, 0.0 ], [ 113.322079080000094, -6.970227027999954, 0.0 ], [ 113.321959919000051, -6.970355998999935, 0.0 ], [ 113.322044880000021, -6.970555980999961, 0.0 ], [ 113.322205080000117, -6.970764960999929, 0.0 ], [ 113.32241316000011, -6.970931010999948, 0.0 ], [ 113.322836880000068, -6.971266979999939, 0.0 ], [ 113.322840120000023, -6.97139901099996, 0.0 ], [ 113.322762, -6.971624009999971, 0.0 ], [ 113.322760919000075, -6.971627969999929, 0.0 ], [ 113.322561840000049, -6.971993998999949, 0.0 ], [ 113.322282120000068, -6.97225796999993, 0.0 ], [ 113.322120120000022, -6.972368039999935, 0.0 ], [ 113.321904840000116, -6.972513029999959, 0.0 ], [ 113.321697120000067, -6.972567027999958, 0.0 ], [ 113.321194920000039, -6.972728038999946, 0.0 ], [ 113.321134080000093, -6.972831988999928, 0.0 ], [ 113.321140919000072, -6.972930988999963, 0.0 ], [ 113.32122516000004, -6.973071029999971, 0.0 ], [ 113.321292840000069, -6.973202970999978, 0.0 ], [ 113.321292120000066, -6.973301970999955, 0.0 ], [ 113.321220120000021, -6.973748009999952, 0.0 ], [ 113.321100960000081, -6.973918020999974, 0.0 ], [ 113.320846078000045, -6.974260019999974, 0.0 ], [ 113.320509120000111, -6.974906039999951, 0.0 ], [ 113.320446118000064, -6.975039959999947, 0.0 ], [ 113.320369080000091, -6.975226977999966, 0.0 ], [ 113.32029384000009, -6.975614967999945, 0.0 ], [ 113.320206, -6.975970019999977, 0.0 ], [ 113.320103040000049, -6.976146960999927, 0.0 ], [ 113.319986040000117, -6.976449989999935, 0.0 ], [ 113.319874080000091, -6.976817008999944, 0.0 ], [ 113.319773998000073, -6.977108969999961, 0.0 ], [ 113.319636120000041, -6.977552040999967, 0.0 ], [ 113.319511920000082, -6.97797098999996, 0.0 ], [ 113.319411840000043, -6.97833800899997, 0.0 ], [ 113.319299879000027, -6.978680009999948, 0.0 ], [ 113.319162, -6.979086, 0.0 ], [ 113.319050040000093, -6.979365, 0.0 ], [ 113.318938080000066, -6.979744979999964, 0.0 ], [ 113.318850960000077, -6.980112, 0.0 ], [ 113.318560798000021, -6.980139228999974, 0.0 ], [ 113.318560798000021, -6.980453316999956, 0.0 ], [ 113.318776698000079, -6.980874047999976, 0.0 ], [ 113.318766, -6.980997958999978, 0.0 ], [ 113.318718120000085, -6.981428968999978, 0.0 ], [ 113.318705880000039, -6.981681959999946, 0.0 ], [ 113.318719920000035, -6.981896968999934, 0.0 ], [ 113.318772120000062, -6.982149959999958, 0.0 ], [ 113.318849160000013, -6.982326989999933, 0.0 ], [ 113.3189769600001, -6.982515989999968, 0.0 ], [ 113.319128880000108, -6.982679970999925, 0.0 ], [ 113.319384120000109, -6.98288102999993, 0.0 ], [ 113.319740160000038, -6.983069040999965, 0.0 ], [ 113.32026, -6.983217989999957, 0.0 ], [ 113.320691999000019, -6.983368018999954, 0.0 ], [ 113.321046960000103, -6.983505, 0.0 ], [ 113.321390040000097, -6.983667989999958, 0.0 ], [ 113.321639879000031, -6.983721990999925, 0.0 ], [ 113.322349079000105, -6.983791019999956, 0.0 ], [ 113.322349079000105, -6.98379597099995, 0.0 ], [ 113.322218040000052, -6.984347039999932, 0.0 ], [ 113.322196080000026, -6.984434969999938, 0.0 ], [ 113.322034080000094, -6.984881009999981, 0.0 ], [ 113.322030120000022, -6.984928980999939, 0.0 ], [ 113.322022920000109, -6.985007008999958, 0.0 ], [ 113.32205604, -6.985697038999945, 0.0 ], [ 113.322125160000041, -6.986261968999941, 0.0 ], [ 113.322132, -6.98644404099997, 0.0 ], [ 113.32215, -6.98687603999997, 0.0 ], [ 113.322095999000112, -6.987381029999938, 0.0 ], [ 113.322013920000018, -6.987725010999952, 0.0 ], [ 113.321996998000031, -6.987767040999927, 0.0 ], [ 113.32177992000004, -6.988281029999939, 0.0 ], [ 113.321489040000074, -6.989202989999967, 0.0 ], [ 113.321378880000111, -6.989849010999933, 0.0 ], [ 113.321345039000107, -6.990104968999958, 0.0 ], [ 113.321270880000043, -6.990279029999954, 0.0 ], [ 113.321169, -6.990370018999954, 0.0 ], [ 113.320844604000058, -6.990828005999958, 0.0 ], [ 113.320518839000101, -6.990999028999966, 0.0 ], [ 113.320460160000039, -6.991098029999932, 0.0 ], [ 113.320361160000061, -6.991334009999946, 0.0 ], [ 113.320176840000045, -6.991772039999944, 0.0 ], [ 113.320067040000026, -6.992034029999957, 0.0 ], [ 113.319974160000015, -6.992297009999959, 0.0 ], [ 113.319992160000083, -6.992577989999972, 0.0 ], [ 113.320203838000111, -6.992855009999971, 0.0 ], [ 113.320361160000061, -6.993084959999976, 0.0 ], [ 113.320415880000041, -6.993261000999951, 0.0 ], [ 113.320398960000034, -6.99337898999994, 0.0 ], [ 113.320743840000091, -6.993451979999975, 0.0 ], [ 113.321298960000036, -6.993512009999961, 0.0 ], [ 113.321346120000044, -6.993510029999925, 0.0 ], [ 113.321634841000105, -6.993704969999953, 0.0 ], [ 113.322039839000013, -6.994032029999971, 0.0 ], [ 113.322296880000067, -6.99412302199994, 0.0 ], [ 113.323101120000047, -6.994310039999959, 0.0 ], [ 113.323268880000114, -6.994599029999961, 0.0 ], [ 113.32345392000002, -6.994964969999955, 0.0 ], [ 113.323660921000055, -6.995412, 0.0 ], [ 113.323866840000051, -6.995860019999952, 0.0 ], [ 113.324073118000115, -6.996266011999978, 0.0 ], [ 113.32417716000009, -6.996591991999935, 0.0 ], [ 113.324283, -6.996807000999979, 0.0 ], [ 113.324448960000041, -6.996947038999963, 0.0 ], [ 113.324565960000086, -6.997203989999946, 0.0 ], [ 113.324707078000074, -6.997435020999944, 0.0 ], [ 113.324943960000041, -6.997735979999959, 0.0 ], [ 113.325001919000101, -6.997878, 0.0 ], [ 113.324946840000052, -6.998055028999943, 0.0 ], [ 113.324878080000076, -6.998167980999938, 0.0 ], [ 113.325107038000056, -6.998360041999945, 0.0 ], [ 113.32532412, -6.998463991999927, 0.0 ], [ 113.325437880000095, -6.99857297899996, 0.0 ], [ 113.325478920000023, -6.99873101999998, 0.0 ], [ 113.325428158000022, -6.998922989999926, 0.0 ], [ 113.325494040000081, -6.999030991999973, 0.0 ], [ 113.325656039000023, -6.999165991999973, 0.0 ], [ 113.325768001000029, -6.99935697199993, 0.0 ], [ 113.325788161000105, -6.999705, 0.0 ], [ 113.325788161000105, -6.999759, 0.0 ], [ 113.326022161000083, -6.999659011999938, 0.0 ], [ 113.326239959000077, -6.999569998999959, 0.0 ], [ 113.326439041000071, -6.999553981999952, 0.0 ], [ 113.326664040000082, -6.999795, 0.0 ], [ 113.326971838000077, -6.999973021999949, 0.0 ], [ 113.327021879000085, -6.999999029999969, 0.0 ], [ 113.327031600000055, -7.000003889999959, 0.0 ], [ 113.327118, -7.000048979999974, 0.0 ], [ 113.327272080000057, -7.000444978999951, 0.0 ], [ 113.327391959000011, -7.000801019999926, 0.0 ], [ 113.32748016000005, -7.000975980999954, 0.0 ], [ 113.327538120000099, -7.001021969999954, 0.0 ], [ 113.32753488100002, -7.001031961999956, 0.0 ], [ 113.327459999000098, -7.001271, 0.0 ], [ 113.327413920000026, -7.001595988999952, 0.0 ], [ 113.327310960000091, -7.001865, 0.0 ], [ 113.32722491800007, -7.002035010999975, 0.0 ], [ 113.327228161000107, -7.002198989999954, 0.0 ], [ 113.327313120000099, -7.00230302999995, 0.0 ], [ 113.327526959000011, -7.002369989999977, 0.0 ], [ 113.328084960000069, -7.00226099899993, 0.0 ], [ 113.328596880000077, -7.00257401999994, 0.0 ], [ 113.329013041000053, -7.002834028999928, 0.0 ], [ 113.329339920000052, -7.002964980999934, 0.0 ], [ 113.329928880000011, -7.003032029999929, 0.0 ], [ 113.330152080000062, -7.003049039999951, 0.0 ], [ 113.330261160000077, -7.003098988999966, 0.0 ], [ 113.330329920000054, -7.003191959999981, 0.0 ], [ 113.330328120000104, -7.003376008999965, 0.0 ], [ 113.330486161000067, -7.003243979999979, 0.0 ], [ 113.330635920000077, -7.003163969999946, 0.0 ], [ 113.331103920000032, -7.00327700899993, 0.0 ], [ 113.331762, -7.003490039999974, 0.0 ], [ 113.331987, -7.003568971999925, 0.0 ], [ 113.332044960000076, -7.003576979999934, 0.0 ], [ 113.332061880000083, -7.003765981999948, 0.0 ], [ 113.332253041000058, -7.003971989999968, 0.0 ], [ 113.332482, -7.004198969999948, 0.0 ], [ 113.332498921000024, -7.004228040999976, 0.0 ], [ 113.332618080000088, -7.004430990999936, 0.0 ], [ 113.332651921000092, -7.004649958999948, 0.0 ], [ 113.332681080000043, -7.005176010999946, 0.0 ], [ 113.332705919000091, -7.005639959999939, 0.0 ], [ 113.332692960000031, -7.005879989999926, 0.0 ], [ 113.33268, -7.006128029999957, 0.0 ], [ 113.332676039000035, -7.006194, 0.0 ], [ 113.332674958000098, -7.006239988999937, 0.0 ], [ 113.332674958000098, -7.006242959999952, 0.0 ], [ 113.332676039000035, -7.006363018999934, 0.0 ], [ 113.33274804000007, -7.006555981999952, 0.0 ], [ 113.333014078000019, -7.007762971999966, 0.0 ], [ 113.332982040000047, -7.008759, 0.0 ], [ 113.332903920000035, -7.009624979999955, 0.0 ], [ 113.332808161000116, -7.010672039999974, 0.0 ], [ 113.332494960000076, -7.011595979999981, 0.0 ], [ 113.332268160000012, -7.012205009999946, 0.0 ], [ 113.332019041000081, -7.013268001999961, 0.0 ], [ 113.331768120000106, -7.013828969999963, 0.0 ], [ 113.331593159000022, -7.014222000999951, 0.0 ], [ 113.331476880000082, -7.014616020999938, 0.0 ], [ 113.331425040000113, -7.015080959999977, 0.0 ], [ 113.331429, -7.01558198999993, 0.0 ], [ 113.33152584000004, -7.015705018999938, 0.0 ], [ 113.33153196100011, -7.015854959999956, 0.0 ], [ 113.331566160000079, -7.016109029999939, 0.0 ], [ 113.331682080000064, -7.016246998999975, 0.0 ], [ 113.331850920000079, -7.016363008999974, 0.0 ], [ 113.33210796000003, -7.016429969999933, 0.0 ], [ 113.332870080000021, -7.016551021999931, 0.0 ], [ 113.332952880000107, -7.016697, 0.0 ], [ 113.332912920000012, -7.016805989999966, 0.0 ], [ 113.332794120000017, -7.017126029999929, 0.0 ], [ 113.332800961000089, -7.017282991999934, 0.0 ], [ 113.332870080000021, -7.017398008999976, 0.0 ], [ 113.3329838410001, -7.017384958999969, 0.0 ], [ 113.333168160000014, -7.017293969999969, 0.0 ], [ 113.333298119, -7.01726499199998, 0.0 ], [ 113.333529960000078, -7.017351031999965, 0.0 ], [ 113.333909041000084, -7.017560010999944, 0.0 ], [ 113.334081840000067, -7.017597989999956, 0.0 ], [ 113.334248880000018, -7.017540028999974, 0.0 ], [ 113.334347161000096, -7.017433019999942, 0.0 ], [ 113.334355080000023, -7.017294960999948, 0.0 ], [ 113.334382079000079, -7.016831998999976, 0.0 ], [ 113.33451204000005, -7.016681969999979, 0.0 ], [ 113.33475504, -7.016529958999968, 0.0 ], [ 113.335035119000054, -7.016473978999954, 0.0 ], [ 113.335203960000058, -7.01649, 0.0 ], [ 113.335337159, -7.016571, 0.0 ], [ 113.335459921000052, -7.016723011999943, 0.0 ], [ 113.335453078000114, -7.016842978999932, 0.0 ], [ 113.335371, -7.017307020999965, 0.0 ], [ 113.335418161, -7.017489988999955, 0.0 ], [ 113.33550708000007, -7.017505021999966, 0.0 ], [ 113.335680960000104, -7.017460018999941, 0.0 ], [ 113.336003880000021, -7.01739999199998, 0.0 ], [ 113.336181001000114, -7.017351031999965, 0.0 ], [ 113.336290080000026, -7.017242039999928, 0.0 ], [ 113.33628504, -7.01721, 0.0 ], [ 113.336254079000014, -7.016940989999966, 0.0 ], [ 113.336273159000029, -7.016886988999943, 0.0 ], [ 113.336273880000022, -7.016885009999953, 0.0 ], [ 113.336676, -7.016910029999963, 0.0 ], [ 113.336718121000104, -7.016941978999967, 0.0 ], [ 113.336874, -7.017012001999944, 0.0 ], [ 113.336831879000101, -7.017138, 0.0 ], [ 113.336580961000095, -7.018093978999957, 0.0 ], [ 113.336633160000019, -7.018521031999967, 0.0 ], [ 113.336701918000017, -7.018608959999938, 0.0 ], [ 113.33676816000002, -7.018754039999976, 0.0 ], [ 113.336736840000071, -7.018863029999977, 0.0 ], [ 113.336637840000094, -7.018966979999959, 0.0 ], [ 113.336413920000041, -7.019201968999937, 0.0 ], [ 113.336353080000094, -7.019404019999968, 0.0 ], [ 113.336359921000053, -7.01946, 0.0 ], [ 113.336358841000106, -7.019463959999939, 0.0 ], [ 113.336309881000034, -7.019726038999977, 0.0 ], [ 113.336031960000014, -7.020201961999931, 0.0 ], [ 113.335876080000048, -7.020473040999946, 0.0 ], [ 113.335777080000071, -7.020872009999948, 0.0 ], [ 113.335635960000104, -7.021370969999964, 0.0 ], [ 113.335526880000089, -7.021756979999964, 0.0 ], [ 113.335422841000081, -7.022259001999942, 0.0 ], [ 113.335255080000024, -7.022435038999959, 0.0 ], [ 113.33493288000011, -7.022790989999976, 0.0 ], [ 113.334633, -7.023321988999953, 0.0 ], [ 113.334643080000092, -7.02349002099993, 0.0 ], [ 113.334770881000054, -7.024014001999944, 0.0 ], [ 113.334977160000108, -7.024383989999933, 0.0 ], [ 113.335068960000058, -7.024552019999931, 0.0 ], [ 113.33509416000004, -7.024553998999977, 0.0 ], [ 113.335482958000057, -7.024586040999964, 0.0 ], [ 113.335711920000108, -7.02471302999993, 0.0 ], [ 113.335720920000085, -7.024717979999934, 0.0 ], [ 113.335772040000052, -7.024833989999934, 0.0 ], [ 113.335993080000094, -7.025472990999958, 0.0 ], [ 113.336117999000066, -7.02598500199997, 0.0 ], [ 113.336102161000099, -7.026144030999944, 0.0 ], [ 113.336076961000117, -7.02639800999998, 0.0 ], [ 113.335909921000052, -7.026408990999926, 0.0 ], [ 113.335823159000029, -7.026519961999952, 0.0 ], [ 113.335731, -7.027208008999935, 0.0 ], [ 113.335606080000048, -7.027309979999927, 0.0 ], [ 113.335464959000092, -7.027355969999974, 0.0 ], [ 113.335220880000065, -7.027611029999946, 0.0 ], [ 113.335080840000046, -7.027720019999947, 0.0 ], [ 113.334989040000096, -7.02793602099996, 0.0 ], [ 113.334887159, -7.028426968999952, 0.0 ], [ 113.335040160000062, -7.02865701199994, 0.0 ], [ 113.335124040000096, -7.028790028999936, 0.0 ], [ 113.335188841000104, -7.028892, 0.0 ], [ 113.335243920000039, -7.029084959999977, 0.0 ], [ 113.335318079000103, -7.029345960999933, 0.0 ], [ 113.335481880000088, -7.029738, 0.0 ], [ 113.335763041000064, -7.030411019999974, 0.0 ], [ 113.335634880000043, -7.030503, 0.0 ], [ 113.335545960000104, -7.030632960999981, 0.0 ], [ 113.33555388000002, -7.030838969999934, 0.0 ], [ 113.335571159000096, -7.030985041999941, 0.0 ], [ 113.335576921000097, -7.031139031999942, 0.0 ], [ 113.335605000000101, -7.031441969999946, 0.0 ], [ 113.33559708100006, -7.031565, 0.0 ], [ 113.335580878000087, -7.031813039999975, 0.0 ], [ 113.335495920000085, -7.032094019999931, 0.0 ], [ 113.335295041000109, -7.032372029999976, 0.0 ], [ 113.334634078000022, -7.032938039999976, 0.0 ], [ 113.334402960000034, -7.033139009999957, 0.0 ], [ 113.334138, -7.033524029999967, 0.0 ], [ 113.334033960000056, -7.033807979999949, 0.0 ], [ 113.333920921000072, -7.034063039999978, 0.0 ], [ 113.333137920000013, -7.034974019999936, 0.0 ], [ 113.332817160000104, -7.035478018999981, 0.0 ], [ 113.332601880000084, -7.035854038999958, 0.0 ], [ 113.332325039000011, -7.036149959999932, 0.0 ], [ 113.332011841000053, -7.036449029999972, 0.0 ], [ 113.33135196, -7.037090009999929, 0.0 ], [ 113.330877120000082, -7.03753901999994, 0.0 ], [ 113.330642040000043, -7.037708038999938, 0.0 ], [ 113.330481120000059, -7.037767979999956, 0.0 ], [ 113.330422079000073, -7.037766, 0.0 ], [ 113.330361961000108, -7.038294030999964, 0.0 ], [ 113.330404079, -7.038392039999962, 0.0 ] ] ] ] } }
]
}
