{
"type": "FeatureCollection",
"name": "Kec_Pangarengan",
"crs": { "type": "name", "properties": { "name": "urn:ogc:def:crs:OGC:1.3:CRS84" } },
"features": [
{ "type": "Feature", "properties": { "OBJECTID": 9179.0, "NAMOBJ": "Apa an", "FCODE": "BA03070040", "METADATA": "TASWIL1000020221227_DATA_BATAS_DESAKELURAHAN", "SRS_ID": "SRGI 2013", "KDCPUM": "35.27.13", "KDEPUM": "35.27.13.2002", "KDPKAB": "35.27", "KDPPUM": "35", "LUASWH": 0.0, "TIPADM": 1.0, "WADMKC": "Pangarengan", "WADMKD": "Apa an", "WADMKK": "Sampang", "WADMPR": "Jawa Timur", "UUPP": "Hasil Delineasi Batas Desa 2019", "LUAS": 9.70018451 }, "geometry": { "type": "MultiPolygon", "coordinates": [ [ [ [ 113.2077820720001, -7.204883428999949, 0.0 ], [ 113.207783543, -7.204884044999972, 0.0 ], [ 113.208288, -7.205095, 0.0 ], [ 113.20834999300007, -7.205121347999977, 0.0 ], [ 113.208407325000053, -7.205145712999979, 0.0 ], [ 113.208407216000069, -7.20514596299995, 0.0 ], [ 113.208116118000021, -7.205806143999951, 0.0 ], [ 113.20851, -7.205914998999958, 0.0 ], [ 113.208544048000022, -7.205935654999962, 0.0 ], [ 113.208598366000047, -7.205968610999946, 0.0 ], [ 113.208749, -7.206060000999969, 0.0 ], [ 113.208859672000017, -7.206111590999967, 0.0 ], [ 113.209281, -7.206307998999932, 0.0 ], [ 113.209047, -7.206925, 0.0 ], [ 113.209506, -7.20712599899997, 0.0 ], [ 113.209866, -7.207267, 0.0 ], [ 113.210331999, -7.207486001999939, 0.0 ], [ 113.210437001000059, -7.207534998999961, 0.0 ], [ 113.210641998000028, -7.20758000099994, 0.0 ], [ 113.210823369000082, -7.207630666999933, 0.0 ], [ 113.211315001000116, -7.207767998999941, 0.0 ], [ 113.211309, -7.207829998999955, 0.0 ], [ 113.211744001000056, -7.207988, 0.0 ], [ 113.211667, -7.208217998999942, 0.0 ], [ 113.211662001000036, -7.208454998999969, 0.0 ], [ 113.211628, -7.208703998999965, 0.0 ], [ 113.211561999000082, -7.20906, 0.0 ], [ 113.211499998000022, -7.209129, 0.0 ], [ 113.211518, -7.209240001999945, 0.0 ], [ 113.211551879000012, -7.209403411999972, 0.0 ], [ 113.211654, -7.209895998999968, 0.0 ], [ 113.211783001000072, -7.209897998999963, 0.0 ], [ 113.211845847000063, -7.210143375999962, 0.0 ], [ 113.211898001, -7.210347, 0.0 ], [ 113.211943, -7.210498998999981, 0.0 ], [ 113.212009999000088, -7.210627, 0.0 ], [ 113.212260998000033, -7.211067998999965, 0.0 ], [ 113.212314000000106, -7.211123998999938, 0.0 ], [ 113.212445001000106, -7.211457998999947, 0.0 ], [ 113.212452, -7.211610998999959, 0.0 ], [ 113.212444001000108, -7.211814001999926, 0.0 ], [ 113.212429, -7.21211, 0.0 ], [ 113.212422, -7.212386, 0.0 ], [ 113.212380999000061, -7.212669, 0.0 ], [ 113.212313000000108, -7.212843, 0.0 ], [ 113.212271000000101, -7.212941, 0.0 ], [ 113.212253, -7.21349300199995, 0.0 ], [ 113.212236, -7.213828, 0.0 ], [ 113.212298999000041, -7.213919000999965, 0.0 ], [ 113.212297, -7.214128998999968, 0.0 ], [ 113.212145999000086, -7.2142, 0.0 ], [ 113.212141903000088, -7.214283637999927, 0.0 ], [ 113.212134001000095, -7.214445000999945, 0.0 ], [ 113.212093001000085, -7.215003998999975, 0.0 ], [ 113.211820001000092, -7.215114, 0.0 ], [ 113.211493, -7.21528400099993, 0.0 ], [ 113.211216001000025, -7.215293, 0.0 ], [ 113.211222046000103, -7.215336332999925, 0.0 ], [ 113.21124, -7.215465, 0.0 ], [ 113.211111999000082, -7.215568, 0.0 ], [ 113.211004000000116, -7.215638001999935, 0.0 ], [ 113.210966, -7.215773001999935, 0.0 ], [ 113.210923001000083, -7.215844998999955, 0.0 ], [ 113.210739998, -7.216004, 0.0 ], [ 113.210720998000056, -7.216073, 0.0 ], [ 113.210695000000101, -7.216103000999965, 0.0 ], [ 113.210625999000058, -7.216133, 0.0 ], [ 113.210287000000108, -7.216056998999932, 0.0 ], [ 113.210231, -7.2161, 0.0 ], [ 113.210215609000102, -7.216141361999973, 0.0 ], [ 113.210183001000019, -7.216229, 0.0 ], [ 113.210027001000071, -7.216571000999977, 0.0 ], [ 113.209933, -7.216722998999956, 0.0 ], [ 113.209702000000107, -7.217068, 0.0 ], [ 113.209726999000054, -7.217247998999937, 0.0 ], [ 113.2096679980001, -7.217441998999959, 0.0 ], [ 113.209432000000106, -7.217424998999945, 0.0 ], [ 113.209402001000058, -7.217279, 0.0 ], [ 113.208842000000118, -7.217338, 0.0 ], [ 113.208542001000069, -7.217349, 0.0 ], [ 113.208457187000022, -7.217373922999968, 0.0 ], [ 113.207929720000038, -7.217528923999964, 0.0 ], [ 113.207858000000101, -7.21755, 0.0 ], [ 113.207494000000111, -7.217765, 0.0 ], [ 113.20746, -7.217865, 0.0 ], [ 113.206223001000012, -7.217995000999963, 0.0 ], [ 113.206199159000107, -7.217996271999937, 0.0 ], [ 113.205773001000011, -7.218019, 0.0 ], [ 113.205333350000046, -7.218090702999973, 0.0 ], [ 113.205307001000051, -7.218095001999927, 0.0 ], [ 113.204878001000111, -7.218215, 0.0 ], [ 113.204368, -7.218373, 0.0 ], [ 113.203968, -7.218453, 0.0 ], [ 113.203300001000116, -7.218591998999955, 0.0 ], [ 113.202504, -7.218748998999956, 0.0 ], [ 113.202555001000064, -7.219057, 0.0 ], [ 113.202540789000068, -7.219125205999944, 0.0 ], [ 113.202505, -7.219296998999937, 0.0 ], [ 113.202474803000086, -7.219435361999956, 0.0 ], [ 113.202450000000113, -7.219548998999926, 0.0 ], [ 113.202482, -7.219818, 0.0 ], [ 113.202543000000105, -7.219927001999963, 0.0 ], [ 113.202513475000046, -7.220139957999947, 0.0 ], [ 113.201825141000086, -7.220202743999948, 0.0 ], [ 113.201795398000058, -7.220223565999959, 0.0 ], [ 113.20176565600002, -7.22046448499998, 0.0 ], [ 113.201700219000031, -7.220821403999935, 0.0 ], [ 113.201701314000047, -7.220847935999927, 0.0 ], [ 113.2017021690001, -7.220868682999935, 0.0 ], [ 113.201724013000103, -7.221398424999961, 0.0 ], [ 113.201741860000084, -7.221535241999959, 0.0 ], [ 113.201756733000025, -7.221562010999946, 0.0 ], [ 113.202315905000091, -7.221636368999953, 0.0 ], [ 113.20267353700001, -7.221643335999943, 0.0 ], [ 113.202823784000088, -7.222118118999958, 0.0 ], [ 113.202779335000059, -7.222124486999974, 0.0 ], [ 113.202626911000038, -7.222157196999945, 0.0 ], [ 113.202447055000107, -7.22220471199995, 0.0 ], [ 113.202320802000031, -7.222226837999926, 0.0 ], [ 113.202078823000079, -7.222251248999953, 0.0 ], [ 113.201855824000063, -7.222258336999971, 0.0 ], [ 113.201633047000087, -7.22227238399995, 0.0 ], [ 113.201298769, -7.222289975999956, 0.0 ], [ 113.201089707000051, -7.222296620999941, 0.0 ], [ 113.200962051000033, -7.222231014999977, 0.0 ], [ 113.200876209000057, -7.22216407999997, 0.0 ], [ 113.200812824000081, -7.222145194999939, 0.0 ], [ 113.200731196000106, -7.222210486999927, 0.0 ], [ 113.200642820000098, -7.222282958999926, 0.0 ], [ 113.200425340000038, -7.22240682499995, 0.0 ], [ 113.200424394000038, -7.222407435999969, 0.0 ], [ 113.20025269700011, -7.222518282999943, 0.0 ], [ 113.200086555000098, -7.222558394999965, 0.0 ], [ 113.199919526000031, -7.222570669999925, 0.0 ], [ 113.19972395700006, -7.222562952999965, 0.0 ], [ 113.199456038000108, -7.22247393899994, 0.0 ], [ 113.199242316000095, -7.222334435999926, 0.0 ], [ 113.199126380000052, -7.222198792999961, 0.0 ], [ 113.199071167000056, -7.221998520999932, 0.0 ], [ 113.199067962000072, -7.221897929999955, 0.0 ], [ 113.19906340600005, -7.221754942999951, 0.0 ], [ 113.199042151000071, -7.221525726999971, 0.0 ], [ 113.199100657000031, -7.221391505999975, 0.0 ], [ 113.199111047000088, -7.221279712999944, 0.0 ], [ 113.199072433000083, -7.221162510999932, 0.0 ], [ 113.199000528000056, -7.221095131999959, 0.0 ], [ 113.198885258000018, -7.220980364999946, 0.0 ], [ 113.1988779940001, -7.220936624999979, 0.0 ], [ 113.19836930800011, -7.220924486999934, 0.0 ], [ 113.198349839000116, -7.220932360999939, 0.0 ], [ 113.198257949000094, -7.22111495799993, 0.0 ], [ 113.198085544000037, -7.221250475999966, 0.0 ], [ 113.197933792000072, -7.22145035799997, 0.0 ], [ 113.197819208000055, -7.221649059999947, 0.0 ], [ 113.19770432700011, -7.221838481999953, 0.0 ], [ 113.197614957000042, -7.221952784999928, 0.0 ], [ 113.197397867000063, -7.222145455999964, 0.0 ], [ 113.197196108000071, -7.222235463999937, 0.0 ], [ 113.196929010000076, -7.222318259999952, 0.0 ], [ 113.196614566000108, -7.222374694999928, 0.0 ], [ 113.196225786000014, -7.222433490999947, 0.0 ], [ 113.19607682000003, -7.222428935999972, 0.0 ], [ 113.195926968000094, -7.222396541999956, 0.0 ], [ 113.195795995000026, -7.222372837999956, 0.0 ], [ 113.195766936000041, -7.222336605999942, 0.0 ], [ 113.195717599000091, -7.222255039999936, 0.0 ], [ 113.195695416000035, -7.222244830999955, 0.0 ], [ 113.195630668000035, -7.222256175999973, 0.0 ], [ 113.195599329000061, -7.222294326999929, 0.0 ], [ 113.195535329000109, -7.222376876999931, 0.0 ], [ 113.195500037000102, -7.222453351999945, 0.0 ], [ 113.195492331000082, -7.222808094999948, 0.0 ], [ 113.19539239400001, -7.222993692999978, 0.0 ], [ 113.194878431, -7.223264951999965, 0.0 ], [ 113.19364349600005, -7.223759314999938, 0.0 ], [ 113.19363971700011, -7.223760827999968, 0.0 ], [ 113.192804877000071, -7.22404497399998, 0.0 ], [ 113.192798578000065, -7.224046198999929, 0.0 ], [ 113.190331660000084, -7.224526106999974, 0.0 ], [ 113.190320179000082, -7.224528339999949, 0.0 ], [ 113.18971473900001, -7.224634459999947, 0.0 ], [ 113.188811226000098, -7.224849651999932, 0.0 ], [ 113.187719905000108, -7.225209886999949, 0.0 ], [ 113.18633253500002, -7.225716224999928, 0.0 ], [ 113.186228583000116, -7.225754163999966, 0.0 ], [ 113.184696974000076, -7.226119351999955, 0.0 ], [ 113.184377471000062, -7.226158730999941, 0.0 ], [ 113.184008295000012, -7.22620423199993, 0.0 ], [ 113.183406095, -7.226258192999978, 0.0 ], [ 113.182915976000118, -7.226427021999939, 0.0 ], [ 113.182728911000027, -7.226467796999941, 0.0 ], [ 113.182590189000052, -7.226493103999928, 0.0 ], [ 113.182368498000073, -7.226541945999941, 0.0 ], [ 113.18208994400004, -7.226557759999935, 0.0 ], [ 113.181763047000118, -7.226589041999944, 0.0 ], [ 113.181484714000021, -7.226611814999956, 0.0 ], [ 113.181138902000043, -7.226706400999944, 0.0 ], [ 113.18084951000003, -7.226820094999937, 0.0 ], [ 113.180546400000026, -7.226941192999959, 0.0 ], [ 113.180317738000099, -7.226990255999965, 0.0 ], [ 113.180018716000063, -7.227020652999954, 0.0 ], [ 113.179734076000045, -7.227064525999936, 0.0 ], [ 113.179497335000065, -7.227079010999944, 0.0 ], [ 113.179281281000044, -7.227085871999975, 0.0 ], [ 113.179045869000106, -7.227142115999925, 0.0 ], [ 113.178866213000106, -7.227196589999949, 0.0 ], [ 113.178721405000033, -7.227249957999959, 0.0 ], [ 113.178436762000047, -7.22729383099994, 0.0 ], [ 113.178062181000087, -7.227361461999976, 0.0 ], [ 113.177763155000093, -7.22739185699993, 0.0 ], [ 113.177504174000092, -7.22736524499993, 0.0 ], [ 113.177265214000045, -7.227310128999932, 0.0 ], [ 113.177082233000078, -7.227260201999968, 0.0 ], [ 113.176859207, -7.227267282999946, 0.0 ], [ 113.176601554000058, -7.227282429999946, 0.0 ], [ 113.176311491000092, -7.227375243999973, 0.0 ], [ 113.176020319000031, -7.227433257999962, 0.0 ], [ 113.175901614000054, -7.227430059999961, 0.0 ], [ 113.175404922000098, -7.227476597999953, 0.0 ], [ 113.175051118000056, -7.227294905999941, 0.0 ], [ 113.174933788000089, -7.227119677999951, 0.0 ], [ 113.17489893700008, -7.227107004999937, 0.0 ], [ 113.174619700000108, -7.227005463999944, 0.0 ], [ 113.174134289000108, -7.226976910999952, 0.0 ], [ 113.173691710000071, -7.227076847999967, 0.0 ], [ 113.173163469000087, -7.227291, 0.0 ], [ 113.17256881600008, -7.227384540999935, 0.0 ], [ 113.171892837000087, -7.227490873999955, 0.0 ], [ 113.171151640000062, -7.22732431299994, 0.0 ], [ 113.170622205000086, -7.227205338999966, 0.0 ], [ 113.169464459000096, -7.226847073999977, 0.0 ], [ 113.168946469000048, -7.226354894999929, 0.0 ], [ 113.168701967000061, -7.22612576299997, 0.0 ], [ 113.168592106, -7.225962032999973, 0.0 ], [ 113.168467862000057, -7.225784822999969, 0.0 ], [ 113.168449494000015, -7.225646058999928, 0.0 ], [ 113.168439425000088, -7.225548835999973, 0.0 ], [ 113.168414309000013, -7.225417252999932, 0.0 ], [ 113.16833254900007, -7.22525959799998, 0.0 ], [ 113.168278226000098, -7.225087137999935, 0.0 ], [ 113.168202551000036, -7.224901419999981, 0.0 ], [ 113.16813340300007, -7.224701559999971, 0.0 ], [ 113.168042017000062, -7.224460601999965, 0.0 ], [ 113.167915119000099, -7.224199866999925, 0.0 ], [ 113.167774724000083, -7.223953494999932, 0.0 ], [ 113.167664201000093, -7.223768880999955, 0.0 ], [ 113.167504226, -7.223564933999967, 0.0 ], [ 113.167430323000076, -7.223434896999947, 0.0 ], [ 113.167362947000015, -7.223290718999976, 0.0 ], [ 113.167310175000011, -7.223166979999974, 0.0 ], [ 113.167256738000106, -7.223022359999959, 0.0 ], [ 113.167185601000028, -7.222759854999936, 0.0 ], [ 113.167116234000105, -7.22255303399993, 0.0 ], [ 113.167031600000087, -7.222304891999954, 0.0 ], [ 113.166490643000088, -7.221368862999952, 0.0 ], [ 113.166490347000035, -7.221368350999967, 0.0 ], [ 113.166304830000058, -7.220653806999962, 0.0 ], [ 113.166361553000115, -7.220412952999936, 0.0 ], [ 113.166445164000038, -7.220372633999943, 0.0 ], [ 113.166446158000099, -7.22037215499995, 0.0 ], [ 113.166543388000036, -7.220334664999939, 0.0 ], [ 113.166612201000021, -7.220304614999975, 0.0 ], [ 113.166680793000069, -7.220267603999957, 0.0 ], [ 113.166733454000109, -7.220168390999959, 0.0 ], [ 113.166794191, -7.220103759999972, 0.0 ], [ 113.16687628000011, -7.220052385999963, 0.0 ], [ 113.166966887000058, -7.220049513999925, 0.0 ], [ 113.167214871000056, -7.219620128999964, 0.0 ], [ 113.16713018400003, -7.219479981999939, 0.0 ], [ 113.166990238000039, -7.219247526999936, 0.0 ], [ 113.166821509000101, -7.21906045399993, 0.0 ], [ 113.16656760300009, -7.219024751999939, 0.0 ], [ 113.165848281000081, -7.218395166999926, 0.0 ], [ 113.165846802000033, -7.218393872999968, 0.0 ], [ 113.165644216000032, -7.218042190999938, 0.0 ], [ 113.16551881700002, -7.217713880999952, 0.0 ], [ 113.16539990900003, -7.217282976999968, 0.0 ], [ 113.165256647000092, -7.216437885999937, 0.0 ], [ 113.165267743000072, -7.21604575899994, 0.0 ], [ 113.165268852000054, -7.216006567999955, 0.0 ], [ 113.165311009000106, -7.215667478999933, 0.0 ], [ 113.165353166000045, -7.215328388999978, 0.0 ], [ 113.165462277000074, -7.214989835999972, 0.0 ], [ 113.166196408000019, -7.214670337999962, 0.0 ], [ 113.166982712000049, -7.214398478999954, 0.0 ], [ 113.167106840000088, -7.214352742999949, 0.0 ], [ 113.167141805000028, -7.214332234999972, 0.0 ], [ 113.167286257000114, -7.21425887099997, 0.0 ], [ 113.167303075000063, -7.214202599999965, 0.0 ], [ 113.167282132000082, -7.21412894499997, 0.0 ], [ 113.167243781000025, -7.214093, 0.0 ], [ 113.167196727000032, -7.214075910999952, 0.0 ], [ 113.166991913000061, -7.214070720999928, 0.0 ], [ 113.166735354000025, -7.21407884599995, 0.0 ], [ 113.166457230000105, -7.214108555999928, 0.0 ], [ 113.166269711000041, -7.21413539699995, 0.0 ], [ 113.166081750000103, -7.214148316999967, 0.0 ], [ 113.16561106000006, -7.214199204999943, 0.0 ], [ 113.165111220000085, -7.213743951999959, 0.0 ], [ 113.165109794000045, -7.21374265299994, 0.0 ], [ 113.163983224000049, -7.211793560999979, 0.0 ], [ 113.163476746000015, -7.210860858999979, 0.0 ], [ 113.162903228, -7.209627417999968, 0.0 ], [ 113.162702335000063, -7.209319964999963, 0.0 ], [ 113.162194199000055, -7.208895022999968, 0.0 ], [ 113.16034026400007, -7.207602673999929, 0.0 ], [ 113.15968513200005, -7.20719050799994, 0.0 ], [ 113.159165890000054, -7.206944389999933, 0.0 ], [ 113.158886713000015, -7.206864388999975, 0.0 ], [ 113.158886587000097, -7.206864352999958, 0.0 ], [ 113.158707304000018, -7.206812967999952, 0.0 ], [ 113.158167183000046, -7.206693302999952, 0.0 ], [ 113.15730721400007, -7.206493084999977, 0.0 ], [ 113.156747270000096, -7.206365700999982, 0.0 ], [ 113.156153716000063, -7.206316459999925, 0.0 ], [ 113.155624000000103, -7.206414108999979, 0.0 ], [ 113.155164237, -7.206552621999947, 0.0 ], [ 113.155159328000082, -7.206552968999972, 0.0 ], [ 113.154497979000098, -7.206599662999963, 0.0 ], [ 113.154377725000018, -7.206547721999925, 0.0 ], [ 113.153975496000044, -7.206275599999969, 0.0 ], [ 113.153306998000062, -7.205564271999947, 0.0 ], [ 113.153213962000109, -7.20549056599998, 0.0 ], [ 113.152019755000083, -7.205674625999961, 0.0 ], [ 113.152022843000054, -7.205772077999939, 0.0 ], [ 113.152012652000053, -7.205890851999925, 0.0 ], [ 113.15193827500002, -7.20618584999994, 0.0 ], [ 113.151847531000044, -7.206404718999977, 0.0 ], [ 113.151721585000018, -7.206833734999975, 0.0 ], [ 113.151644120000014, -7.207031281999946, 0.0 ], [ 113.151566876000061, -7.20723578999997, 0.0 ], [ 113.151447812000015, -7.207441618999951, 0.0 ], [ 113.151375333000033, -7.207576298999925, 0.0 ], [ 113.151233594000018, -7.207727102999968, 0.0 ], [ 113.151090310000086, -7.207829180999966, 0.0 ], [ 113.150980554000057, -7.207888391999973, 0.0 ], [ 113.150895589000015, -7.20784927099993, 0.0 ], [ 113.150602978000052, -7.207642515999964, 0.0 ], [ 113.150494765000076, -7.20775045299996, 0.0 ], [ 113.150552291000054, -7.207804377999935, 0.0 ], [ 113.150568437000061, -7.207873545999973, 0.0 ], [ 113.150550394000106, -7.207964697999955, 0.0 ], [ 113.150475488000097, -7.208022807999953, 0.0 ], [ 113.150321352000105, -7.208222779999971, 0.0 ], [ 113.150131262000059, -7.208389047999958, 0.0 ], [ 113.149981891000039, -7.208519190999937, 0.0 ], [ 113.149757833000081, -7.208714404999967, 0.0 ], [ 113.14945035300002, -7.208919222999953, 0.0 ], [ 113.148975369000027, -7.209122368999942, 0.0 ], [ 113.148597525000014, -7.209308507999936, 0.0 ], [ 113.148114024000051, -7.209463147999941, 0.0 ], [ 113.147630964000086, -7.20963170999994, 0.0 ], [ 113.147346508000055, -7.209682507999958, 0.0 ], [ 113.147151122000082, -7.209681714999931, 0.0 ], [ 113.146997997000085, -7.209693521999952, 0.0 ], [ 113.146743849000018, -7.20982000999993, 0.0 ], [ 113.146436144000063, -7.210017869999945, 0.0 ], [ 113.146204008000041, -7.210178501999962, 0.0 ], [ 113.146075764000102, -7.210314945999926, 0.0 ], [ 113.145945755000071, -7.210395702999961, 0.0 ], [ 113.145834011000034, -7.210392266999975, 0.0 ], [ 113.145723148000116, -7.21041667399993, 0.0 ], [ 113.145606859000054, -7.21049002899997, 0.0 ], [ 113.145567243000073, -7.210560960999942, 0.0 ], [ 113.145534377000104, -7.210624711999969, 0.0 ], [ 113.145452939000052, -7.210696965999944, 0.0 ], [ 113.145350150000013, -7.210755958999925, 0.0 ], [ 113.145260418000021, -7.210786666999979, 0.0 ], [ 113.145094014000051, -7.210819797999932, 0.0 ], [ 113.144887551000011, -7.210909938999976, 0.0 ], [ 113.144770380000068, -7.210955449999972, 0.0 ], [ 113.144618797000021, -7.21101598499996, 0.0 ], [ 113.144516228000043, -7.211081938999939, 0.0 ], [ 113.144441539000013, -7.211147011999969, 0.0 ], [ 113.144423276000111, -7.211231204999933, 0.0 ], [ 113.144426364000083, -7.211328659999936, 0.0 ], [ 113.144448246000024, -7.211578817999964, 0.0 ], [ 113.144444453, -7.211899466999967, 0.0 ], [ 113.144449086, -7.212045648999947, 0.0 ], [ 113.144462675000113, -7.212254260999941, 0.0 ], [ 113.144475823000107, -7.212448949999953, 0.0 ], [ 113.144501588000026, -7.212601431999929, 0.0 ], [ 113.14449051500003, -7.212692365999942, 0.0 ], [ 113.144498028000044, -7.212789801999975, 0.0 ], [ 113.144410228000083, -7.21287429299997, 0.0 ], [ 113.144425364000085, -7.213057382999978, 0.0 ], [ 113.144426303000046, -7.21306874499993, 0.0 ], [ 113.144496768000067, -7.21392111199998, 0.0 ], [ 113.143233960000089, -7.21369404099994, 0.0 ], [ 113.141769841000041, -7.213302989999931, 0.0 ], [ 113.14060487900008, -7.212857041999939, 0.0 ], [ 113.139156960000037, -7.21217798999993, 0.0 ], [ 113.137706881000099, -7.21127501999996, 0.0 ], [ 113.137830001000111, -7.210950029999935, 0.0 ], [ 113.138252998000098, -7.209839969999962, 0.0 ], [ 113.138947080000094, -7.206292979999944, 0.0 ], [ 113.139748080000118, -7.202473019999957, 0.0 ], [ 113.140247040000077, -7.201014029999953, 0.0 ], [ 113.141576160000113, -7.196140978999949, 0.0 ], [ 113.141619000000105, -7.193688029999976, 0.0 ], [ 113.141772001000049, -7.191342989999953, 0.0 ], [ 113.142038040000102, -7.189869959999953, 0.0 ], [ 113.142521160000115, -7.187904989999936, 0.0 ], [ 113.14273284, -7.186650029999953, 0.0 ], [ 113.142691080000077, -7.185219030999974, 0.0 ], [ 113.142426120000096, -7.184341979999942, 0.0 ], [ 113.141890080000053, -7.183494991999964, 0.0 ], [ 113.141885040000034, -7.183486978999952, 0.0 ], [ 113.141349000000105, -7.182621989999973, 0.0 ], [ 113.140577880000023, -7.18131797999996, 0.0 ], [ 113.13981, -7.180558021999957, 0.0 ], [ 113.138876881000101, -7.17968996999997, 0.0 ], [ 113.138163001000066, -7.178984998999965, 0.0 ], [ 113.137449840000045, -7.178225039999973, 0.0 ], [ 113.13673416000006, -7.177029030999961, 0.0 ], [ 113.136126840000088, -7.175613959999964, 0.0 ], [ 113.135519160000058, -7.174144978999948, 0.0 ], [ 113.134964040000114, -7.172240039999963, 0.0 ], [ 113.134520879000092, -7.171041959999968, 0.0 ], [ 113.134025161000068, -7.170118018999972, 0.0 ], [ 113.133584879000068, -7.169465969999976, 0.0 ], [ 113.132851918000028, -7.168731029999947, 0.0 ], [ 113.132793960000072, -7.168663978999973, 0.0 ], [ 113.132267999000078, -7.168053958999963, 0.0 ], [ 113.132102039000074, -7.167673979999961, 0.0 ], [ 113.132099880000055, -7.167183031999969, 0.0 ], [ 113.132207159000018, -7.166691989999947, 0.0 ], [ 113.132531160000099, -7.165926989999946, 0.0 ], [ 113.133018959000083, -7.165161990999934, 0.0 ], [ 113.133997080000086, -7.164120960999981, 0.0 ], [ 113.134649040000113, -7.163354969999943, 0.0 ], [ 113.135682960000054, -7.162423021999928, 0.0 ], [ 113.13660708000009, -7.161491970999975, 0.0 ], [ 113.137202880000018, -7.160562991999939, 0.0 ], [ 113.137526880000109, -7.159689, 0.0 ], [ 113.137525080000046, -7.159197959999972, 0.0 ], [ 113.137139158000082, -7.158491008999931, 0.0 ], [ 113.137027920000037, -7.15800096199996, 0.0 ], [ 113.137079041000106, -7.157347019999975, 0.0 ], [ 113.137350840000067, -7.156963978999954, 0.0 ], [ 113.137731, -7.156635029999961, 0.0 ], [ 113.138603998, -7.156413, 0.0 ], [ 113.139641880000113, -7.156463039999949, 0.0 ], [ 113.140244160000066, -7.156568969999967, 0.0 ], [ 113.140626120000093, -7.156458, 0.0 ], [ 113.140897920000043, -7.156239030999927, 0.0 ], [ 113.140985776000093, -7.156255132999945, 0.0 ], [ 113.141188213000078, -7.156249677999938, 0.0 ], [ 113.141602240000111, -7.156454310999948, 0.0 ], [ 113.141963918000101, -7.156689879999931, 0.0 ], [ 113.142211382000028, -7.156875475999925, 0.0 ], [ 113.142460179000068, -7.15707625899995, 0.0 ], [ 113.142618269000081, -7.157203840999955, 0.0 ], [ 113.142727726000089, -7.157275224999978, 0.0 ], [ 113.142830040000035, -7.157308537999938, 0.0 ], [ 113.142994224000063, -7.157339471999933, 0.0 ], [ 113.14351798000007, -7.157368574999964, 0.0 ], [ 113.143601161000106, -7.157374019999963, 0.0 ], [ 113.143948919000081, -7.157383018999951, 0.0 ], [ 113.144226840000101, -7.157349, 0.0 ], [ 113.144343840000033, -7.157323979999944, 0.0 ], [ 113.144509231000029, -7.157282069999951, 0.0 ], [ 113.144607731000065, -7.157257106999964, 0.0 ], [ 113.144904931000042, -7.157125319999977, 0.0 ], [ 113.14562993800007, -7.156657087999974, 0.0 ], [ 113.145909840000058, -7.156412011999976, 0.0 ], [ 113.146183910000104, -7.156244279999953, 0.0 ], [ 113.146211996000034, -7.156227091999938, 0.0 ], [ 113.146528439, -7.156016965999981, 0.0 ], [ 113.146615050000037, -7.155976990999932, 0.0 ], [ 113.146719746000031, -7.155937967999932, 0.0 ], [ 113.146827299000051, -7.155910365999944, 0.0 ], [ 113.147029076000081, -7.155874197999935, 0.0 ], [ 113.147305094000103, -7.155831367999951, 0.0 ], [ 113.147572545000116, -7.155814237999948, 0.0 ], [ 113.147772419000034, -7.155820898999934, 0.0 ], [ 113.148109352, -7.155887522999933, 0.0 ], [ 113.148266395000064, -7.155931305999957, 0.0 ], [ 113.148539558000039, -7.156054085999926, 0.0 ], [ 113.148652822000031, -7.156137842999954, 0.0 ], [ 113.148767880000037, -7.156269990999931, 0.0 ], [ 113.148935500000107, -7.156523314999959, 0.0 ], [ 113.149061136000114, -7.15669463699993, 0.0 ], [ 113.149166784000045, -7.156821225999977, 0.0 ], [ 113.149241976000098, -7.156882137999958, 0.0 ], [ 113.149335251000025, -7.15693067899997, 0.0 ], [ 113.149483252000095, -7.156958771999939, 0.0 ], [ 113.149636728000019, -7.156975429999932, 0.0 ], [ 113.149941591000015, -7.156976479999969, 0.0 ], [ 113.15027323400011, -7.156945684999926, 0.0 ], [ 113.150551629, -7.156921889999978, 0.0 ], [ 113.150828838000052, -7.156920699999944, 0.0 ], [ 113.151255952000042, -7.156911181999931, 0.0 ], [ 113.15158907600005, -7.156915940999966, 0.0 ], [ 113.151759208000044, -7.156933786999957, 0.0 ], [ 113.151948375000075, -7.156971858999952, 0.0 ], [ 113.152095476000113, -7.157020465999949, 0.0 ], [ 113.152169696000101, -7.157041209999932, 0.0 ], [ 113.152701961000048, -7.157189969999934, 0.0 ], [ 113.152826349000065, -7.157237346999977, 0.0 ], [ 113.152992245000064, -7.157247484999971, 0.0 ], [ 113.153073622000079, -7.157264616999953, 0.0 ], [ 113.153310615, -7.157375974999979, 0.0 ], [ 113.1534288470001, -7.157456232999948, 0.0 ], [ 113.153701799000032, -7.157641522999938, 0.0 ], [ 113.154064429000073, -7.157988448999959, 0.0 ], [ 113.154180070000052, -7.158065544999943, 0.0 ], [ 113.15431998300005, -7.158154058999969, 0.0 ], [ 113.154554122000036, -7.158261134999975, 0.0 ], [ 113.154619795000031, -7.158278267999947, 0.0 ], [ 113.15464909700006, -7.158274819999974, 0.0 ], [ 113.154765418000011, -7.158261134999975, 0.0 ], [ 113.154989563000072, -7.158201172999952, 0.0 ], [ 113.155093784000087, -7.158185467999942, 0.0 ], [ 113.155196577000083, -7.158208310999953, 0.0 ], [ 113.155280809000033, -7.158268272999976, 0.0 ], [ 113.155349338000065, -7.158365354999944, 0.0 ], [ 113.155385029000058, -7.15847243099995, 0.0 ], [ 113.155387885000096, -7.158596638999938, 0.0 ], [ 113.155380746000105, -7.158880748999934, 0.0 ], [ 113.155416438000088, -7.159251942999958, 0.0 ], [ 113.155447777000063, -7.159349346999932, 0.0 ], [ 113.155512737000095, -7.159509716999935, 0.0 ], [ 113.15554248, -7.159608465999952, 0.0 ], [ 113.155557948000023, -7.159714350999934, 0.0 ], [ 113.155556757000113, -7.159836892999976, 0.0 ], [ 113.15551868600005, -7.159997506999957, 0.0 ], [ 113.155512737000095, -7.16006889099998, 0.0 ], [ 113.155522255000051, -7.160114100999976, 0.0 ], [ 113.155567465000104, -7.160186673999931, 0.0 ], [ 113.155694766000011, -7.160278282999968, 0.0 ], [ 113.155891071000042, -7.160378220999974, 0.0 ], [ 113.156019561000107, -7.160429378999936, 0.0 ], [ 113.156149244000062, -7.160441275999972, 0.0 ], [ 113.156474781000043, -7.160485890999951, 0.0 ], [ 113.156826200000069, -7.160555490999968, 0.0 ], [ 113.157027263000032, -7.160556679999956, 0.0 ], [ 113.157208104, -7.160581664999938, 0.0 ], [ 113.15731279900001, -7.16062806399998, 0.0 ], [ 113.157369906000099, -7.160682791999932, 0.0 ], [ 113.157523383000012, -7.160961188999977, 0.0 ], [ 113.157664960000034, -7.161188426999956, 0.0 ], [ 113.157805562000021, -7.161358323999934, 0.0 ], [ 113.157831729, -7.161382241999945, 0.0 ], [ 113.158019499000034, -7.161418044999948, 0.0 ], [ 113.158194390000062, -7.161450167999931, 0.0 ], [ 113.158290758000021, -7.161491809999973, 0.0 ], [ 113.158391885000015, -7.161557243999937, 0.0 ], [ 113.158533462000037, -7.161673836999967, 0.0 ], [ 113.158757132, -7.161802327999965, 0.0 ], [ 113.158827784000096, -7.161839071999964, 0.0 ], [ 113.158735921000016, -7.161846029999936, 0.0 ], [ 113.158711079000113, -7.162039980999964, 0.0 ], [ 113.158756081000092, -7.16237702899997, 0.0 ], [ 113.158747080000012, -7.162875988999929, 0.0 ], [ 113.158564920000117, -7.163387008999962, 0.0 ], [ 113.158521001000054, -7.163452979999931, 0.0 ], [ 113.158932120000031, -7.164082978999943, 0.0 ], [ 113.159036160000028, -7.16417802199993, 0.0 ], [ 113.159568960000115, -7.164207991999945, 0.0 ], [ 113.160736080000106, -7.164680038999961, 0.0 ], [ 113.16148884100005, -7.165739969999947, 0.0 ], [ 113.162016959000084, -7.166015009999967, 0.0 ], [ 113.162334840000085, -7.166178000999935, 0.0 ], [ 113.16307608000011, -7.166457989999969, 0.0 ], [ 113.16388500100004, -7.166559960999962, 0.0 ], [ 113.164787879000073, -7.16663502199998, 0.0 ], [ 113.16582, -7.166685959999938, 0.0 ], [ 113.166803159000096, -7.166745000999981, 0.0 ], [ 113.167780919000052, -7.166853988999947, 0.0 ], [ 113.1684289210001, -7.166971979999971, 0.0 ], [ 113.168544120000092, -7.167016979999971, 0.0 ], [ 113.168592326000066, -7.166934269999956, 0.0 ], [ 113.168657160000066, -7.166823028999943, 0.0 ], [ 113.168659488000117, -7.166822018999937, 0.0 ], [ 113.168931120000025, -7.16670395999995, 0.0 ], [ 113.169241079000017, -7.166583989999936, 0.0 ], [ 113.169543119000082, -7.166397958999937, 0.0 ], [ 113.169615694000072, -7.166321280999966, 0.0 ], [ 113.169683160000091, -7.166249998999945, 0.0 ], [ 113.169822121000038, -7.165908989999934, 0.0 ], [ 113.169917160000068, -7.165583009999978, 0.0 ], [ 113.170162190000042, -7.165709645999925, 0.0 ], [ 113.170406085000081, -7.165775080999936, 0.0 ], [ 113.170554801000094, -7.165786977999971, 0.0 ], [ 113.170763004000037, -7.165834566999933, 0.0 ], [ 113.170881977000022, -7.165888105999954, 0.0 ], [ 113.171334074000015, -7.165870261999942, 0.0 ], [ 113.171500637, -7.165816721999931, 0.0 ], [ 113.171708841000054, -7.165715593999948, 0.0 ], [ 113.171911095000041, -7.165715593999948, 0.0 ], [ 113.17199073300003, -7.165723559999947, 0.0 ], [ 113.172089552000102, -7.16573343999994, 0.0 ], [ 113.172232322000013, -7.165769134999948, 0.0 ], [ 113.172362892000024, -7.165818658999967, 0.0 ], [ 113.172404832000097, -7.165834566999933, 0.0 ], [ 113.172624931000087, -7.165900002999933, 0.0 ], [ 113.172708213000078, -7.165917848999925, 0.0 ], [ 113.172987800000101, -7.165995180999971, 0.0 ], [ 113.173142465000069, -7.166048718999946, 0.0 ], [ 113.17327333500009, -7.166102256999977, 0.0 ], [ 113.173505334000083, -7.16613794899996, 0.0 ], [ 113.173570768000104, -7.166268818999981, 0.0 ], [ 113.17374922700003, -7.166352099999926, 0.0 ], [ 113.173850354000024, -7.166228666999928, 0.0 ], [ 113.173969327, -7.166228666999928, 0.0 ], [ 113.174112094000066, -7.166264357999978, 0.0 ], [ 113.174237018000099, -7.166305997999928, 0.0 ], [ 113.17436194000004, -7.166353589999972, 0.0 ], [ 113.17446901400001, -7.166413073999934, 0.0 ], [ 113.174587987000109, -7.166526097999963, 0.0 ], [ 113.174670007000032, -7.166553439999973, 0.0 ], [ 113.174677218000056, -7.166555842999969, 0.0 ], [ 113.174808087000088, -7.166555842999969, 0.0 ], [ 113.174980599000037, -7.166561791999925, 0.0 ], [ 113.175117417000024, -7.16658558499995, 0.0 ], [ 113.175488613000084, -7.166398797999932, 0.0 ], [ 113.175752733000081, -7.166470180999966, 0.0 ], [ 113.17592822000006, -7.16655714999996, 0.0 ], [ 113.175992524000094, -7.166659282999944, 0.0 ], [ 113.176009120000117, -7.166685640999958, 0.0 ], [ 113.176018637000084, -7.167161532999955, 0.0 ], [ 113.176047192000055, -7.167175809999947, 0.0 ], [ 113.176470737000045, -7.166966417999959, 0.0 ], [ 113.176675369, -7.166854582999974, 0.0 ], [ 113.176801481000098, -7.167004488999964, 0.0 ], [ 113.1768847620001, -7.167014007999967, 0.0 ], [ 113.176960905000101, -7.166975936999961, 0.0 ], [ 113.177037049000091, -7.16692596799993, 0.0 ], [ 113.177098913, -7.166904551999949, 0.0 ], [ 113.177153641000018, -7.166904551999949, 0.0 ], [ 113.177432038, -7.167056836999961, 0.0 ], [ 113.177582468000082, -7.167113961999974, 0.0 ], [ 113.177620015000116, -7.167128220999928, 0.0 ], [ 113.177839337000023, -7.16713643099996, 0.0 ], [ 113.17784249500005, -7.167136548999963, 0.0 ], [ 113.178329690000055, -7.167169741999942, 0.0 ], [ 113.178558118000069, -7.167105496999966, 0.0 ], [ 113.179079220000062, -7.167648013999951, 0.0 ], [ 113.179214850000108, -7.167747951999957, 0.0 ], [ 113.179507523000098, -7.167797920999931, 0.0 ], [ 113.179860843000029, -7.167845901999954, 0.0 ], [ 113.180085731000077, -7.167876442999955, 0.0 ], [ 113.180221361, -7.167954965999968, 0.0 ], [ 113.180178532000014, -7.168211946999975, 0.0 ], [ 113.180201844000067, -7.168337253999937, 0.0 ], [ 113.180235639000102, -7.168518896999956, 0.0 ], [ 113.180235639000102, -7.168875815999968, 0.0 ], [ 113.180199946000016, -7.169247012999961, 0.0 ], [ 113.18013686200004, -7.169587668999952, 0.0 ], [ 113.180128563000039, -7.169632483999976, 0.0 ], [ 113.180142838000052, -7.16986091299998, 0.0 ], [ 113.180149049000079, -7.169872379999958, 0.0 ], [ 113.180235639000102, -7.170032233999962, 0.0 ], [ 113.180242776000114, -7.170189278999942, 0.0 ], [ 113.180264191000106, -7.170374876999972, 0.0 ], [ 113.180299883000089, -7.170560474999945, 0.0 ], [ 113.180307022000079, -7.17080318099994, 0.0 ], [ 113.180264191000106, -7.170931669999959, 0.0 ], [ 113.180256586000041, -7.170996307999928, 0.0 ], [ 113.180249915000104, -7.171053022999956, 0.0 ], [ 113.180228501000101, -7.171174376999943, 0.0 ], [ 113.180234455, -7.171214076999945, 0.0 ], [ 113.180249915000104, -7.171317142999953, 0.0 ], [ 113.180335575000072, -7.171402802999978, 0.0 ], [ 113.180349852000063, -7.171552710999947, 0.0 ], [ 113.180406959000038, -7.171659786999953, 0.0 ], [ 113.180471205000117, -7.171695477999947, 0.0 ], [ 113.180571141000087, -7.171745445999932, 0.0 ], [ 113.180556866000074, -7.171981014999972, 0.0 ], [ 113.180499765000036, -7.172287752999978, 0.0 ], [ 113.180603039000061, -7.172290978999968, 0.0 ], [ 113.180986081000015, -7.17228099099998, 0.0 ], [ 113.181851879000078, -7.17275897899998, 0.0 ], [ 113.182449840000118, -7.173063000999946, 0.0 ], [ 113.183129160000021, -7.17354396199994, 0.0 ], [ 113.183758081000065, -7.174026989999959, 0.0 ], [ 113.184248039000067, -7.174344959999928, 0.0 ], [ 113.18424984, -7.174347029999979, 0.0 ], [ 113.18478696000011, -7.174863989999949, 0.0 ], [ 113.185428120000097, -7.175683978999928, 0.0 ], [ 113.185909612000046, -7.17619637599995, 0.0 ], [ 113.186051251000094, -7.176225350999971, 0.0 ], [ 113.18626723400007, -7.17626953499996, 0.0 ], [ 113.186597385000027, -7.176433123999971, 0.0 ], [ 113.186963228000081, -7.176596710999945, 0.0 ], [ 113.187335018000113, -7.176852503999953, 0.0 ], [ 113.187745475000042, -7.177096397999946, 0.0 ], [ 113.188072441000031, -7.177273696999976, 0.0 ], [ 113.188167829, -7.177325420999978, 0.0 ], [ 113.188120240000103, -7.177426547999971, 0.0 ], [ 113.188048856000023, -7.177542546999973, 0.0 ], [ 113.187995317000059, -7.177685313999973, 0.0 ], [ 113.187932857000078, -7.177831058999971, 0.0 ], [ 113.187858499000072, -7.178057104999937, 0.0 ], [ 113.187825783000108, -7.17824746399998, 0.0 ], [ 113.187784140000076, -7.178387255999951, 0.0 ], [ 113.187668142, -7.178631149999944, 0.0 ], [ 113.187584861, -7.178782842999965, 0.0 ], [ 113.187495467000076, -7.179010991999974, 0.0 ], [ 113.187534838000033, -7.179272009999977, 0.0 ], [ 113.187602160000097, -7.179731008999966, 0.0 ], [ 113.187738958000068, -7.180082008999932, 0.0 ], [ 113.188025161000041, -7.180397010999968, 0.0 ], [ 113.18904684000006, -7.181028, 0.0 ], [ 113.189420160000054, -7.181145989999948, 0.0 ], [ 113.190459120000014, -7.180544970999961, 0.0 ], [ 113.190666960000044, -7.180231574999937, 0.0 ], [ 113.190754303000062, -7.180099874999939, 0.0 ], [ 113.190926814000022, -7.179897617999927, 0.0 ], [ 113.191111222000018, -7.180022539999925, 0.0 ], [ 113.191146914000115, -7.179974950999963, 0.0 ], [ 113.191367014000093, -7.180022539999925, 0.0 ], [ 113.192045162000113, -7.180373509999981, 0.0 ], [ 113.192073384000082, -7.180383835999976, 0.0 ], [ 113.192522121000025, -7.18054800799996, 0.0 ], [ 113.192776845000026, -7.180641199999968, 0.0 ], [ 113.192822055000079, -7.180519846999971, 0.0 ], [ 113.192882732000044, -7.180487724999978, 0.0 ], [ 113.192975530000012, -7.180502001999969, 0.0 ], [ 113.193150420000052, -7.180462739999939, 0.0 ], [ 113.193332448000092, -7.180327112999976, 0.0 ], [ 113.193662004000089, -7.180085595999969, 0.0 ], [ 113.193691418000071, -7.180062484999951, 0.0 ], [ 113.193995129000086, -7.179823854999938, 0.0 ], [ 113.194435328000054, -7.179437192999956, 0.0 ], [ 113.194518610000046, -7.179252783999971, 0.0 ], [ 113.194607840000117, -7.17911001899995, 0.0 ], [ 113.194720865000022, -7.179020786999956, 0.0 ], [ 113.194851735000043, -7.178931556999942, 0.0 ], [ 113.194887428000015, -7.178764995999927, 0.0 ], [ 113.194786301000022, -7.17864007299994, 0.0 ], [ 113.194661378000092, -7.178556792999927, 0.0 ], [ 113.194524559000115, -7.178408075999926, 0.0 ], [ 113.194490779000034, -7.178340515999935, 0.0 ], [ 113.194411535000086, -7.178182026999934, 0.0 ], [ 113.194304459000023, -7.178033311999968, 0.0 ], [ 113.194221178000021, -7.177825109999958, 0.0 ], [ 113.194286613000031, -7.177563366999948, 0.0 ], [ 113.194393689000094, -7.177361112999961, 0.0 ], [ 113.194536456000037, -7.177194552999936, 0.0 ], [ 113.194601892000037, -7.177111269999955, 0.0 ], [ 113.194937397000103, -7.177051782999968, 0.0 ], [ 113.19530145300007, -7.177116027999944, 0.0 ], [ 113.195758310000087, -7.177323040999966, 0.0 ], [ 113.195840401000055, -7.177365872999928, 0.0 ], [ 113.19596889200011, -7.177001813999937, 0.0 ], [ 113.196129505000044, -7.176723417999938, 0.0 ], [ 113.196169684000097, -7.176677360999975, 0.0 ], [ 113.196535204000043, -7.176493798999957, 0.0 ], [ 113.196682678000116, -7.176365561999944, 0.0 ], [ 113.196699386000091, -7.176351032999946, 0.0 ], [ 113.196785046000059, -7.176179710999975, 0.0 ], [ 113.196827879000011, -7.175958420999962, 0.0 ], [ 113.196834348000039, -7.175686645999974, 0.0 ], [ 113.196842153000034, -7.175358795999955, 0.0 ], [ 113.196956368000087, -7.174987600999941, 0.0 ], [ 113.196999023000103, -7.174857125999949, 0.0 ], [ 113.197076860000038, -7.174619037999946, 0.0 ], [ 113.197077721000028, -7.174616404999938, 0.0 ], [ 113.197164810000118, -7.174516466999933, 0.0 ], [ 113.197231434000059, -7.17454977999995, 0.0 ], [ 113.197326612000097, -7.174178583999947, 0.0 ], [ 113.197408704000054, -7.173875202999966, 0.0 ], [ 113.19781902200009, -7.173974673999965, 0.0 ], [ 113.197879837000073, -7.173989415999927, 0.0 ], [ 113.19790596100006, -7.173849577999931, 0.0 ], [ 113.197940513000049, -7.173664619999954, 0.0 ], [ 113.198004759000014, -7.173357671999952, 0.0 ], [ 113.198030408000022, -7.173275914999977, 0.0 ], [ 113.198061866000103, -7.173175641999933, 0.0 ], [ 113.198072573000104, -7.173068565999927, 0.0 ], [ 113.198093988000096, -7.172940073999939, 0.0 ], [ 113.198554414000114, -7.173079272999928, 0.0 ], [ 113.198935187000075, -7.173244964999981, 0.0 ], [ 113.19918756900006, -7.173323410999956, 0.0 ], [ 113.199318459000096, -7.173364093999965, 0.0 ], [ 113.199446950000038, -7.173494966999954, 0.0 ], [ 113.199537369000041, -7.173647250999977, 0.0 ], [ 113.199582579000094, -7.173918508999975, 0.0 ], [ 113.199661103000039, -7.174054137999974, 0.0 ], [ 113.199782454000115, -7.174230217999934, 0.0 ], [ 113.19989904800002, -7.17433729399994, 0.0 ], [ 113.20005315800006, -7.174475477999977, 0.0 ], [ 113.200333903000114, -7.174727213999972, 0.0 ], [ 113.20035912000003, -7.174744020999981, 0.0 ], [ 113.200591855000084, -7.174887044999934, 0.0 ], [ 113.200612920000026, -7.174899989999972, 0.0 ], [ 113.200729920000072, -7.17497199099995, 0.0 ], [ 113.200745038000036, -7.174982968999927, 0.0 ], [ 113.201078039000095, -7.175232989999927, 0.0 ], [ 113.201165159000084, -7.175298961999943, 0.0 ], [ 113.201170921000084, -7.175303008999947, 0.0 ], [ 113.201221341000064, -7.175336443999981, 0.0 ], [ 113.201309966000053, -7.175389982999945, 0.0 ], [ 113.201829224000107, -7.175703666999937, 0.0 ], [ 113.201859803000048, -7.175722139999948, 0.0 ], [ 113.202230999000108, -7.175943429999961, 0.0 ], [ 113.202409458000034, -7.17608619799995, 0.0 ], [ 113.202580780000062, -7.176364593999949, 0.0 ], [ 113.202709270000014, -7.176654888999963, 0.0 ], [ 113.202758472000028, -7.176736757999947, 0.0 ], [ 113.202999565000027, -7.17713791999995, 0.0 ], [ 113.20309712400001, -7.177287827999976, 0.0 ], [ 113.203115438000054, -7.177477641999928, 0.0 ], [ 113.203123297000047, -7.177559085999974, 0.0 ], [ 113.203136294000046, -7.177869380999937, 0.0 ], [ 113.203142332000084, -7.178013561999933, 0.0 ], [ 113.203194680000024, -7.178303855999957, 0.0 ], [ 113.203237197000021, -7.179024376999962, 0.0 ], [ 113.203311709000104, -7.179405091999968, 0.0 ], [ 113.20335612000008, -7.179632008999931, 0.0 ], [ 113.203429326000105, -7.179906199999948, 0.0 ], [ 113.203476, -7.180081018999942, 0.0 ], [ 113.203540080000039, -7.180263989999958, 0.0 ], [ 113.203540080000039, -7.180292971999961, 0.0 ], [ 113.203599007000093, -7.180454691999955, 0.0 ], [ 113.203707966000024, -7.180675115999975, 0.0 ], [ 113.203755640000054, -7.180771556999957, 0.0 ], [ 113.203951944000096, -7.181244471999946, 0.0 ], [ 113.204084987000101, -7.18147188699993, 0.0 ], [ 113.204207736000058, -7.181681697999977, 0.0 ], [ 113.204320805000066, -7.181852293999953, 0.0 ], [ 113.204377272000102, -7.181937492999964, 0.0 ], [ 113.204567629000053, -7.182214102999978, 0.0 ], [ 113.204644962000089, -7.182499637999967, 0.0 ], [ 113.204665782, -7.182829787999935, 0.0 ], [ 113.204663073, -7.182866248999972, 0.0 ], [ 113.204644353000049, -7.183118113999967, 0.0 ], [ 113.204633065000053, -7.183269988999939, 0.0 ], [ 113.204581073000099, -7.183526375999975, 0.0 ], [ 113.204956433, -7.183684783999979, 0.0 ], [ 113.204970115000037, -7.183690558999956, 0.0 ], [ 113.204948700000045, -7.183819050999944, 0.0 ], [ 113.205037931000106, -7.183865448999939, 0.0 ], [ 113.205191404000061, -7.183890432999931, 0.0 ], [ 113.205280635, -7.18392255599997, 0.0 ], [ 113.205319896000105, -7.183990369999947, 0.0 ], [ 113.205416265000053, -7.184122430999935, 0.0 ], [ 113.205526909000014, -7.18421165999996, 0.0 ], [ 113.205619707000096, -7.184304459999964, 0.0 ], [ 113.205712508000033, -7.184436520999952, 0.0 ], [ 113.20605158, -7.184632824999937, 0.0 ], [ 113.206139907000079, -7.184676198999966, 0.0 ], [ 113.206231080000066, -7.18472097199998, 0.0 ], [ 113.206254840000042, -7.185335038999938, 0.0 ], [ 113.206255918000011, -7.185341970999957, 0.0 ], [ 113.206256999000061, -7.185780001999944, 0.0 ], [ 113.206316040000047, -7.18630595999997, 0.0 ], [ 113.206348080000112, -7.186499009999977, 0.0 ], [ 113.206150080000043, -7.186655969999947, 0.0 ], [ 113.206034160000058, -7.186726979999946, 0.0 ], [ 113.206011841000077, -7.186757038999929, 0.0 ], [ 113.205996, -7.186787008999943, 0.0 ], [ 113.20594596, -7.187356979999947, 0.0 ], [ 113.205903840000019, -7.187492969999937, 0.0 ], [ 113.205751920000012, -7.187607990999936, 0.0 ], [ 113.205611159000114, -7.187679, 0.0 ], [ 113.205714120000039, -7.18818201199997, 0.0 ], [ 113.205701879000117, -7.188405029999956, 0.0 ], [ 113.205623039000102, -7.18861598899997, 0.0 ], [ 113.205529080000019, -7.188813988999925, 0.0 ], [ 113.205434041000103, -7.18902296899995, 0.0 ], [ 113.205843, -7.189800029999958, 0.0 ], [ 113.205993119000027, -7.190150038999946, 0.0 ], [ 113.206206958000053, -7.190722978999929, 0.0 ], [ 113.2061799600001, -7.191216990999976, 0.0 ], [ 113.206242960000054, -7.191564029999938, 0.0 ], [ 113.206458960000077, -7.191797041999962, 0.0 ], [ 113.206559039000012, -7.191847979999977, 0.0 ], [ 113.206714920000081, -7.191869039999972, 0.0 ], [ 113.208183, -7.192007009999941, 0.0 ], [ 113.208640921000097, -7.192065959999979, 0.0 ], [ 113.208933960000081, -7.192230029999962, 0.0 ], [ 113.209185960000013, -7.192483019999941, 0.0 ], [ 113.209453078000024, -7.192967041999964, 0.0 ], [ 113.209530120000068, -7.193369968999946, 0.0 ], [ 113.209614000000101, -7.193784961999938, 0.0 ], [ 113.209794001000091, -7.194128038999963, 0.0 ], [ 113.210151840000094, -7.194520979999936, 0.0 ], [ 113.210601121000082, -7.194842008999956, 0.0 ], [ 113.210853840000027, -7.195112998999946, 0.0 ], [ 113.21172, -7.196274989999949, 0.0 ], [ 113.212096920000022, -7.19670402099996, 0.0 ], [ 113.212698407000062, -7.196925217999933, 0.0 ], [ 113.212533998000026, -7.196912, 0.0 ], [ 113.212391, -7.196904, 0.0 ], [ 113.212266000000113, -7.196928998999965, 0.0 ], [ 113.212215, -7.196963, 0.0 ], [ 113.212121, -7.197080998999979, 0.0 ], [ 113.212105998000084, -7.197138, 0.0 ], [ 113.212123998000038, -7.197169001999953, 0.0 ], [ 113.212178000000108, -7.197221998999964, 0.0 ], [ 113.212207, -7.197265000999948, 0.0 ], [ 113.212218, -7.19738, 0.0 ], [ 113.212209001000019, -7.197583, 0.0 ], [ 113.212169, -7.19766, 0.0 ], [ 113.212140367000075, -7.197680405999961, 0.0 ], [ 113.212082, -7.197722, 0.0 ], [ 113.21198, -7.19776399899996, 0.0 ], [ 113.211947, -7.197808, 0.0 ], [ 113.211904000000118, -7.197938998999973, 0.0 ], [ 113.211453512000048, -7.198114050999948, 0.0 ], [ 113.211328589000118, -7.198143791999939, 0.0 ], [ 113.211322640000049, -7.198221126999954, 0.0 ], [ 113.211382127000093, -7.198393634999945, 0.0 ], [ 113.211435665000067, -7.198459070999945, 0.0 ], [ 113.211536791000071, -7.198607786999958, 0.0 ], [ 113.211566537000067, -7.198762451999926, 0.0 ], [ 113.211688935000097, -7.198929631999931, 0.0 ], [ 113.211810430000014, -7.19909557699998, 0.0 ], [ 113.211993741000015, -7.199379040999929, 0.0 ], [ 113.212006, -7.199398, 0.0 ], [ 113.212084, -7.199571, 0.0 ], [ 113.212115, -7.199641, 0.0 ], [ 113.212058, -7.199708, 0.0 ], [ 113.211983, -7.199766, 0.0 ], [ 113.211908999000116, -7.199878000999945, 0.0 ], [ 113.211388, -7.200516998999944, 0.0 ], [ 113.211162, -7.200778001999936, 0.0 ], [ 113.21119099900011, -7.201351998999939, 0.0 ], [ 113.211139561000095, -7.201691876999973, 0.0 ], [ 113.211122336000017, -7.201805690999947, 0.0 ], [ 113.211084, -7.202059, 0.0 ], [ 113.210947217000012, -7.202636183999971, 0.0 ], [ 113.210911, -7.202789, 0.0 ], [ 113.21030669400011, -7.202678684999967, 0.0 ], [ 113.210291998000116, -7.202676, 0.0 ], [ 113.210216887000115, -7.202794648999941, 0.0 ], [ 113.210073987000101, -7.203020377999962, 0.0 ], [ 113.209854541000027, -7.203367017999938, 0.0 ], [ 113.209821, -7.203419998999948, 0.0 ], [ 113.20965465200004, -7.203367017999938, 0.0 ], [ 113.209101998000051, -7.203191, 0.0 ], [ 113.209011001000022, -7.202569000999972, 0.0 ], [ 113.20849, -7.202413000999968, 0.0 ], [ 113.207932999000036, -7.20236, 0.0 ], [ 113.207470001000047, -7.203223998999931, 0.0 ], [ 113.207521772000064, -7.203367017999938, 0.0 ], [ 113.20771, -7.203886998999963, 0.0 ], [ 113.207737999000074, -7.204864998999938, 0.0 ], [ 113.2077820720001, -7.204883428999949, 0.0 ] ] ] ] } }
]
}
